Citation,Tag,ExpMM,ExpYY,State,Make,Address,ViolCode,Description,ViolFine,ViolDate,Balance,PenaltyDate,OpenFine,OpenPenalty,ImportDate,Neighborhood,PoliceDistrict,CouncilDistrict,Location,2010 Census Neighborhoods,2010 Census Wards Precincts,Zip Codes
56552459,661G69,00,0,NV,DODGE,Dundalk Ave SB @ O'Donnell St,030,Red Light Violation,75.00,07/25/2020 10:24:00 AM,75.00,,75.00,0.00,,,,,,,,
56552046,8DZ1030,10,21,MD,FORD,Loch Raven Blvd SB @ E Belvede,030,Red Light Violation,75.00,07/25/2020 10:20:00 AM,75.00,,75.00,0.00,,,,,,,,
56552509,2DB9132,09,21,MD,AUDI,W Northern Pkwy EB @ N Charles,030,Red Light Violation,75.00,07/25/2020 10:18:00 AM,75.00,,75.00,0.00,,,,,,,,
56552368,8CX3445,09,20,MD,FORD,Pennsylvania Ave SB @ Dolphin,030,Red Light Violation,75.00,07/25/2020 10:01:00 AM,75.00,,75.00,0.00,,,,,,,,
56552608,4DY9367,12,21,MD,NISS,Reisterstown Rd SB @ W Cold Sp,030,Red Light Violation,75.00,07/25/2020 09:53:00 AM,75.00,,75.00,0.00,,,,,,,,
56552467,KRC6366,00,0,PA,KIA,Harford Ave NB @ E North Ave,030,Red Light Violation,75.00,07/25/2020 09:52:00 AM,75.00,,75.00,0.00,,,,,,,,
56552590,09291M5,10,21,MD,CHEV,Liberty Heights Ave WB @ W Nor,030,Red Light Violation,75.00,07/25/2020 09:50:00 AM,75.00,,75.00,0.00,,,,,,,,
56552293,LHK7122,00,0,PA,PONTI,S MLK Jr Blvd NB @ Washington,030,Red Light Violation,75.00,07/25/2020 09:49:00 AM,75.00,,75.00,0.00,,,,,,,,
56552269,4AK3309,11,21,MD,JEEP,W Cold Spring Lane EB @ Falls,030,Red Light Violation,75.00,07/25/2020 09:44:00 AM,75.00,,75.00,0.00,,,,,,,,
56552251,02921SG,12,99,MD,FORD,Liberty Heights Ave WB @ W Nor,030,Red Light Violation,75.00,07/25/2020 09:42:00 AM,75.00,,75.00,0.00,,,,,,,,
56552574,2CC6257,09,21,MD,HOND,N President St SB @ E Fayette,030,Red Light Violation,75.00,07/25/2020 09:40:00 AM,75.00,,75.00,0.00,,,,,,,,
56551717,5DM3061,09,20,MD,MAZD,S MLK Jr Blvd SB @ Washington,030,Red Light Violation,75.00,07/25/2020 09:38:00 AM,75.00,,75.00,0.00,,,,,,,,
56551691,5DS8460,03,21,MD,SUBA,Erdman Ave WB @ N Macon St,030,Red Light Violation,75.00,07/25/2020 09:36:00 AM,75.00,,75.00,0.00,,,,,,,,
56552624,3EF5856,05,22,MD,FORD,Caton Ave SB @ Wilkens Ave,030,Red Light Violation,75.00,07/25/2020 09:34:00 AM,75.00,,75.00,0.00,,,,,,,,
56551667,8BB5626,05,21,MD,HOND,S Monroe St NB @ Washington Bl,030,Red Light Violation,75.00,07/25/2020 09:31:00 AM,75.00,,75.00,0.00,,,,,,,,
56551642,8DB2296,10,21,MD,FORD,E North Ave WB @ N Howard St,030,Red Light Violation,75.00,07/25/2020 09:29:00 AM,75.00,,75.00,0.00,,,,,,,,
56552566,6DL1536,09,20,MD,KIA,N President St SB @ E Fayette,030,Red Light Violation,75.00,07/25/2020 09:25:00 AM,75.00,,75.00,0.00,,,,,,,,
56552194,ULU7250,00,0,VA,HYUN,Caton Ave SB @ Wilkens Ave,030,Red Light Violation,75.00,07/25/2020 09:25:00 AM,75.00,,75.00,0.00,,,,,,,,
56552178,9BX1623,03,21,MD,ACUR,S MLK Jr Blvd NB @ Washington,030,Red Light Violation,75.00,07/25/2020 09:22:00 AM,75.00,,75.00,0.00,,,,,,,,
56551618,BLD5582,00,0,AZ,TOYOT,York Rd SB @ E Cold Spring Ln,030,Red Light Violation,75.00,07/25/2020 09:21:00 AM,75.00,,75.00,0.00,,,,,,,,
56551535,GD3066,08,20,DC,TOYT,Pennsylvania Ave NB @ Dolphin,030,Red Light Violation,75.00,07/25/2020 09:08:00 AM,75.00,,75.00,0.00,,,,,,,,
56552228,8DJ6917,07,20,MD,CHEV,Pennsylvania Ave SB @ Dolphin,030,Red Light Violation,75.00,07/25/2020 09:06:00 AM,75.00,,75.00,0.00,,,,,,,,
56552301,5DS7402,03,21,MD,HOND,S MLK Jr Blvd SB @ W Pratt St,030,Red Light Violation,75.00,07/25/2020 09:06:00 AM,75.00,,75.00,0.00,,,,,,,,
56551386,7DY2128,08,21,MD,TOYT,N Calvert St NB @ E Baltimore,030,Red Light Violation,75.00,07/25/2020 08:57:00 AM,75.00,,75.00,0.00,,,,,,,,
56551899,4AM2156,03,22,MD,TOYT,Frederick Ave WB @ S Beechfiel,030,Red Light Violation,75.00,07/25/2020 08:57:00 AM,75.00,,75.00,0.00,,,,,,,,
56551881,5DS5244,03,21,MD,HOND,Pennsylvania Ave SB @ Dolphin,030,Red Light Violation,75.00,07/25/2020 08:57:00 AM,75.00,,75.00,0.00,,,,,,,,
56551733,3EC5668,01,22,MD,TOYT,Liberty Heights Ave WB @ W Nor,030,Red Light Violation,75.00,07/25/2020 08:47:00 AM,75.00,,75.00,0.00,,,,,,,,
56551782,9DE2936,02,22,MD,CHEV,Gwynns Falls Pkwy WB @ Reister,030,Red Light Violation,75.00,07/25/2020 08:47:00 AM,75.00,,75.00,0.00,,,,,,,,
56551352,A350136,04,22,MD,CHEV,S MLK Jr Blvd SB @ Washington,030,Red Light Violation,75.00,07/25/2020 08:44:00 AM,75.00,,75.00,0.00,,,,,,,,
56551402,9EF7756,07,22,MD,NISS,Pulaski Hwy EB @ Moravia Park,030,Red Light Violation,75.00,07/25/2020 08:21:00 AM,75.00,,75.00,0.00,,,,,,,,
56552145,UGZ4392,00,0,VA,MAZD,N Paca St NB @ W Fayette St,030,Red Light Violation,75.00,07/25/2020 08:13:00 AM,75.00,,75.00,0.00,,,,,,,,
56552103,9EC3905,01,22,MD,CHEV,Caton Ave NB @ Wilkens Ave,030,Red Light Violation,75.00,07/25/2020 08:09:00 AM,75.00,,75.00,0.00,,,,,,,,
56551873,1DW8257,06,21,MD,KIA,Pennsylvania Ave SB @ Dolphin,030,Red Light Violation,75.00,07/25/2020 08:02:00 AM,75.00,,75.00,0.00,,,,,,,,
56551857,JVL2036,00,0,PA,CHEV,W Cold Spring Ln WB @ Reisters,030,Red Light Violation,75.00,07/25/2020 07:59:00 AM,75.00,,75.00,0.00,,,,,,,,
56551840,8DT6389,02,21,MD,HOND,Liberty Heights Ave WB @ W Nor,030,Red Light Violation,75.00,07/25/2020 07:54:00 AM,75.00,,75.00,0.00,,,,,,,,
56552442,5DP1084,02,22,MD,FORD,Aliceanna St WB @ S Wolfe St,030,Red Light Violation,75.00,07/25/2020 07:46:00 AM,75.00,,75.00,0.00,,,,,,,,
56551220,9EB2873,01,22,MD,ACUR,Reisterstown Rd SB @ Patterson,030,Red Light Violation,75.00,07/25/2020 07:21:00 AM,75.00,,75.00,0.00,,,,,,,,
56552186,8DY9773,03,21,MD,TOYT,E 33rd St WB @ Greenmount Ave,030,Red Light Violation,75.00,07/25/2020 07:19:00 AM,75.00,,75.00,0.00,,,,,,,,
56551279,6DZ4189,10,21,MD,TOYT,Erdman Ave SB @ Federal St,030,Red Light Violation,75.00,07/25/2020 06:56:00 AM,75.00,,75.00,0.00,,,,,,,,
56551212,5EA0641,05,21,MD,HOND,N Paca St NB @ W Fayette St,030,Red Light Violation,75.00,07/25/2020 06:35:00 AM,75.00,,75.00,0.00,,,,,,,,
56551980,9AK3693,09,21,MD,FORD,Loch Raven Blvd SB @ E Belvede,030,Red Light Violation,75.00,07/25/2020 05:56:00 AM,75.00,,75.00,0.00,,,,,,,,
56551493,3ED5519,02,22,MD,MAZD,Erdman Ave SB @ Federal St,030,Red Light Violation,75.00,07/25/2020 05:26:00 AM,75.00,,75.00,0.00,,,,,,,,
56551253,3CP9917,10,20,MD,JEEP,Caton Ave NB @ Wilkens Ave,030,Red Light Violation,75.00,07/25/2020 05:15:00 AM,75.00,,75.00,0.00,,,,,,,,
56552004,UKN8638,00,0,VA,BUIC,Dundalk Ave SB @ O'Donnell St,030,Red Light Violation,75.00,07/25/2020 05:10:00 AM,75.00,,75.00,0.00,,,,,,,,
56551477,3ED7729,03,22,MD,BMW,Russell St NB @ Bush St,030,Red Light Violation,75.00,07/25/2020 04:53:00 AM,75.00,,75.00,0.00,,,,,,,,
56551444,KJK5886,00,0,PA,HYUND,Liberty Heights Ave WB @ W Nor,030,Red Light Violation,75.00,07/25/2020 04:52:00 AM,75.00,,75.00,0.00,,,,,,,,
56550230,5EE7073,03,22,MD,HOND,W Lombard St WB @ S Charles St,030,Red Light Violation,75.00,07/25/2020 04:41:00 AM,75.00,,75.00,0.00,,,,,,,,
56551246,BC2834,12,99,MD,CHEV,E Cold Spring Ln EB @ York Rd,030,Red Light Violation,75.00,07/25/2020 04:32:00 AM,75.00,,75.00,0.00,,,,,,,,
56552087,UPS1339,00,0,VA,GMC,Dundalk Ave NB @ O'Donnell St,030,Red Light Violation,75.00,07/25/2020 04:18:00 AM,75.00,,75.00,0.00,,,,,,,,
56550578,8DD5424,02,22,MD,TOYT,Falls Rd SB @ W 41st St,030,Red Light Violation,75.00,07/25/2020 03:35:00 AM,75.00,,75.00,0.00,,,,,,,,
56550537,51979CH,11,20,MD,TESL,N President St NB @ E Fayette,030,Red Light Violation,75.00,07/25/2020 03:33:00 AM,75.00,,75.00,0.00,,,,,,,,
56550735,2EG5943,07,20,MD,CHRY,Gwynns Falls Pkwy WB @ Reister,030,Red Light Violation,75.00,07/25/2020 03:32:00 AM,75.00,,75.00,0.00,,,,,,,,
56551071,URJ3015,00,0,VA,ACUR,Erdman Ave EB @ N Macon St,030,Red Light Violation,75.00,07/25/2020 03:32:00 AM,75.00,,75.00,0.00,,,,,,,,
56551774,8DR8992,04,21,MD,CHEV,Loch Raven Blvd SB @ E Belvede,030,Red Light Violation,75.00,07/25/2020 03:20:00 AM,75.00,,75.00,0.00,,,,,,,,
56551436,4EE5890,03,22,MD,HOND,Liberty Heights Ave WB @ W Nor,030,Red Light Violation,75.00,07/25/2020 02:45:00 AM,75.00,,75.00,0.00,,,,,,,,
56551022,6DM9451,11,21,MD,CHEV,Russell St NB @ Bush St,030,Red Light Violation,75.00,07/25/2020 02:38:00 AM,75.00,,75.00,0.00,,,,,,,,
56551014,UMC1526,00,0,VA,TOYT,N Calvert St NB @ E Baltimore,030,Red Light Violation,75.00,07/25/2020 02:35:00 AM,75.00,,75.00,0.00,,,,,,,,
56551766,7EF2672,06,21,MD,NISS,W Fayette St WB @ N Paca St,030,Red Light Violation,75.00,07/25/2020 02:33:00 AM,75.00,,75.00,0.00,,,,,,,,
56550990,3AV2121,10,20,MD,LEXS,N President St SB @ E Fayette,030,Red Light Violation,75.00,07/25/2020 02:30:00 AM,75.00,,75.00,0.00,,,,,,,,
56550982,6EC7747,01,21,MD,CADI,Erdman Ave WB @ N Macon St,030,Red Light Violation,75.00,07/25/2020 02:28:00 AM,75.00,,75.00,0.00,,,,,,,,
56550974,5EF9458,06,22,MD,TOYT,W Lombard St WB @ S Charles St,030,Red Light Violation,75.00,07/25/2020 02:28:00 AM,75.00,,75.00,0.00,,,,,,,,
56550958,8DW4468,05,21,MD,INFI,Erdman Ave SB @ Federal St,030,Red Light Violation,75.00,07/25/2020 02:20:00 AM,75.00,,75.00,0.00,,,,,,,,
56550941,1BD9166,02,22,MD,TOYT,N President St NB @ E Fayette,030,Red Light Violation,75.00,07/25/2020 02:19:00 AM,75.00,,75.00,0.00,,,,,,,,
56550248,614Y35,07,21,MD,CANA,Windsor Mill Rd EB @ N Forest,030,Red Light Violation,75.00,07/25/2020 02:14:00 AM,75.00,,75.00,0.00,,,,,,,,
56550412,24617CJ,05,20,MD,ACUR,E North Ave WB @ N Howard St,030,Red Light Violation,75.00,07/25/2020 02:01:00 AM,75.00,,75.00,0.00,,,,,,,,
56550461,5DN0475,11,20,MD,RAM,Liberty Heights Ave WB @ W Nor,030,Red Light Violation,75.00,07/25/2020 01:40:00 AM,75.00,,75.00,0.00,,,,,,,,
56550099,2EG3698,07,22,MD,ACUR,N President St SB @ E Fayette,030,Red Light Violation,75.00,07/25/2020 01:34:00 AM,75.00,,75.00,0.00,,,,,,,,
56550081,9EE8861,06,22,MD,HOND,Erdman Ave EB @ N Macon St,030,Red Light Violation,75.00,07/25/2020 01:34:00 AM,75.00,,75.00,0.00,,,,,,,,
56550487,2DN4790,01,21,MD,HOND,E North Ave EB @ Harford Ave/R,030,Red Light Violation,75.00,07/25/2020 12:57:00 AM,75.00,,75.00,0.00,,,,,,,,
56550925,8DF5652,04,21,MD,HOND,N Paca St NB @ W Fayette St,030,Red Light Violation,75.00,07/25/2020 12:45:00 AM,75.00,,75.00,0.00,,,,,,,,
56550040,8DX2975,07,21,MD,FORD,Aliceanna St WB @ S Wolfe St,030,Red Light Violation,75.00,07/25/2020 12:15:00 AM,75.00,,75.00,0.00,,,,,,,,
56550511,3EB7356,04,22,MD,TOYT,E North Ave WB @ N Howard St,030,Red Light Violation,75.00,07/25/2020 12:01:00 AM,75.00,,75.00,0.00,,,,,,,,
56550024,6DM9294,09,20,MD,CHRY,S MLK Jr Blvd NB @ W Pratt St,030,Red Light Violation,75.00,07/24/2020 11:44:00 PM,75.00,,75.00,0.00,,,,,,,,
56550834,1EB1189,02,22,MD,NISS,Reisterstown Rd SB @ Patterson,030,Red Light Violation,75.00,07/24/2020 11:32:00 PM,75.00,,75.00,0.00,,,,,,,,
56550826,CGI2780,00,0,GA,CHEVR,W Northern Pkwy EB @ Reisterst,030,Red Light Violation,75.00,07/24/2020 11:31:00 PM,75.00,,75.00,0.00,,,,,,,,
56550818,3BC1794,09,20,MD,LNDR,E Madison St WB @ N Linwood Av,030,Red Light Violation,75.00,07/24/2020 11:26:00 PM,75.00,,75.00,0.00,,,,,,,,
56550529,ML0686,08,21,MD,JEEP,The Alameda NB @ Argonne,030,Red Light Violation,75.00,07/24/2020 11:23:00 PM,75.00,,75.00,0.00,,,,,,,,
56549984,5DX6754,06,21,MD,NISS,Dundalk Ave SB @ O'Donnell St,030,Red Light Violation,75.00,07/24/2020 11:20:00 PM,75.00,,75.00,0.00,,,,,,,,
56550800,4EF5287,06,21,MD,KIA,Reisterstown Rd SB @ W Cold Sp,030,Red Light Violation,75.00,07/24/2020 11:16:00 PM,75.00,,75.00,0.00,,,,,,,,
56550768,1DX4408,01,21,MD,DODG,E Pratt St EB @ Light St,030,Red Light Violation,75.00,07/24/2020 11:01:00 PM,75.00,,75.00,0.00,,,,,,,,
56549968,1EG1566,07,20,MD,HOND,E 33rd St WB @ Greenmount Ave,030,Red Light Violation,75.00,07/24/2020 10:58:00 PM,75.00,,75.00,0.00,,,,,,,,
56549950,1EE6613,05,22,MD,HOND,Aliceanna St WB @ S Wolfe St,030,Red Light Violation,75.00,07/24/2020 10:51:00 PM,75.00,,75.00,0.00,,,,,,,,
56550552,6CT4240,01,21,MD,HOND,Wilkens Ave EB @ Caton Ave,030,Red Light Violation,75.00,07/24/2020 10:45:00 PM,75.00,,75.00,0.00,,,,,,,,
56549869,6DN0770,11,20,MD,NISS,E Belvedere Ave EB @ Hillen Rd,030,Red Light Violation,75.00,07/24/2020 10:43:00 PM,75.00,,75.00,0.00,,,,,,,,
56551055,1EG7267,08,20,MD,HOND,E 33rd St WB @ Greenmount Ave,030,Red Light Violation,75.00,07/24/2020 10:37:00 PM,75.00,,75.00,0.00,,,,,,,,
56549810,67152CH,04,21,MD,NISS,Sinclair Ln EB @ Moravia Rd,030,Red Light Violation,75.00,07/24/2020 10:22:00 PM,75.00,,75.00,0.00,,,,,,,,
56552681,4EA1510,11,21,MD,CHEV,Pulaski Hwy EB @ Moravia Park,030,Red Light Violation,75.00,07/24/2020 10:01:00 PM,75.00,,75.00,0.00,,,,,,,,
56549752,UNF3175,00,0,VA,HOND,Aliceanna St WB @ S Wolfe St,030,Red Light Violation,75.00,07/24/2020 09:55:00 PM,75.00,,75.00,0.00,,,,,,,,
56551998,98591CG,01,22,MD,TOYT,Liberty Heights Ave WB @ W Nor,030,Red Light Violation,75.00,07/24/2020 09:47:00 PM,75.00,,75.00,0.00,,,,,,,,
56549711,8DX7259,03,20,MD,HOND,N President St NB @ E Fayette,030,Red Light Violation,75.00,07/24/2020 09:28:00 PM,75.00,,75.00,0.00,,,,,,,,
56549729,8DP5534,01,21,MD,NISS,Light St SB @ W Pratt St,030,Red Light Violation,75.00,07/24/2020 09:28:00 PM,75.00,,75.00,0.00,,,,,,,,
56549653,88F025,05,22,MD,FORD,Pulaski Hwy EB @ N North Point,030,Red Light Violation,75.00,07/24/2020 08:55:00 PM,75.00,,75.00,0.00,,,,,,,,
56549646,UWC4753,00,0,VA,HYUN,Loch Raven Blvd SB @ E Belvede,030,Red Light Violation,75.00,07/24/2020 08:54:00 PM,75.00,,75.00,0.00,,,,,,,,
56550636,7DW9031,06,21,MD,NISS,E North Ave WB @ N Howard St,030,Red Light Violation,75.00,07/24/2020 08:51:00 PM,75.00,,75.00,0.00,,,,,,,,
56550438,4DG1229,03,22,MD,TOYT,Dundalk Ave SB @ O'Donnell St,030,Red Light Violation,75.00,07/24/2020 08:42:00 PM,75.00,,75.00,0.00,,,,,,,,
56550446,4EF5607,06,21,MD,CHEV,Dundalk Ave SB @ O'Donnell St,030,Red Light Violation,75.00,07/24/2020 08:42:00 PM,75.00,,75.00,0.00,,,,,,,,
56552673,9DL1473,10,20,MD,HOND,Pulaski Hwy EB @ Moravia Park,030,Red Light Violation,75.00,07/24/2020 08:33:00 PM,75.00,,75.00,0.00,,,,,,,,
56549596,4ED8865,01,22,MD,CHRY,E Madison St WB @ St Paul St,030,Red Light Violation,75.00,07/24/2020 08:32:00 PM,75.00,,75.00,0.00,,,,,,,,
56549588,LAT688,12,20,MD,TOYT,Loch Raven Blvd SB @ E Belvede,030,Red Light Violation,75.00,07/24/2020 08:30:00 PM,75.00,,75.00,0.00,,,,,,,,
56549513,8CX7406,06,21,MD,HYUN,Caton Ave NB @ Wilkens Ave,030,Red Light Violation,75.00,07/24/2020 08:17:00 PM,75.00,,75.00,0.00,,,,,,,,
56549489,9DM6698,12,20,MD,INFI,E Cold Spring Ln EB @ York Rd,030,Red Light Violation,75.00,07/24/2020 08:11:00 PM,75.00,,75.00,0.00,,,,,,,,
56549463,1DH9346,04,21,MD,DODG,Wilkens Ave WB @ Caton Ave,030,Red Light Violation,75.00,07/24/2020 08:10:00 PM,75.00,,75.00,0.00,,,,,,,,
56549851,8DD2887,01,22,MD,HOND,N Fulton Ave NB @ W North Ave,030,Red Light Violation,75.00,07/24/2020 08:09:00 PM,75.00,,75.00,0.00,,,,,,,,
56551972,840M972,08,20,MD,CHEV,E Madison St WB @ N Linwood Av,030,Red Light Violation,75.00,07/24/2020 08:08:00 PM,75.00,,75.00,0.00,,,,,,,,
56549430,6DZ9524,12,21,MD,FORD,W Northern Pkwy WB @ Reisterst,030,Red Light Violation,75.00,07/24/2020 08:08:00 PM,75.00,,75.00,0.00,,,,,,,,
56549422,7CK3790,07,20,MD,INFI,E Madison St WB @ St Paul St,030,Red Light Violation,75.00,07/24/2020 08:06:00 PM,75.00,,75.00,0.00,,,,,,,,
56549406,5EF5749,08,20,MD,DODG,Dundalk Ave SB @ O'Donnell St,030,Red Light Violation,75.00,07/24/2020 08:05:00 PM,75.00,,75.00,0.00,,,,,,,,
56549794,9DM4216,11,20,MD,MERZ,Erdman Ave WB @ N Macon St,030,Red Light Violation,75.00,07/24/2020 08:03:00 PM,75.00,,75.00,0.00,,,,,,,,
56549380,7DS8993,06,21,MD,HOND,Gwynns Falls Pkwy EB @ Reister,030,Red Light Violation,75.00,07/24/2020 08:02:00 PM,75.00,,75.00,0.00,,,,,,,,
56550123,2CE6043,11,21,MD,HOND,N President St SB @ E Fayette,030,Red Light Violation,75.00,07/24/2020 08:01:00 PM,75.00,,75.00,0.00,,,,,,,,
56549356,ZNL0948,00,0,PA,DODGE,Falls Rd SB @ W 41st St,030,Red Light Violation,75.00,07/24/2020 08:00:00 PM,75.00,,75.00,0.00,,,,,,,,
56551964,1DR2502,02,21,MD,HOND,Pulaski Hwy EB @ Moravia Park,030,Red Light Violation,75.00,07/24/2020 07:56:00 PM,75.00,,75.00,0.00,,,,,,,,
56549323,2DB3289,09,21,MD,HOND,S MLK Jr Blvd SB @ W Pratt St,030,Red Light Violation,75.00,07/24/2020 07:50:00 PM,75.00,,75.00,0.00,,,,,,,,
56549307,1AY0402,11,20,MD,NISS,E North Ave WB @ N Wolfe St,030,Red Light Violation,75.00,07/24/2020 07:48:00 PM,75.00,,75.00,0.00,,,,,,,,
56549281,5CM0733,08,21,MD,TOYT,Gwynns Falls Pkwy EB @ Reister,030,Red Light Violation,75.00,07/24/2020 07:47:00 PM,75.00,,75.00,0.00,,,,,,,,
56550370,7EB9222,12,21,MD,TOYT,N President St SB @ E Fayette,030,Red Light Violation,75.00,07/24/2020 07:46:00 PM,75.00,,75.00,0.00,,,,,,,,
56549786,EC7211,08,20,DC,FORD,N Calvert St NB @ E Baltimore,030,Red Light Violation,75.00,07/24/2020 07:46:00 PM,75.00,,75.00,0.00,,,,,,,,
56550347,2EF4166,05,21,MD,FORD,Loch Raven Blvd SB @ E Belvede,030,Red Light Violation,75.00,07/24/2020 07:38:00 PM,75.00,,75.00,0.00,,,,,,,,
56550198,9EF0167,07,20,MD,HOND,N Fulton Ave NB @ W North Ave,030,Red Light Violation,75.00,07/24/2020 07:37:00 PM,75.00,,75.00,0.00,,,,,,,,
56550107,KLG0162,00,0,PA,HYUND,Erdman Ave WB @ N Macon St,030,Red Light Violation,75.00,07/24/2020 07:31:00 PM,75.00,,75.00,0.00,,,,,,,,
56549471,9EB6406,01,21,MD,ACUR,E Belvedere Ave EB @ Hillen Rd,030,Red Light Violation,75.00,07/24/2020 07:28:00 PM,75.00,,75.00,0.00,,,,,,,,
56551956,LHH2184,00,0,PA,FORD,Pulaski Hwy EB @ Moravia Park,030,Red Light Violation,75.00,07/24/2020 07:25:00 PM,75.00,,75.00,0.00,,,,,,,,
56549844,4DN1197,01,21,MD,HOND,N Fulton Ave NB @ W North Ave,030,Red Light Violation,75.00,07/24/2020 07:25:00 PM,75.00,,75.00,0.00,,,,,,,,
56549315,8DX9845,07,21,MD,HOND,Pulaski Hwy EB @ N North Point,030,Red Light Violation,75.00,07/24/2020 07:24:00 PM,75.00,,75.00,0.00,,,,,,,,
56549166,7DP5575,01,21,MD,INFI,The Alameda SB @ Argonne,030,Red Light Violation,75.00,07/24/2020 07:22:00 PM,75.00,,75.00,0.00,,,,,,,,
56549232,4DW9902,06,21,MD,NISS,S MLK Jr Blvd SB @ Washington,030,Red Light Violation,75.00,07/24/2020 07:15:00 PM,75.00,,75.00,0.00,,,,,,,,
56549133,9DD9511,12,21,MD,LINC,Reisterstown Rd NB @ W Cold Sp,030,Red Light Violation,75.00,07/24/2020 07:15:00 PM,75.00,,75.00,0.00,,,,,,,,
56549687,2DM9526,10,20,MD,INFI,Pennsylvania Ave NB @ Dolphin,030,Red Light Violation,75.00,07/24/2020 07:06:00 PM,75.00,,75.00,0.00,,,,,,,,
56549638,9EE2390,07,20,MD,HOND,W Cold Spring Lane EB @ Falls,030,Red Light Violation,75.00,07/24/2020 07:04:00 PM,75.00,,75.00,0.00,,,,,,,,
56549349,DV14884,12,99,MD,CHEV,Pulaski Hwy EB @ N North Point,030,Red Light Violation,75.00,07/24/2020 07:03:00 PM,75.00,,75.00,0.00,,,,,,,,
56549067,1DJ0457,10,20,MD,NISS,E Cold Spring Ln WB @ York Rd,030,Red Light Violation,75.00,07/24/2020 07:02:00 PM,75.00,,75.00,0.00,,,,,,,,
56549620,1CF5655,12,21,MD,TOYT,N President St SB @ E Fayette,030,Red Light Violation,75.00,07/24/2020 06:43:00 PM,75.00,,75.00,0.00,,,,,,,,
56551949,4EG9337,08,20,MD,TOYT,E Madison St WB @ N Linwood Av,030,Red Light Violation,75.00,07/24/2020 06:42:00 PM,75.00,,75.00,0.00,,,,,,,,
56549224,4EE2595,05,22,MD,NISS,Loch Raven Blvd NB @ E Belvede,030,Red Light Violation,75.00,07/24/2020 06:41:00 PM,75.00,,75.00,0.00,,,,,,,,
56549612,8DZ1101,09,21,MD,HOND,N Calvert St NB @ E Baltimore,030,Red Light Violation,75.00,07/24/2020 06:36:00 PM,75.00,,75.00,0.00,,,,,,,,
56549018,72191CJ,07,20,MD,VOLV,Erdman Ave NB @ Federal St,030,Red Light Violation,75.00,07/24/2020 06:33:00 PM,75.00,,75.00,0.00,,,,,,,,
56551329,3DC4184,10,21,MD,TOYT,N President St SB @ E Fayette,030,Red Light Violation,75.00,07/24/2020 06:31:00 PM,75.00,,75.00,0.00,,,,,,,,
56550305,6DL7168,12,21,MD,FORD,E Cold Spring Ln WB @ York Rd,030,Red Light Violation,75.00,07/24/2020 06:29:00 PM,75.00,,75.00,0.00,,,,,,,,
56549562,1EC0444,12,21,MD,NISS,Erdman Ave WB @ N Macon St,030,Red Light Violation,75.00,07/24/2020 06:19:00 PM,75.00,,75.00,0.00,,,,,,,,
56551006,3CZ2140,07,21,MD,TOYT,Pulaski Hwy EB @ Moravia Park,030,Red Light Violation,75.00,07/24/2020 06:08:00 PM,75.00,,75.00,0.00,,,,,,,,
56549901,1EF2189,04,22,MD,VOLK,S MLK Jr Blvd SB @ Washington,030,Red Light Violation,75.00,07/24/2020 06:04:00 PM,75.00,,75.00,0.00,,,,,,,,
56549604,UKB7425,00,0,VA,HOND,Erdman Ave EB @ Belair Rd,030,Red Light Violation,75.00,07/24/2020 06:04:00 PM,75.00,,75.00,0.00,,,,,,,,
56548994,JCM1711,09,18,NY,CHEV,W Lombard St WB @ S Charles St,030,Red Light Violation,75.00,07/24/2020 06:03:00 PM,75.00,,75.00,0.00,,,,,,,,
56550289,4DC1191,10,21,MD,LEXS,Gwynns Falls Pkwy WB @ Reister,030,Red Light Violation,75.00,07/24/2020 06:02:00 PM,75.00,,75.00,0.00,,,,,,,,
56548986,5CT2416,02,21,MD,TOYT,E Pratt St EB @ Light St,030,Red Light Violation,75.00,07/24/2020 05:56:00 PM,75.00,,75.00,0.00,,,,,,,,
56548978,SG27751,12,99,MD,NWFL,W Fayette St WB @ N Paca St,030,Red Light Violation,75.00,07/24/2020 05:52:00 PM,75.00,,75.00,0.00,,,,,,,,
56549554,77101CH,01,21,MD,VOLK,E North Ave WB @ N Howard St,030,Red Light Violation,75.00,07/24/2020 05:42:00 PM,75.00,,75.00,0.00,,,,,,,,
56549547,9DC7580,11,21,MD,JAGU,E Cold Spring Ln WB @ York Rd,030,Red Light Violation,75.00,07/24/2020 05:41:00 PM,75.00,,75.00,0.00,,,,,,,,
56548895,02520CJ,08,20,MD,HOND,S Monroe St NB @ Washington Bl,030,Red Light Violation,75.00,07/24/2020 05:40:00 PM,75.00,,75.00,0.00,,,,,,,,
56548887,6CE3851,12,21,MD,SUBA,Erdman Ave EB @ N Macon St,030,Red Light Violation,75.00,07/24/2020 05:39:00 PM,75.00,,75.00,0.00,,,,,,,,
56549539,2EF3240,06,21,MD,BMW,E North Ave WB @ N Howard St,030,Red Light Violation,75.00,07/24/2020 05:37:00 PM,75.00,,75.00,0.00,,,,,,,,
56548424,8EA2388,10,21,MD,MERZ,E 33rd St EB @ Loch Raven Blvd,030,Red Light Violation,75.00,07/24/2020 05:28:00 PM,75.00,,75.00,0.00,,,,,,,,
56548051,8DX0769,07,21,MD,CHEV,W Pratt St EB @ S MLK Jr Blvd,030,Red Light Violation,75.00,07/24/2020 05:28:00 PM,75.00,,75.00,0.00,,,,,,,,
56547996,KMP1474,00,0,PA,NISSA,E North Ave WB @ N Howard St,030,Red Light Violation,75.00,07/24/2020 05:19:00 PM,75.00,,75.00,0.00,,,,,,,,
56547970,1EC1012,12,21,MD,CHRY,York Rd SB @ E Cold Spring Ln,030,Red Light Violation,75.00,07/24/2020 05:16:00 PM,75.00,,75.00,0.00,,,,,,,,
56548333,7DG0938,04,22,MD,NISS,Frederick Ave WB @ S Beechfiel,030,Red Light Violation,75.00,07/24/2020 05:12:00 PM,75.00,,75.00,0.00,,,,,,,,
56548309,8BN3932,07,20,MD,HOND,E North Ave WB @ Harford Rd,030,Red Light Violation,75.00,07/24/2020 05:12:00 PM,75.00,,75.00,0.00,,,,,,,,
56547913,4EG2676,06,22,MD,HOND,Gwynns Falls Pkwy EB @ Reister,030,Red Light Violation,75.00,07/24/2020 05:08:00 PM,75.00,,75.00,0.00,,,,,,,,
56549083,1CX2048,05,22,MD,ACUR,Pulaski Hwy EB @ N North Point,030,Red Light Violation,75.00,07/24/2020 05:08:00 PM,75.00,,75.00,0.00,,,,,,,,
56547905,UKB2716,00,0,VA,TOYT,E Northern Pkwy WB @ N Charles,030,Red Light Violation,75.00,07/24/2020 05:07:00 PM,75.00,,75.00,0.00,,,,,,,,
56547814,4DL5501,09,20,MD,HOND,N Fulton Ave NB @ W North Ave,030,Red Light Violation,75.00,07/24/2020 05:01:00 PM,75.00,,75.00,0.00,,,,,,,,
56547798,9DL6045,09,20,MD,NISS,Windsor Mill Rd WB @ N Forest,030,Red Light Violation,75.00,07/24/2020 05:00:00 PM,75.00,,75.00,0.00,,,,,,,,
56548929,VKF1073,00,0,VA,DODG,Pulaski Hwy EB @ N North Point,030,Red Light Violation,75.00,07/24/2020 05:00:00 PM,75.00,,75.00,0.00,,,,,,,,
56548838,LHS5686,00,0,PA,HONDA,N President St SB @ E Fayette,030,Red Light Violation,75.00,07/24/2020 04:59:00 PM,75.00,,75.00,0.00,,,,,,,,
56548911,STC0703,09,21,MD,LEXU,S MLK Jr Blvd NB @ Washington,030,Red Light Violation,75.00,07/24/2020 04:59:00 PM,75.00,,75.00,0.00,,,,,,,,
56548903,7DY8333,08,21,MD,TOYT,Loch Raven Blvd NB @ E Belvede,030,Red Light Violation,75.00,07/24/2020 04:57:00 PM,75.00,,75.00,0.00,,,,,,,,
56547491,7DP0240,12,20,MD,HYUN,Windsor Mill Rd WB @ N Forest,030,Red Light Violation,75.00,07/24/2020 04:55:00 PM,75.00,,75.00,0.00,,,,,,,,
56547871,8EC2042,01,22,MD,HYUN,N President St SB @ E Fayette,030,Red Light Violation,75.00,07/24/2020 04:55:00 PM,75.00,,75.00,0.00,,,,,,,,
56548127,4EF3202,05,22,MD,LEXS,E Madison St WB @ N Linwood Av,030,Red Light Violation,75.00,07/24/2020 04:50:00 PM,75.00,,75.00,0.00,,,,,,,,
56547434,9MD0850,06,20,MD,TOYT,S MLK Jr Blvd SB @ Washington,030,Red Light Violation,75.00,07/24/2020 04:44:00 PM,75.00,,75.00,0.00,,,,,,,,
56547442,6DP7709,02,21,MD,HOND,S MLK Jr Blvd SB @ Washington,030,Red Light Violation,75.00,07/24/2020 04:44:00 PM,75.00,,75.00,0.00,,,,,,,,
56547426,VKX7800,00,0,VA,MINI,S MLK Jr Blvd SB @ Washington,030,Red Light Violation,75.00,07/24/2020 04:44:00 PM,75.00,,75.00,0.00,,,,,,,,
56547632,8ED8768,02,22,MD,HOND,E Northern Pkwy WB @ N Charles,030,Red Light Violation,75.00,07/24/2020 04:42:00 PM,75.00,,75.00,0.00,,,,,,,,
56548739,6EA1828,10,21,MD,TOYT,Pennsylvania Ave NB @ Dolphin,030,Red Light Violation,75.00,07/24/2020 04:42:00 PM,75.00,,75.00,0.00,,,,,,,,
56548861,7DN2724,12,20,MD,NISS,E North Ave WB @ N Howard St,030,Red Light Violation,75.00,07/24/2020 04:41:00 PM,75.00,,75.00,0.00,,,,,,,,
56547525,4DH5730,07,20,MD,NISS,Pennsylvania Ave NB @ Dolphin,030,Red Light Violation,75.00,07/24/2020 04:39:00 PM,75.00,,75.00,0.00,,,,,,,,
56548853,4DX3501,07,21,MD,CHEV,Liberty Heights Ave WB @ W Nor,030,Red Light Violation,75.00,07/24/2020 04:34:00 PM,75.00,,75.00,0.00,,,,,,,,
56547830,1CR3896,11,20,MD,CHEV,N President St SB @ E Fayette,030,Red Light Violation,75.00,07/24/2020 04:29:00 PM,75.00,,75.00,0.00,,,,,,,,
56547285,7BX0328,04,21,MD,FORD,The Alameda NB @ Argonne,030,Red Light Violation,75.00,07/24/2020 04:25:00 PM,75.00,,75.00,0.00,,,,,,,,
56547244,2BV9803,12,20,MD,KIA,N Eutaw St NB @ W Saratoga St,030,Red Light Violation,75.00,07/24/2020 04:24:00 PM,75.00,,75.00,0.00,,,,,,,,
56547194,5EF7134,06,20,MD,DODG,W 41st St WB @ Falls Rd,030,Red Light Violation,75.00,07/24/2020 04:20:00 PM,75.00,,75.00,0.00,,,,,,,,
56547210,8EA3048,10,21,MD,HOND,Windsor Mill Rd WB @ N Forest,030,Red Light Violation,75.00,07/24/2020 04:16:00 PM,75.00,,75.00,0.00,,,,,,,,
56547228,5DN0450,01,21,MD,ACUR,N Eutaw St NB @ W Saratoga St,030,Red Light Violation,75.00,07/24/2020 04:14:00 PM,75.00,,75.00,0.00,,,,,,,,
56547699,2CA9283,06,21,MD,JEEP,N President St SB @ E Fayette,030,Red Light Violation,75.00,07/24/2020 04:13:00 PM,75.00,,75.00,0.00,,,,,,,,
56547236,29269M3,10,20,MD,GMC,E 33rd St WB @ Greenmount Ave,030,Red Light Violation,75.00,07/24/2020 04:12:00 PM,75.00,,75.00,0.00,,,,,,,,
56547251,3ED5361,03,21,MD,TOYT,E North Ave WB @ N Howard St,030,Red Light Violation,75.00,07/24/2020 04:11:00 PM,75.00,,75.00,0.00,,,,,,,,
56547269,3DR2890,04,21,MD,CADI,E North Ave WB @ N Howard St,030,Red Light Violation,75.00,07/24/2020 04:09:00 PM,75.00,,75.00,0.00,,,,,,,,
56547764,8EF8567,08,20,MD,TOYT,Light St SB @ W Pratt St,030,Red Light Violation,75.00,07/24/2020 04:07:00 PM,75.00,,75.00,0.00,,,,,,,,
56547400,1DT0668,05,21,MD,HOND,Gwynns Falls Pkwy EB @ Reister,030,Red Light Violation,75.00,07/24/2020 04:06:00 PM,75.00,,75.00,0.00,,,,,,,,
56548697,5DB9534,11,21,MD,TOYT,Dundalk Ave NB @ O'Donnell St,030,Red Light Violation,75.00,07/24/2020 04:05:00 PM,75.00,,75.00,0.00,,,,,,,,
56547806,5BW4227,02,21,MD,LEXS,N President St SB @ E Fayette,030,Red Light Violation,75.00,07/24/2020 04:05:00 PM,75.00,,75.00,0.00,,,,,,,,
56548648,JXZ3198,00,0,PA,TOYOT,E Pratt St EB @ Light St,030,Red Light Violation,75.00,07/24/2020 03:57:00 PM,75.00,,75.00,0.00,,,,,,,,
56548630,BZD8565,00,0,TX,NISS,E Pratt St EB @ Light St,030,Red Light Violation,75.00,07/24/2020 03:56:00 PM,75.00,,75.00,0.00,,,,,,,,
56548614,9EF1717,07,22,MD,KIA,E North Ave WB @ N Howard St,030,Red Light Violation,75.00,07/24/2020 03:54:00 PM,75.00,,75.00,0.00,,,,,,,,
56548606,3DZ7884,09,20,MD,NISS,N Forest Park Ave NB @ Windsor,030,Red Light Violation,75.00,07/24/2020 03:54:00 PM,75.00,,75.00,0.00,,,,,,,,
56548598,2CV8135,03,21,MD,BMW,N President St NB @ E Fayette,030,Red Light Violation,75.00,07/24/2020 03:54:00 PM,75.00,,75.00,0.00,,,,,,,,
56548556,2EG1505,06,22,MD,HOND,Light St SB @ W Pratt St,030,Red Light Violation,75.00,07/24/2020 03:50:00 PM,75.00,,75.00,0.00,,,,,,,,
56548549,7DR7615,03,21,MD,TOYT,N Calvert St NB @ E Baltimore,030,Red Light Violation,75.00,07/24/2020 03:50:00 PM,75.00,,75.00,0.00,,,,,,,,
56548515,3EE4204,04,20,MD,NISS,Belair Rd SB @ Erdman Ave,030,Red Light Violation,75.00,07/24/2020 03:48:00 PM,75.00,,75.00,0.00,,,,,,,,
56548481,8DK6524,07,22,MD,RAM,Windsor Mill Rd EB @ N Forest,030,Red Light Violation,75.00,07/24/2020 03:45:00 PM,75.00,,75.00,0.00,,,,,,,,
56548473,ZPB1106,11,21,MD,CHEV,S MLK Jr Blvd NB @ Washington,030,Red Light Violation,75.00,07/24/2020 03:44:00 PM,75.00,,75.00,0.00,,,,,,,,
56548465,8CT5706,03,21,MD,NISS,N Calvert St NB @ E Baltimore,030,Red Light Violation,75.00,07/24/2020 03:41:00 PM,75.00,,75.00,0.00,,,,,,,,
56548440,2DZ9176,10,21,MD,KIA,E Monument St EB @ N Broadway,030,Red Light Violation,75.00,07/24/2020 03:38:00 PM,75.00,,75.00,0.00,,,,,,,,
56548432,1EF2186,04,22,MD,VOLK,Belair Rd SB @ Erdman Ave,030,Red Light Violation,75.00,07/24/2020 03:37:00 PM,75.00,,75.00,0.00,,,,,,,,
56551147,5DY2644,10,20,MD,FORD,Pulaski Hwy EB @ Moravia Park,030,Red Light Violation,75.00,07/24/2020 03:36:00 PM,75.00,,75.00,0.00,,,,,,,,
56548358,33741CJ,07,22,MD,HOND,N President St SB @ E Fayette,030,Red Light Violation,75.00,07/24/2020 03:33:00 PM,75.00,,75.00,0.00,,,,,,,,
56548325,5EA8232,11,21,MD,NISS,Pennsylvania Ave SB @ Dolphin,030,Red Light Violation,75.00,07/24/2020 03:32:00 PM,75.00,,75.00,0.00,,,,,,,,
56548317,5DZ6107,08,21,MD,FORD,Loch Raven Blvd NB @ E Belvede,030,Red Light Violation,75.00,07/24/2020 03:31:00 PM,75.00,,75.00,0.00,,,,,,,,
56549109,7DK6754,08,20,MD,JEEP,W Lombard St WB @ S Charles St,030,Red Light Violation,75.00,07/24/2020 03:31:00 PM,75.00,,75.00,0.00,,,,,,,,
56551154,LBB7993,00,0,PA,JEEP,Pulaski Hwy EB @ Moravia Park,030,Red Light Violation,75.00,07/24/2020 03:27:00 PM,75.00,,75.00,0.00,,,,,,,,
56548275,5DW4347,06,21,MD,FORD,Erdman Ave EB @ N Macon St,030,Red Light Violation,75.00,07/24/2020 03:26:00 PM,75.00,,75.00,0.00,,,,,,,,
56548259,3DR2161,02,21,MD,NISS,N President St SB @ E Fayette,030,Red Light Violation,75.00,07/24/2020 03:21:00 PM,75.00,,75.00,0.00,,,,,,,,
56548200,7ED7602,02,22,MD,CHEV,Caton Ave SB @ Wilkens Ave,030,Red Light Violation,75.00,07/24/2020 03:18:00 PM,75.00,,75.00,0.00,,,,,,,,
56549026,2DJ6312,07,22,MD,TOYT,Wilkens Ave WB @ Caton Ave,030,Red Light Violation,75.00,07/24/2020 03:18:00 PM,75.00,,75.00,0.00,,,,,,,,
56548085,7DZ2359,10,20,MD,FORD,Pulaski Hwy EB @ N North Point,030,Red Light Violation,75.00,07/24/2020 03:17:00 PM,75.00,,75.00,0.00,,,,,,,,
56547723,7DW5236,05,22,MD,LEXS,E North Ave EB @ Harford Ave/R,030,Red Light Violation,75.00,07/24/2020 03:16:00 PM,75.00,,75.00,0.00,,,,,,,,
56547715,U35LKP,00,0,NJ,VOLKS,Caton Ave SB @ Wilkens Ave,030,Red Light Violation,75.00,07/24/2020 03:15:00 PM,75.00,,75.00,0.00,,,,,,,,
56548077,LDX6371,00,0,PA,HONDA,Pulaski Hwy EB @ N North Point,030,Red Light Violation,75.00,07/24/2020 03:15:00 PM,75.00,,75.00,0.00,,,,,,,,
56547707,7ED8270,05,22,MD,JEEP,N President St SB @ E Fayette,030,Red Light Violation,75.00,07/24/2020 03:15:00 PM,75.00,,75.00,0.00,,,,,,,,
56548705,5DK3227,07,20,MD,BMW,Reisterstown Rd SB @ Gwynns Fa,030,Red Light Violation,75.00,07/24/2020 03:11:00 PM,75.00,,75.00,0.00,,,,,,,,
56548960,1BC8162,05,22,MD,CHEV,W Cold Spring Lane EB @ Falls,030,Red Light Violation,75.00,07/24/2020 03:11:00 PM,75.00,,75.00,0.00,,,,,,,,
56548176,8DK9906,08,20,MD,FORD,Pennsylvania Ave NB @ Dolphin,030,Red Light Violation,75.00,07/24/2020 03:10:00 PM,75.00,,75.00,0.00,,,,,,,,
56549505,6EE6222,04,22,MD,NISS,E North Ave WB @ N Howard St,030,Red Light Violation,75.00,07/24/2020 03:07:00 PM,75.00,,75.00,0.00,,,,,,,,
56548374,JHF8882,12,19,NY,CHRY,Frederick Ave WB @ S Beechfiel,030,Red Light Violation,75.00,07/24/2020 03:04:00 PM,75.00,,75.00,0.00,,,,,,,,
56547608,2EE7035,04,20,MD,LEXS,Russell St NB @ Bush St,030,Red Light Violation,75.00,07/24/2020 02:58:00 PM,75.00,,75.00,0.00,,,,,,,,
56547590,7BP0518,09,20,MD,TOYT,Russell St NB @ Bush St,030,Red Light Violation,75.00,07/24/2020 02:56:00 PM,75.00,,75.00,0.00,,,,,,,,
56547731,UTE6900,00,0,VA,JEEP,N Fulton Ave NB @ W North Ave,030,Red Light Violation,75.00,07/24/2020 02:53:00 PM,75.00,,75.00,0.00,,,,,,,,
56547574,3DF3290,02,22,MD,JEEP,Frederick Ave EB @ S Beechfiel,030,Red Light Violation,75.00,07/24/2020 02:51:00 PM,75.00,,75.00,0.00,,,,,,,,
56547533,1EG7039,07,20,MD,HOND,E 33rd St WB @ Greenmount Ave,030,Red Light Violation,75.00,07/24/2020 02:50:00 PM,75.00,,75.00,0.00,,,,,,,,
56547954,5AA0535,07,20,MD,FORD,Dundalk Ave NB @ O'Donnell St,030,Red Light Violation,75.00,07/24/2020 02:50:00 PM,75.00,,75.00,0.00,,,,,,,,
56547921,6BV2918,01,21,MD,DODG,Falls Rd NB @ W 41st St,030,Red Light Violation,75.00,07/24/2020 02:49:00 PM,75.00,,75.00,0.00,,,,,,,,
56547467,VUD6713,00,0,VA,TOYT,Gwynns Falls Pkwy EB @ Reister,030,Red Light Violation,75.00,07/24/2020 02:42:00 PM,75.00,,75.00,0.00,,,,,,,,
56547475,9EF2377,07,22,MD,AUDI,Reisterstown Rd SB @ Patterson,030,Red Light Violation,75.00,07/24/2020 02:40:00 PM,75.00,,75.00,0.00,,,,,,,,
56548283,9DD4468,12,21,MD,CHEV,Pulaski Hwy EB @ N North Point,030,Red Light Violation,75.00,07/24/2020 02:38:00 PM,75.00,,75.00,0.00,,,,,,,,
56547301,1EC6511,01,21,MD,NISS,The Alameda NB @ Argonne,030,Red Light Violation,75.00,07/24/2020 02:35:00 PM,75.00,,75.00,0.00,,,,,,,,
56547160,342Z58,07,22,MD,MAZD,S Monroe St NB @ Washington Bl,030,Red Light Violation,75.00,07/24/2020 02:32:00 PM,75.00,,75.00,0.00,,,,,,,,
56547129,8EA4387,11,20,MD,CADI,N President St SB @ E Fayette,030,Red Light Violation,75.00,07/24/2020 02:29:00 PM,75.00,,75.00,0.00,,,,,,,,
56547111,98993CH,06,21,MD,HYUN,N Eutaw St NB @ W Saratoga St,030,Red Light Violation,75.00,07/24/2020 02:28:00 PM,75.00,,75.00,0.00,,,,,,,,
56547186,8EE0173,05,21,MD,JEEP,N Calvert St NB @ E Baltimore,030,Red Light Violation,75.00,07/24/2020 02:28:00 PM,75.00,,75.00,0.00,,,,,,,,
56544910,6DK2531,08,20,MD,SUBA,E Cold Spring Ln WB @ York Rd,030,Red Light Violation,75.00,07/24/2020 02:26:00 PM,75.00,,75.00,0.00,,,,,,,,
56550255,6844YS,09,20,FL,PONT,E North Ave WB @ N Howard St,030,Red Light Violation,75.00,07/24/2020 02:24:00 PM,75.00,,75.00,0.00,,,,,,,,
56547095,7DX0922,08,21,MD,KIA,Reisterstown Rd SB @ Gwynns Fa,030,Red Light Violation,75.00,07/24/2020 02:23:00 PM,75.00,,75.00,0.00,,,,,,,,
56546931,4EB6501,11,21,MD,VOLK,N Calvert St NB @ E Baltimore,030,Red Light Violation,75.00,07/24/2020 02:18:00 PM,75.00,,75.00,0.00,,,,,,,,
56546915,2EF7881,05,22,MD,BMW,E North Ave WB @ N Howard St,030,Red Light Violation,75.00,07/24/2020 02:17:00 PM,75.00,,75.00,0.00,,,,,,,,
56546923,7ED3359,04,22,MD,FORD,E North Ave WB @ N Howard St,030,Red Light Violation,75.00,07/24/2020 02:17:00 PM,75.00,,75.00,0.00,,,,,,,,
56546899,UZL8563,00,0,VA,HOND,Frederick Ave WB @ S Beechfiel,030,Red Light Violation,75.00,07/24/2020 02:12:00 PM,75.00,,75.00,0.00,,,,,,,,
56546881,5EF8374,07,20,MD,HOND,Light St SB @ W Pratt St,030,Red Light Violation,75.00,07/24/2020 02:12:00 PM,75.00,,75.00,0.00,,,,,,,,
56547087,60133CJ,05,21,MD,HOND,Gwynns Falls Pkwy EB @ Reister,030,Red Light Violation,75.00,07/24/2020 02:09:00 PM,75.00,,75.00,0.00,,,,,,,,
56544845,3CB7904,07,21,MD,FORD,N Calvert St NB @ E Baltimore,030,Red Light Violation,75.00,07/24/2020 02:03:00 PM,75.00,,75.00,0.00,,,,,,,,
56544829,URW8742,00,0,VA,ACUR,Pulaski Hwy EB @ N North Point,030,Red Light Violation,75.00,07/24/2020 02:02:00 PM,75.00,,75.00,0.00,,,,,,,,
56550693,237Z21,07,22,MD,MERC,E Madison St WB @ N Linwood Av,030,Red Light Violation,75.00,07/24/2020 01:53:00 PM,75.00,,75.00,0.00,,,,,,,,
56544787,MT0217,12,99,MD,RAM,Pennsylvania Ave NB @ Dolphin,030,Red Light Violation,75.00,07/24/2020 01:53:00 PM,75.00,,75.00,0.00,,,,,,,,
56544779,2DY8841,07,21,MD,TOYT,Park Heights Ave NB @ W Belved,030,Red Light Violation,75.00,07/24/2020 01:52:00 PM,75.00,,75.00,0.00,,,,,,,,
56544761,9CV5170,03,22,MD,ACUR,Frederick Ave WB @ S Beechfiel,030,Red Light Violation,75.00,07/24/2020 01:50:00 PM,75.00,,75.00,0.00,,,,,,,,
56544753,005M477,08,21,MD,FORD,Erdman Ave EB @ Belair Rd,030,Red Light Violation,75.00,07/24/2020 01:48:00 PM,75.00,,75.00,0.00,,,,,,,,
56544746,7BP5282,11,20,MD,JEEP,Dundalk Ave SB @ O'Donnell St,030,Red Light Violation,75.00,07/24/2020 01:47:00 PM,75.00,,75.00,0.00,,,,,,,,
56546824,UTH2371,00,0,VA,KIA,E North Ave WB @ N Howard St,030,Red Light Violation,75.00,07/24/2020 01:44:00 PM,75.00,,75.00,0.00,,,,,,,,
56546808,7EE5818,07,22,MD,HOND,Reisterstown Rd SB @ Patterson,030,Red Light Violation,75.00,07/24/2020 01:42:00 PM,75.00,,75.00,0.00,,,,,,,,
56546790,2DX0830,06,21,MD,VOLK,The Alameda SB @ Argonne,030,Red Light Violation,75.00,07/24/2020 01:40:00 PM,75.00,,75.00,0.00,,,,,,,,
56546782,1DJ6821,08,21,MD,CHEV,S MLK Jr Blvd SB @ W Pratt St,030,Red Light Violation,75.00,07/24/2020 01:36:00 PM,75.00,,75.00,0.00,,,,,,,,
56546774,5DZ2652,09,21,MD,KIA,E North Ave EB @ Harford Ave/R,030,Red Light Violation,75.00,07/24/2020 01:36:00 PM,75.00,,75.00,0.00,,,,,,,,
56546683,5EG6219,08,20,MD,VOLK,S Monroe St SB @ Washington Bl,030,Red Light Violation,75.00,07/24/2020 01:34:00 PM,75.00,,75.00,0.00,,,,,,,,
56546675,1EG9265,07,20,MD,TOYT,E North Ave WB @ N Howard St,030,Red Light Violation,75.00,07/24/2020 01:34:00 PM,75.00,,75.00,0.00,,,,,,,,
56546766,65567HV,02,21,MD,FORD,E North Ave WB @ N Howard St,030,Red Light Violation,75.00,07/24/2020 01:31:00 PM,75.00,,75.00,0.00,,,,,,,,
56550669,7DM5998,10,20,MD,TOYT,Pulaski Hwy EB @ Moravia Park,030,Red Light Violation,75.00,07/24/2020 01:31:00 PM,75.00,,75.00,0.00,,,,,,,,
56546758,7DN6026,11,20,MD,CHEV,Light St SB @ W Pratt St,030,Red Light Violation,75.00,07/24/2020 01:30:00 PM,75.00,,75.00,0.00,,,,,,,,
56546741,6ED3353,02,22,MD,VOLK,E North Ave WB @ N Howard St,030,Red Light Violation,75.00,07/24/2020 01:29:00 PM,75.00,,75.00,0.00,,,,,,,,
56546733,40528M0,03,22,MD,CHEV,N President St SB @ E Fayette,030,Red Light Violation,75.00,07/24/2020 01:27:00 PM,75.00,,75.00,0.00,,,,,,,,
56546717,5BN8363,11,21,MD,NISS,E 33rd St WB @ Greenmount Ave,030,Red Light Violation,75.00,07/24/2020 01:25:00 PM,75.00,,75.00,0.00,,,,,,,,
56547046,8DF8937,04,22,MD,CHEV,Reisterstown Rd SB @ Patterson,030,Red Light Violation,75.00,07/24/2020 01:23:00 PM,75.00,,75.00,0.00,,,,,,,,
56544894,TAC3687,00,0,NC,FORD,E Monument St EB @ N Broadway,030,Red Light Violation,75.00,07/24/2020 01:22:00 PM,75.00,,75.00,0.00,,,,,,,,
56547020,4DY2141,08,21,MD,NISS,N President St SB @ E Fayette,030,Red Light Violation,75.00,07/24/2020 01:18:00 PM,75.00,,75.00,0.00,,,,,,,,
56547012,6CB9806,09,21,MD,KIA,Falls Rd SB @ W 41st St,030,Red Light Violation,75.00,07/24/2020 01:16:00 PM,75.00,,75.00,0.00,,,,,,,,
56547004,3CZ1116,06,21,MD,JEEP,Caton Ave NB @ Wilkens Ave,030,Red Light Violation,75.00,07/24/2020 01:14:00 PM,75.00,,75.00,0.00,,,,,,,,
56546998,06F067,08,21,MD,FORD,Pennsylvania Ave NB @ Dolphin,030,Red Light Violation,75.00,07/24/2020 01:09:00 PM,75.00,,75.00,0.00,,,,,,,,
56546667,4AW5613,01,22,MD,HOND,Erdman Ave SB @ Federal St,030,Red Light Violation,75.00,07/24/2020 01:06:00 PM,75.00,,75.00,0.00,,,,,,,,
56546659,382Z55,07,22,MD,TOYT,Wilkens Ave WB @ Caton Ave,030,Red Light Violation,75.00,07/24/2020 01:04:00 PM,75.00,,75.00,0.00,,,,,,,,
56546600,3BZ7704,03,20,MD,TOYT,Pennsylvania Ave NB @ Dolphin,030,Red Light Violation,75.00,07/24/2020 12:54:00 PM,75.00,,75.00,0.00,,,,,,,,
56546618,2EB3675,05,22,MD,STRN,N Eutaw St NB @ W Saratoga St,030,Red Light Violation,75.00,07/24/2020 12:54:00 PM,75.00,,75.00,0.00,,,,,,,,
56546584,9DL6616,10,21,MD,FORD,Russell St NB @ Bush St,030,Red Light Violation,75.00,07/24/2020 12:47:00 PM,75.00,,75.00,0.00,,,,,,,,
56546576,15951LG,12,99,MD,PTRB,E Pratt St EB @ Light St,030,Red Light Violation,75.00,07/24/2020 12:46:00 PM,75.00,,75.00,0.00,,,,,,,,
56546980,2DB2169,10,19,MD,JEEP,Dundalk Ave NB @ O'Donnell St,030,Red Light Violation,75.00,07/24/2020 12:45:00 PM,75.00,,75.00,0.00,,,,,,,,
56544878,41620CJ,03,22,MD,NISS,The Alameda SB @ Argonne,030,Red Light Violation,75.00,07/24/2020 12:38:00 PM,75.00,,75.00,0.00,,,,,,,,
56546972,3DY9840,07,21,MD,KIA,Reisterstown Rd NB @ W Cold Sp,030,Red Light Violation,75.00,07/24/2020 12:38:00 PM,75.00,,75.00,0.00,,,,,,,,
56546501,7DY4053,08,20,MD,FORD,N President St SB @ E Fayette,030,Red Light Violation,75.00,07/24/2020 12:34:00 PM,75.00,,75.00,0.00,,,,,,,,
56546451,4CJ3145,06,22,MD,LEXS,W Belvedere Ave EB @ Park Heig,030,Red Light Violation,75.00,07/24/2020 12:32:00 PM,75.00,,75.00,0.00,,,,,,,,
56550222,7EC9507,04,22,MD,TSMR,Liberty Heights Ave WB @ W Nor,030,Red Light Violation,75.00,07/24/2020 12:29:00 PM,75.00,,75.00,0.00,,,,,,,,
56545925,3EF8187,05,20,MD,FORD,Pennsylvania Ave SB @ Dolphin,030,Red Light Violation,75.00,07/24/2020 12:25:00 PM,75.00,,75.00,0.00,,,,,,,,
56545917,8DJ6917,07,20,MD,CHEV,Pennsylvania Ave SB @ Dolphin,030,Red Light Violation,75.00,07/24/2020 12:25:00 PM,75.00,,75.00,0.00,,,,,,,,
56546493,6EE3553,07,21,MD,HYUN,Park Heights Ave NB @ W Belved,030,Red Light Violation,75.00,07/24/2020 12:10:00 PM,75.00,,75.00,0.00,,,,,,,,
56546014,9BT0091,11,20,MD,KIA,S MLK Jr Blvd SB @ W Pratt St,030,Red Light Violation,75.00,07/24/2020 12:09:00 PM,75.00,,75.00,0.00,,,,,,,,
56546360,LG97134,12,99,MD,FORD,Hillen Rd NB @ E Cold Spring L,030,Red Light Violation,75.00,07/24/2020 11:54:00 AM,75.00,,75.00,0.00,,,,,,,,
56550206,GCA8441,12,20,OH,SUBA,S MLK Jr Blvd SB @ W Pratt St,030,Red Light Violation,75.00,07/24/2020 11:53:00 AM,75.00,,75.00,0.00,,,,,,,,
56546329,8DW3036,07,21,MD,MERC,W Belvedere Ave EB @ Park Heig,030,Red Light Violation,75.00,07/24/2020 11:45:00 AM,75.00,,75.00,0.00,,,,,,,,
56544613,UST3361,00,0,VA,HOND,Gwynns Falls Pkwy WB @ Reister,030,Red Light Violation,75.00,07/24/2020 11:43:00 AM,75.00,,75.00,0.00,,,,,,,,
56544621,8DX3504,09,21,MD,JEEP,E Madison St WB @ N Linwood Av,030,Red Light Violation,75.00,07/24/2020 11:43:00 AM,75.00,,75.00,0.00,,,,,,,,
56545859,5DT7749,04,21,MD,NISS,S MLK Jr Blvd SB @ W Pratt St,030,Red Light Violation,75.00,07/24/2020 11:42:00 AM,75.00,,75.00,0.00,,,,,,,,
56546865,4DX3925,06,21,MD,FORD,Pulaski Hwy EB @ N North Point,030,Red Light Violation,75.00,07/24/2020 11:34:00 AM,75.00,,75.00,0.00,,,,,,,,
56546857,3EB4320,11,21,MD,HOND,Pennsylvania Ave NB @ Dolphin,030,Red Light Violation,75.00,07/24/2020 11:30:00 AM,75.00,,75.00,0.00,,,,,,,,
56546840,9EE2346,04,22,MD,TOYT,N Calvert St NB @ E Baltimore,030,Red Light Violation,75.00,07/24/2020 11:30:00 AM,75.00,,75.00,0.00,,,,,,,,
56546832,3EE2272,04,20,MD,FORD,Pennsylvania Ave SB @ Dolphin,030,Red Light Violation,75.00,07/24/2020 11:26:00 AM,75.00,,75.00,0.00,,,,,,,,
56546709,1CY8479,05,21,MD,CHEV,Harford Ave NB @ E North Ave,030,Red Light Violation,75.00,07/24/2020 11:25:00 AM,75.00,,75.00,0.00,,,,,,,,
56544670,9DY4584,08,21,MD,CHEV,W Northern Pkwy EB @ N Charles,030,Red Light Violation,75.00,07/24/2020 11:17:00 AM,75.00,,75.00,0.00,,,,,,,,
56546543,ZNE8540,00,0,PA,FORD,S Monroe St NB @ Washington Bl,030,Red Light Violation,75.00,07/24/2020 11:09:00 AM,75.00,,75.00,0.00,,,,,,,,
56550180,1CK7793,07,22,MD,HOND,Liberty Heights Ave WB @ W Nor,030,Red Light Violation,75.00,07/24/2020 11:08:00 AM,75.00,,75.00,0.00,,,,,,,,
56545966,1CXP92,03,22,MD,TOYT,N Calvert St NB @ E Baltimore,030,Red Light Violation,75.00,07/24/2020 11:08:00 AM,75.00,,75.00,0.00,,,,,,,,
56546279,SBS,10,20,MD,LNDR,E 33rd St EB @ Loch Raven Blvd,030,Red Light Violation,75.00,07/24/2020 11:06:00 AM,75.00,,75.00,0.00,,,,,,,,
56546253,UMP8067,00,0,VA,HOND,N Paca St NB @ W Fayette St,030,Red Light Violation,75.00,07/24/2020 10:58:00 AM,75.00,,75.00,0.00,,,,,,,,
56545685,9EA7034,11,21,MD,FORD,E Fayette St WB @ N President,030,Red Light Violation,75.00,07/24/2020 10:53:00 AM,75.00,,75.00,0.00,,,,,,,,
56545677,4DC3068,11,21,MD,CHRY,S MLK Jr Blvd NB @ Washington,030,Red Light Violation,75.00,07/24/2020 10:52:00 AM,75.00,,75.00,0.00,,,,,,,,
56545669,5ED2022,03,21,MD,TOYT,N Paca St NB @ W Fayette St,030,Red Light Violation,75.00,07/24/2020 10:51:00 AM,75.00,,75.00,0.00,,,,,,,,
56545651,3FVK05,03,22,MD,HOND,E Madison St WB @ N Linwood Av,030,Red Light Violation,75.00,07/24/2020 10:47:00 AM,75.00,,75.00,0.00,,,,,,,,
56545636,KHT1004,00,0,TX,TOYT,Russell St NB @ Bush St,030,Red Light Violation,75.00,07/24/2020 10:47:00 AM,75.00,,75.00,0.00,,,,,,,,
56545644,4ED7419,02,22,MD,KIA,Erdman Ave EB @ N Macon St,030,Red Light Violation,75.00,07/24/2020 10:47:00 AM,75.00,,75.00,0.00,,,,,,,,
56544647,9CD0405,11,21,MD,TOYT,E Fayette St WB @ N President,030,Red Light Violation,75.00,07/24/2020 10:45:00 AM,75.00,,75.00,0.00,,,,,,,,
56548770,4EE5577,03,20,MD,VOLK,Liberty Heights Ave WB @ W Nor,030,Red Light Violation,75.00,07/24/2020 10:30:00 AM,75.00,,75.00,0.00,,,,,,,,
56545784,8DSY53,12,21,MD,TOYT,W Northern Pkwy WB @ Reisterst,030,Red Light Violation,75.00,07/24/2020 10:30:00 AM,75.00,,75.00,0.00,,,,,,,,
56545776,5EE5360,04,22,MD,KIA,N President St SB @ E Fayette,030,Red Light Violation,75.00,07/24/2020 10:29:00 AM,75.00,,75.00,0.00,,,,,,,,
56545743,RR5H74,00,0,PA,CHEV,E 33rd St EB @ Loch Raven Blvd,030,Red Light Violation,75.00,07/24/2020 10:24:00 AM,75.00,,75.00,0.00,,,,,,,,
56545719,1EA5456,11,20,MD,TOYT,Light St SB @ W Pratt St,030,Red Light Violation,75.00,07/24/2020 10:19:00 AM,75.00,,75.00,0.00,,,,,,,,
56545628,64115CJ,08,20,MD,DODG,Eastern Ave EB @ S Patterson P,030,Red Light Violation,75.00,07/24/2020 10:08:00 AM,75.00,,75.00,0.00,,,,,,,,
56545610,4EF7186,07,20,MD,CHEV,W Belvedere Ave EB @ Park Heig,030,Red Light Violation,75.00,07/24/2020 10:08:00 AM,75.00,,75.00,0.00,,,,,,,,
56545552,5EE8071,04,22,MD,MITS,Caton Ave NB @ Wilkens Ave,030,Red Light Violation,75.00,07/24/2020 09:48:00 AM,75.00,,75.00,0.00,,,,,,,,
56545537,008Z81,11,21,MD,LEXS,Pulaski Hwy EB @ Moravia Park,030,Red Light Violation,75.00,07/24/2020 09:34:00 AM,75.00,,75.00,0.00,,,,,,,,
56545529,6DZ4189,10,21,MD,TOYT,E Pratt St EB @ Light St,030,Red Light Violation,75.00,07/24/2020 09:34:00 AM,75.00,,75.00,0.00,,,,,,,,
56545487,9ED3476,03,22,MD,FORD,Moravia Rd NB @ Sinclair Ln,030,Red Light Violation,75.00,07/24/2020 09:24:00 AM,75.00,,75.00,0.00,,,,,,,,
56545461,9CA8458,07,21,MD,HOND,Aliceanna St EB @ S Wolfe St,030,Red Light Violation,75.00,07/24/2020 09:22:00 AM,75.00,,75.00,0.00,,,,,,,,
56545446,57340M0,05,22,MD,VOLK,Aliceanna St EB @ S Wolfe St,030,Red Light Violation,75.00,07/24/2020 09:16:00 AM,75.00,,75.00,0.00,,,,,,,,
56545420,4EG2922,08,20,MD,HOND,Dundalk Ave NB @ O'Donnell St,030,Red Light Violation,75.00,07/24/2020 09:15:00 AM,75.00,,75.00,0.00,,,,,,,,
56546220,9CA7977,12,21,MD,FORD,Pulaski Hwy EB @ N North Point,030,Red Light Violation,75.00,07/24/2020 08:58:00 AM,75.00,,75.00,0.00,,,,,,,,
56546196,1CV4072,03,21,MD,HYUN,Pennsylvania Ave NB @ Dolphin,030,Red Light Violation,75.00,07/24/2020 08:52:00 AM,75.00,,75.00,0.00,,,,,,,,
56546170,6EA4070,11,21,MD,TOYT,E Madison St WB @ N Linwood Av,030,Red Light Violation,75.00,07/24/2020 08:49:00 AM,75.00,,75.00,0.00,,,,,,,,
56546188,2DT2510,03,21,MD,CHEV,N Paca St NB @ W Fayette St,030,Red Light Violation,75.00,07/24/2020 08:49:00 AM,75.00,,75.00,0.00,,,,,,,,
56546154,7DP8332,01,21,MD,NISS,Wilkens Ave WB @ Caton Ave,030,Red Light Violation,75.00,07/24/2020 08:46:00 AM,75.00,,75.00,0.00,,,,,,,,
56546139,67349CH,04,20,MD,HOND,E Madison St WB @ N Linwood Av,030,Red Light Violation,75.00,07/24/2020 08:42:00 AM,75.00,,75.00,0.00,,,,,,,,
56546097,3CC1866,09,20,MD,DODG,Pulaski Hwy EB @ Moravia Park,030,Red Light Violation,75.00,07/24/2020 08:31:00 AM,75.00,,75.00,0.00,,,,,,,,
56546071,8BG7866,08,20,MD,HOND,Falls Rd SB @ W 41st St,030,Red Light Violation,75.00,07/24/2020 08:26:00 AM,75.00,,75.00,0.00,,,,,,,,
56546055,3ED5498,03,22,MD,NISS,E Madison St WB @ N Linwood Av,030,Red Light Violation,75.00,07/24/2020 08:23:00 AM,75.00,,75.00,0.00,,,,,,,,
56544282,61065M1,05,22,MD,SUBA,E 33rd St WB @ Greenmount Ave,030,Red Light Violation,75.00,07/24/2020 08:16:00 AM,75.00,,75.00,0.00,,,,,,,,
56544274,2EE5124,05,21,MD,CHEV,N Fulton Ave NB @ W North Ave,030,Red Light Violation,75.00,07/24/2020 08:08:00 AM,75.00,,75.00,0.00,,,,,,,,
56544266,2BK4529,03,21,MD,DODG,Pulaski Hwy EB @ N North Point,030,Red Light Violation,75.00,07/24/2020 08:05:00 AM,75.00,,75.00,0.00,,,,,,,,
56544258,3DN0145,11,20,MD,HOND,W Lombard St WB @ S Charles St,030,Red Light Violation,75.00,07/24/2020 08:04:00 AM,75.00,,75.00,0.00,,,,,,,,
56544217,9CS8326,01,21,MD,LEXS,Erdman Ave EB @ Belair Rd,030,Red Light Violation,75.00,07/24/2020 08:02:00 AM,75.00,,75.00,0.00,,,,,,,,
56544209,6AV9670,07,21,MD,TOYT,Russell St NB @ Bush St,030,Red Light Violation,75.00,07/24/2020 07:59:00 AM,75.00,,75.00,0.00,,,,,,,,
56544183,3BK2772,02,22,MD,AUDI,E Northern Pkwy WB @ N Charles,030,Red Light Violation,75.00,07/24/2020 07:48:00 AM,75.00,,75.00,0.00,,,,,,,,
56544175,6DW0489,06,21,MD,TOYT,E North Ave WB @ N Howard St,030,Red Light Violation,75.00,07/24/2020 07:45:00 AM,75.00,,75.00,0.00,,,,,,,,
56544142,1EF2084,04,22,MD,CHEV,Pulaski Hwy EB @ Moravia Park,030,Red Light Violation,75.00,07/24/2020 07:40:00 AM,75.00,,75.00,0.00,,,,,,,,
56544134,4DW6969,05,21,MD,HOND,Pulaski Hwy EB @ N North Point,030,Red Light Violation,75.00,07/24/2020 07:39:00 AM,75.00,,75.00,0.00,,,,,,,,
56544126,7EC3464,03,20,MD,HOND,Pennsylvania Ave NB @ Dolphin,030,Red Light Violation,75.00,07/24/2020 07:35:00 AM,75.00,,75.00,0.00,,,,,,,,
56544118,5DA0081,10,21,MD,LNDR,Dundalk Ave SB @ O'Donnell St,030,Red Light Violation,75.00,07/24/2020 07:34:00 AM,75.00,,75.00,0.00,,,,,,,,
56544100,6BX5155,06,21,MD,HYUN,Light St SB @ W Pratt St,030,Red Light Violation,75.00,07/24/2020 07:32:00 AM,75.00,,75.00,0.00,,,,,,,,
56544050,Z63LRW,00,0,NJ,HONDA,Pulaski Hwy EB @ Moravia Park,030,Red Light Violation,75.00,07/24/2020 07:24:00 AM,75.00,,75.00,0.00,,,,,,,,
56544043,S85GRT,00,0,NJ,HONDA,Russell St SB @ Bayard St,030,Red Light Violation,75.00,07/24/2020 07:22:00 AM,75.00,,75.00,0.00,,,,,,,,
56545230,7EC8251,01,22,MD,TOYT,E North Ave EB @ Harford Ave/R,030,Red Light Violation,75.00,07/24/2020 07:21:00 AM,75.00,,75.00,0.00,,,,,,,,
56545222,2DB2904,09,21,MD,MITS,E North Ave WB @ N Howard St,030,Red Light Violation,75.00,07/24/2020 07:20:00 AM,75.00,,75.00,0.00,,,,,,,,
56545214,30135CJ,10,21,MD,HOND,The Alameda NB @ Argonne,030,Red Light Violation,75.00,07/24/2020 07:19:00 AM,75.00,,75.00,0.00,,,,,,,,
56545180,51W877,07,20,MD,NISS,N Paca St NB @ W Fayette St,030,Red Light Violation,75.00,07/24/2020 07:17:00 AM,75.00,,75.00,0.00,,,,,,,,
56545198,MBD442,12,20,MD,FORD,Loch Raven Blvd SB @ E Belvede,030,Red Light Violation,75.00,07/24/2020 07:17:00 AM,75.00,,75.00,0.00,,,,,,,,
56545115,373642,07,21,MD,GMC,Pulaski Hwy EB @ Moravia Park,030,Red Light Violation,75.00,07/24/2020 06:44:00 AM,75.00,,75.00,0.00,,,,,,,,
56545107,8DG6728,04,21,MD,FORD,Erdman Ave WB @ N Macon St,030,Red Light Violation,75.00,07/24/2020 06:43:00 AM,75.00,,75.00,0.00,,,,,,,,
56548762,6ED1494,02,22,MD,CHEV,Liberty Heights Ave WB @ W Nor,030,Red Light Violation,75.00,07/24/2020 06:41:00 AM,75.00,,75.00,0.00,,,,,,,,
56545065,2DB9132,09,21,MD,AUDI,W Northern Pkwy EB @ Reisterst,030,Red Light Violation,75.00,07/24/2020 06:37:00 AM,75.00,,75.00,0.00,,,,,,,,
56545040,DV15613,12,99,MD,MERZ,N Paca St NB @ W Fayette St,030,Red Light Violation,75.00,07/24/2020 06:27:00 AM,75.00,,75.00,0.00,,,,,,,,
56545032,EY6467,07,18,DC,TOYT,S Monroe St SB @ Washington Bl,030,Red Light Violation,75.00,07/24/2020 06:27:00 AM,75.00,,75.00,0.00,,,,,,,,
56545370,76297CH,01,21,MD,HOND,E Cold Spring Ln WB @ York Rd,030,Red Light Violation,75.00,07/24/2020 06:19:00 AM,75.00,,75.00,0.00,,,,,,,,
56543938,1DR6149,06,21,MD,MITS,Dundalk Ave NB @ O'Donnell St,030,Red Light Violation,75.00,07/24/2020 05:12:00 AM,75.00,,75.00,0.00,,,,,,,,
56545305,UUL9868,00,0,VA,SATU,Dundalk Ave SB @ O'Donnell St,030,Red Light Violation,75.00,07/24/2020 05:04:00 AM,75.00,,75.00,0.00,,,,,,,,
56545289,7EA9859,11,21,MD,CHEV,Dundalk Ave NB @ O'Donnell St,030,Red Light Violation,75.00,07/24/2020 04:33:00 AM,75.00,,75.00,0.00,,,,,,,,
56550677,1EE4427,04,20,MD,TOYT,Caton Ave NB @ Wilkens Ave,030,Red Light Violation,75.00,07/24/2020 04:28:00 AM,75.00,,75.00,0.00,,,,,,,,
56545263,2DE0408,03,21,MD,FORD,Dundalk Ave NB @ O'Donnell St,030,Red Light Violation,75.00,07/24/2020 03:47:00 AM,75.00,,75.00,0.00,,,,,,,,
56542872,8DY9248,08,20,MD,HOND,Aliceanna St WB @ S Wolfe St,030,Red Light Violation,75.00,07/24/2020 03:23:00 AM,75.00,,75.00,0.00,,,,,,,,
56543268,A346447,08,21,MD,TOYT,Caton Ave NB @ Wilkens Ave,030,Red Light Violation,75.00,07/24/2020 03:01:00 AM,75.00,,75.00,0.00,,,,,,,,
56543250,2EG5912,07,20,MD,HOND,N Paca St NB @ W Fayette St,030,Red Light Violation,75.00,07/24/2020 02:58:00 AM,75.00,,75.00,0.00,,,,,,,,
56544027,6ED8578,03,20,MD,HOND,Loch Raven Blvd SB @ E Belvede,030,Red Light Violation,75.00,07/24/2020 02:32:00 AM,75.00,,75.00,0.00,,,,,,,,
56543995,6BN9627,07,20,MD,BUIC,N Paca St NB @ W Fayette St,030,Red Light Violation,75.00,07/24/2020 02:25:00 AM,75.00,,75.00,0.00,,,,,,,,
56543987,9CW0167,04,21,MD,NISS,N Fulton Ave NB @ W North Ave,030,Red Light Violation,75.00,07/24/2020 02:11:00 AM,75.00,,75.00,0.00,,,,,,,,
56543979,UKB7523,00,0,VA,FORD,Hillen Rd NB @ E Cold Spring L,030,Red Light Violation,75.00,07/24/2020 02:06:00 AM,75.00,,75.00,0.00,,,,,,,,
56543243,7ED1440,03,22,MD,NISS,S MLK Jr Blvd SB @ W Pratt St,030,Red Light Violation,75.00,07/24/2020 01:39:00 AM,75.00,,75.00,0.00,,,,,,,,
56543219,UTH9626,00,0,VA,TOYT,St Paul St SB @ E Madison St,030,Red Light Violation,75.00,07/24/2020 01:19:00 AM,75.00,,75.00,0.00,,,,,,,,
56542781,5CD0070,12,21,MD,CHRY,N Calvert St NB @ E Baltimore,030,Red Light Violation,75.00,07/23/2020 11:45:00 PM,75.00,,75.00,0.00,,,,,,,,
56543367,387115T,09,20,MD,KIA,Erdman Ave EB @ Belair Rd,030,Red Light Violation,75.00,07/23/2020 11:44:00 PM,75.00,,75.00,0.00,,,,,,,,
56543359,3DG4939,04,20,MD,HYUN,W Belvedere Ave EB @ Park Heig,030,Red Light Violation,75.00,07/23/2020 11:41:00 PM,75.00,,75.00,0.00,,,,,,,,
56543003,4EF7040,07,22,MD,JEEP,N Calvert St NB @ E Baltimore,030,Red Light Violation,75.00,07/23/2020 11:40:00 PM,75.00,,75.00,0.00,,,,,,,,
56542997,3EE6402,03,21,MD,CHEV,N Calvert St NB @ E Baltimore,030,Red Light Violation,75.00,07/23/2020 11:40:00 PM,75.00,,75.00,0.00,,,,,,,,
56543342,7DJ7490,07,22,MD,VOLK,Russell St NB @ Bush St,030,Red Light Violation,75.00,07/23/2020 11:21:00 PM,75.00,,75.00,0.00,,,,,,,,
56542955,3CR7692,10,20,MD,TOYT,Aliceanna St EB @ S Wolfe St,030,Red Light Violation,75.00,07/23/2020 10:46:00 PM,75.00,,75.00,0.00,,,,,,,,
56543334,1BP3410,08,20,MD,DODG,Dundalk Ave SB @ O'Donnell St,030,Red Light Violation,75.00,07/23/2020 10:30:00 PM,75.00,,75.00,0.00,,,,,,,,
56542914,5DS8973,05,21,MD,CHEV,Gwynns Falls Pkwy EB @ Reister,030,Red Light Violation,75.00,07/23/2020 10:27:00 PM,75.00,,75.00,0.00,,,,,,,,
56545255,8DS4894,03,21,MD,NISS,E Belvedere Ave EB @ Hillen Rd,030,Red Light Violation,75.00,07/23/2020 10:20:00 PM,75.00,,75.00,0.00,,,,,,,,
56542583,8DR0759,02,21,MD,NISS,E 33rd St WB @ Greenmount Ave,030,Red Light Violation,75.00,07/23/2020 10:19:00 PM,75.00,,75.00,0.00,,,,,,,,
56542880,3CE3564,12,21,MD,HOND,Caton Ave NB @ Wilkens Ave,030,Red Light Violation,75.00,07/23/2020 10:08:00 PM,75.00,,75.00,0.00,,,,,,,,
56542831,D2RLLC,00,0,VA,ACUR,Reisterstown Rd SB @ Patterson,030,Red Light Violation,75.00,07/23/2020 10:02:00 PM,75.00,,75.00,0.00,,,,,,,,
56542799,1AV9410,07,22,MD,HOND,W Cold Spring Ln WB @ Reisters,030,Red Light Violation,75.00,07/23/2020 09:42:00 PM,75.00,,75.00,0.00,,,,,,,,
56544977,5CT7077,02,21,MD,NISS,Dundalk Ave SB @ O'Donnell St,030,Red Light Violation,75.00,07/23/2020 09:19:00 PM,75.00,,75.00,0.00,,,,,,,,
56544969,UMP7328,00,0,VA,TOYT,E Pratt St EB @ Light St,030,Red Light Violation,75.00,07/23/2020 09:17:00 PM,75.00,,75.00,0.00,,,,,,,,
56544951,4EG0018,07,20,MD,DODG,Pulaski Hwy EB @ Moravia Park,030,Red Light Violation,75.00,07/23/2020 09:13:00 PM,75.00,,75.00,0.00,,,,,,,,
56542757,7CD5214,01,22,MD,HOND,N Calvert St NB @ E Baltimore,030,Red Light Violation,75.00,07/23/2020 08:58:00 PM,75.00,,75.00,0.00,,,,,,,,
56544571,8CF6338,03,22,MD,FORD,W Northern Pkwy WB @ Reisterst,030,Red Light Violation,75.00,07/23/2020 08:57:00 PM,75.00,,75.00,0.00,,,,,,,,
56544548,9CY2849,07,21,MD,HOND,N Calvert St NB @ E Baltimore,030,Red Light Violation,75.00,07/23/2020 08:50:00 PM,75.00,,75.00,0.00,,,,,,,,
56544449,9EE8786,05,22,MD,ACUR,Belair Rd SB @ Erdman Ave,030,Red Light Violation,75.00,07/23/2020 08:47:00 PM,75.00,,75.00,0.00,,,,,,,,
56542591,1EG1579,07,20,MD,TOYT,Frederick Ave WB @ S Beechfiel,030,Red Light Violation,75.00,07/23/2020 08:45:00 PM,75.00,,75.00,0.00,,,,,,,,
56544407,29350BY,03,21,MD,NISS,Pulaski Hwy EB @ N North Point,030,Red Light Violation,75.00,07/23/2020 08:45:00 PM,75.00,,75.00,0.00,,,,,,,,
56542948,50419B,04,21,MD,MERC,W Lombard St WB @ S Charles St,030,Red Light Violation,75.00,07/23/2020 08:44:00 PM,75.00,,75.00,0.00,,,,,,,,
56542419,UKU5233,00,0,VA,BUIC,The Alameda NB @ Argonne,030,Red Light Violation,75.00,07/23/2020 08:41:00 PM,75.00,,75.00,0.00,,,,,,,,
56544589,JHK6958,09,19,NY,NISS,S MLK Jr Blvd SB @ Washington,030,Red Light Violation,75.00,07/23/2020 08:33:00 PM,75.00,,75.00,0.00,,,,,,,,
56544555,4EA1559,10,21,MD,VOLV,Dundalk Ave SB @ O'Donnell St,030,Red Light Violation,75.00,07/23/2020 08:23:00 PM,75.00,,75.00,0.00,,,,,,,,
56544530,9CG3902,02,21,MD,HOND,Erdman Ave EB @ N Macon St,030,Red Light Violation,75.00,07/23/2020 08:17:00 PM,75.00,,75.00,0.00,,,,,,,,
56544514,2EE5477,03,20,MD,HOND,Park Heights Ave NB @ W Belved,030,Red Light Violation,75.00,07/23/2020 08:10:00 PM,75.00,,75.00,0.00,,,,,,,,
56544506,6CT9360,02,21,MD,HOND,Dundalk Ave SB @ O'Donnell St,030,Red Light Violation,75.00,07/23/2020 08:05:00 PM,75.00,,75.00,0.00,,,,,,,,
56544464,6BV3943,01,21,MD,ACUR,Pulaski Hwy EB @ Moravia Park,030,Red Light Violation,75.00,07/23/2020 07:58:00 PM,75.00,,75.00,0.00,,,,,,,,
56544456,5DK7936,10,20,MD,KIA,N Calvert St NB @ E Baltimore,030,Red Light Violation,75.00,07/23/2020 07:57:00 PM,75.00,,75.00,0.00,,,,,,,,
56544431,1ED8616,02,22,MD,HOND,Erdman Ave EB @ Belair Rd,030,Red Light Violation,75.00,07/23/2020 07:56:00 PM,75.00,,75.00,0.00,,,,,,,,
56544423,HOF0903,07,20,MD,TOYT,Erdman Ave EB @ Belair Rd,030,Red Light Violation,75.00,07/23/2020 07:56:00 PM,75.00,,75.00,0.00,,,,,,,,
56543920,9DE2245,03,21,MD,TOYT,N Calvert St NB @ E Baltimore,030,Red Light Violation,75.00,07/23/2020 07:53:00 PM,75.00,,75.00,0.00,,,,,,,,
56543912,TBW9498,00,0,NC,MERCU,N Fulton Ave NB @ W North Ave,030,Red Light Violation,75.00,07/23/2020 07:49:00 PM,75.00,,75.00,0.00,,,,,,,,
56544936,4EE2214,06,22,MD,HYUN,S MLK Jr Blvd NB @ W Pratt St,030,Red Light Violation,75.00,07/23/2020 07:45:00 PM,75.00,,75.00,0.00,,,,,,,,
56543888,5CM6462,08,20,MD,CADI,Belair Rd SB @ Erdman Ave,030,Red Light Violation,75.00,07/23/2020 07:35:00 PM,75.00,,75.00,0.00,,,,,,,,
56543896,2ED1023,03,22,MD,MERZ,E Cold Spring Ln WB @ York Rd,030,Red Light Violation,75.00,07/23/2020 07:35:00 PM,75.00,,75.00,0.00,,,,,,,,
56543870,UMB7009,00,0,VA,KIA,Liberty Heights Ave WB @ W Nor,030,Red Light Violation,75.00,07/23/2020 07:33:00 PM,75.00,,75.00,0.00,,,,,,,,
56543151,4EE1528,05,21,MD,HOND,Sinclair Ln WB @ Moravia Rd,030,Red Light Violation,75.00,07/23/2020 07:33:00 PM,75.00,,75.00,0.00,,,,,,,,
56542302,27842Z,11,21,MD,HOND,Wilkens Ave EB @ Caton Ave,030,Red Light Violation,75.00,07/23/2020 07:31:00 PM,75.00,,75.00,0.00,,,,,,,,
56543821,UKG4513,00,0,VA,FORD,Pennsylvania Ave SB @ Dolphin,030,Red Light Violation,75.00,07/23/2020 07:29:00 PM,75.00,,75.00,0.00,,,,,,,,
56543813,2DY8891,09,21,MD,TOYT,Pennsylvania Ave SB @ Dolphin,030,Red Light Violation,75.00,07/23/2020 07:27:00 PM,75.00,,75.00,0.00,,,,,,,,
56544381,2EC3657,01,22,MD,JEEP,N Calvert St NB @ E Baltimore,030,Red Light Violation,75.00,07/23/2020 07:23:00 PM,75.00,,75.00,0.00,,,,,,,,
56544373,UHJ8745,00,0,VA,TOYT,Hillen Rd NB @ E Cold Spring L,030,Red Light Violation,75.00,07/23/2020 07:18:00 PM,75.00,,75.00,0.00,,,,,,,,
56543789,4DE8004,02,22,MD,HYUN,Light St SB @ W Pratt St,030,Red Light Violation,75.00,07/23/2020 07:13:00 PM,75.00,,75.00,0.00,,,,,,,,
56543763,4EF3633,06,20,MD,HOND,Pennsylvania Ave SB @ Dolphin,030,Red Light Violation,75.00,07/23/2020 07:09:00 PM,75.00,,75.00,0.00,,,,,,,,
56544357,1EE7767,03,22,MD,CHEV,Gwynns Falls Pkwy WB @ Reister,030,Red Light Violation,75.00,07/23/2020 07:08:00 PM,75.00,,75.00,0.00,,,,,,,,
56542427,4EB7781,12,20,MD,HOND,Pulaski Hwy EB @ N North Point,030,Red Light Violation,75.00,07/23/2020 06:56:00 PM,75.00,,75.00,0.00,,,,,,,,
56542856,9EC6852,02,22,MD,FORD,Aliceanna St EB @ S Wolfe St,030,Red Light Violation,75.00,07/23/2020 06:52:00 PM,75.00,,75.00,0.00,,,,,,,,
56543706,3DLM67,10,21,MD,NISS,Pennsylvania Ave NB @ Dolphin,030,Red Light Violation,75.00,07/23/2020 06:49:00 PM,75.00,,75.00,0.00,,,,,,,,
56545248,5DR1158,07,22,MD,NISS,Erdman Ave EB @ Belair Rd,030,Red Light Violation,75.00,07/23/2020 06:46:00 PM,75.00,,75.00,0.00,,,,,,,,
56542815,4EE5760,04,20,MD,TOYT,E North Ave WB @ N Howard St,030,Red Light Violation,75.00,07/23/2020 06:46:00 PM,75.00,,75.00,0.00,,,,,,,,
56542708,8DH9543,06,22,MD,HOND,W Cold Spring Ln WB @ Reisters,030,Red Light Violation,75.00,07/23/2020 06:44:00 PM,75.00,,75.00,0.00,,,,,,,,
56542807,8EC1863,03,21,MD,BMW,Windsor Mill Rd EB @ N Forest,030,Red Light Violation,75.00,07/23/2020 06:44:00 PM,75.00,,75.00,0.00,,,,,,,,
56542666,5DK8169,07,20,MD,CHRY,E North Ave WB @ N Wolfe St,030,Red Light Violation,75.00,07/23/2020 06:43:00 PM,75.00,,75.00,0.00,,,,,,,,
56542617,1EA4444,03,21,MD,VOLV,Light St SB @ W Pratt St,030,Red Light Violation,75.00,07/23/2020 06:41:00 PM,75.00,,75.00,0.00,,,,,,,,
56543185,8N24R9,00,0,TN,CHEVR,Moravia Rd SB @ Sinclair Ln,030,Red Light Violation,75.00,07/23/2020 06:40:00 PM,75.00,,75.00,0.00,,,,,,,,
56542559,2EB1759,11,21,MD,HYUN,N Calvert St NB @ E Baltimore,030,Red Light Violation,75.00,07/23/2020 06:40:00 PM,75.00,,75.00,0.00,,,,,,,,
56542518,3CT3835,01,21,MD,KIA,E North Ave WB @ N Howard St,030,Red Light Violation,75.00,07/23/2020 06:37:00 PM,75.00,,75.00,0.00,,,,,,,,
56542336,4DR0587,03,21,MD,TOYT,E North Ave WB @ N Wolfe St,030,Red Light Violation,75.00,07/23/2020 06:35:00 PM,75.00,,75.00,0.00,,,,,,,,
56542740,4EC9609,03,22,MD,FORD,Erdman Ave WB @ N Macon St,030,Red Light Violation,75.00,07/23/2020 06:34:00 PM,75.00,,75.00,0.00,,,,,,,,
56542732,3DL9459,09,21,MD,LEXS,Dundalk Ave SB @ O'Donnell St,030,Red Light Violation,75.00,07/23/2020 06:34:00 PM,75.00,,75.00,0.00,,,,,,,,
56543201,57879CH,12,20,MD,NISS,W Northern Pkwy EB @ Reisterst,030,Red Light Violation,75.00,07/23/2020 06:32:00 PM,75.00,,75.00,0.00,,,,,,,,
56542674,RN2809,11,17,MD,TOYT,E Madison St WB @ N Linwood Av,030,Red Light Violation,75.00,07/23/2020 06:31:00 PM,75.00,,75.00,0.00,,,,,,,,
56548226,3CR0603,11,20,MD,JEEP,N President St SB @ E Fayette,030,Red Light Violation,75.00,07/23/2020 06:27:00 PM,75.00,,75.00,0.00,,,,,,,,
56542088,209Z54,12,21,MD,INFI,Reisterstown Rd NB @ W Cold Sp,030,Red Light Violation,75.00,07/23/2020 06:17:00 PM,75.00,,75.00,0.00,,,,,,,,
56543847,PLN3603,00,0,NC,FORD,Park Heights Ave SB @ W Belved,030,Red Light Violation,75.00,07/23/2020 06:17:00 PM,75.00,,75.00,0.00,,,,,,,,
56542294,KXW7045,00,0,PA,HYUND,W Pratt St EB @ S MLK Jr Blvd,030,Red Light Violation,75.00,07/23/2020 06:16:00 PM,75.00,,75.00,0.00,,,,,,,,
56544365,UMA9950,00,0,VA,MERZ,W Cold Spring Ln WB @ Reisters,030,Red Light Violation,75.00,07/23/2020 06:16:00 PM,75.00,,75.00,0.00,,,,,,,,
56543755,2DZ6682,10,21,MD,HYUN,S MLK Jr Blvd SB @ Washington,030,Red Light Violation,75.00,07/23/2020 06:15:00 PM,75.00,,75.00,0.00,,,,,,,,
56548218,2DY5872,07,21,MD,CHEV,N President St NB @ E Fayette,030,Red Light Violation,75.00,07/23/2020 06:12:00 PM,75.00,,75.00,0.00,,,,,,,,
56542252,4DG4920,05,22,MD,FORD,Gwynns Falls Pkwy EB @ Reister,030,Red Light Violation,75.00,07/23/2020 06:02:00 PM,75.00,,75.00,0.00,,,,,,,,
56542005,4EC9681,02,21,MD,OLDS,N Calvert St NB @ E Baltimore,030,Red Light Violation,75.00,07/23/2020 06:02:00 PM,75.00,,75.00,0.00,,,,,,,,
56542229,6DJ8529,06,20,MD,CHEV,Reisterstown Rd SB @ Gwynns Fa,030,Red Light Violation,75.00,07/23/2020 05:57:00 PM,75.00,,75.00,0.00,,,,,,,,
56541957,9EB5147,01,21,MD,NISS,N Fulton Ave NB @ W North Ave,030,Red Light Violation,75.00,07/23/2020 05:54:00 PM,75.00,,75.00,0.00,,,,,,,,
56541940,5DY0623,09,21,MD,HOND,N Calvert St NB @ E Baltimore,030,Red Light Violation,75.00,07/23/2020 05:50:00 PM,75.00,,75.00,0.00,,,,,,,,
56543680,4CL2140,08,20,MD,MAZD,E 33rd St WB @ Greenmount Ave,030,Red Light Violation,75.00,07/23/2020 05:46:00 PM,75.00,,75.00,0.00,,,,,,,,
56543672,LHH6253,00,0,PA,FORD,S MLK Jr Blvd SB @ Washington,030,Red Light Violation,75.00,07/23/2020 05:45:00 PM,75.00,,75.00,0.00,,,,,,,,
56541841,1DK0332,06,20,MD,HOND,Pulaski Hwy EB @ N North Point,030,Red Light Violation,75.00,07/23/2020 05:43:00 PM,75.00,,75.00,0.00,,,,,,,,
56543607,KRD7503,00,0,PA,CHRYS,Windsor Mill Rd EB @ N Forest,030,Red Light Violation,75.00,07/23/2020 05:37:00 PM,75.00,,75.00,0.00,,,,,,,,
56543581,2EC6248,12,20,MD,HYUN,E North Ave WB @ N Howard St,030,Red Light Violation,75.00,07/23/2020 05:36:00 PM,75.00,,75.00,0.00,,,,,,,,
56543565,3CE6731,01,21,MD,HYUN,E North Ave WB @ N Howard St,030,Red Light Violation,75.00,07/23/2020 05:36:00 PM,75.00,,75.00,0.00,,,,,,,,
56542377,2DC6657,11,20,MD,HOND,Caton Ave SB @ Wilkens Ave,030,Red Light Violation,75.00,07/23/2020 05:35:00 PM,75.00,,75.00,0.00,,,,,,,,
56542534,40T315,01,21,MD,FORD,Windsor Mill Rd EB @ N Forest,030,Red Light Violation,75.00,07/23/2020 05:34:00 PM,75.00,,75.00,0.00,,,,,,,,
56542526,7DC6904,12,21,MD,KIA,Wilkens Ave WB @ Caton Ave,030,Red Light Violation,75.00,07/23/2020 05:34:00 PM,75.00,,75.00,0.00,,,,,,,,
56542468,CWA0124,04,21,MD,HOND,Harford Ave NB @ E North Ave,030,Red Light Violation,75.00,07/23/2020 05:31:00 PM,75.00,,75.00,0.00,,,,,,,,
56543169,8EA4224,10,21,MD,AUDI,E 33rd St EB @ Loch Raven Blvd,030,Red Light Violation,75.00,07/23/2020 05:24:00 PM,75.00,,75.00,0.00,,,,,,,,
56542443,3DL6302,08,20,MD,CHEV,Light St SB @ W Pratt St,030,Red Light Violation,75.00,07/23/2020 05:23:00 PM,75.00,,75.00,0.00,,,,,,,,
56542351,8EC2325,02,21,MD,NISS,S MLK Jr Blvd SB @ Washington,030,Red Light Violation,75.00,07/23/2020 05:22:00 PM,75.00,,75.00,0.00,,,,,,,,
56542344,8BX8407,03,21,MD,HYUN,E Pratt St EB @ Light St,030,Red Light Violation,75.00,07/23/2020 05:21:00 PM,75.00,,75.00,0.00,,,,,,,,
56542195,2BH0663,01,21,MD,BMW,E 33rd St EB @ Greenmount Ave,030,Red Light Violation,75.00,07/23/2020 05:18:00 PM,75.00,,75.00,0.00,,,,,,,,
56542161,UHP8160,00,0,VA,FORD,E Cold Spring Ln WB @ York Rd,030,Red Light Violation,75.00,07/23/2020 05:15:00 PM,75.00,,75.00,0.00,,,,,,,,
56542153,4EB5736,01,22,MD,HOND,York Rd SB @ E Cold Spring Ln,030,Red Light Violation,75.00,07/23/2020 05:13:00 PM,75.00,,75.00,0.00,,,,,,,,
56548184,4CH2059,04,22,MD,KIA,N President St SB @ E Fayette,030,Red Light Violation,75.00,07/23/2020 05:11:00 PM,75.00,,75.00,0.00,,,,,,,,
56543698,3ED4819,01,22,MD,JAGU,N Calvert St NB @ E Baltimore,030,Red Light Violation,75.00,07/23/2020 05:10:00 PM,75.00,,75.00,0.00,,,,,,,,
56541916,5EA7131,10,20,MD,HYUN,Belair Rd SB @ Erdman Ave,030,Red Light Violation,75.00,07/23/2020 05:10:00 PM,75.00,,75.00,0.00,,,,,,,,
56543664,9DM3240,10,20,MD,VOLV,W Lombard St WB @ S Charles St,030,Red Light Violation,75.00,07/23/2020 05:05:00 PM,75.00,,75.00,0.00,,,,,,,,
56542385,7BV3819,01,21,MD,SUBA,S MLK Jr Blvd SB @ Washington,030,Red Light Violation,75.00,07/23/2020 05:05:00 PM,75.00,,75.00,0.00,,,,,,,,
56543656,7DC3835,01,22,MD,HOND,Wilkens Ave WB @ Caton Ave,030,Red Light Violation,75.00,07/23/2020 05:03:00 PM,75.00,,75.00,0.00,,,,,,,,
56543615,4CS3599,11,20,MD,TOYT,E 33rd St EB @ Loch Raven Blvd,030,Red Light Violation,75.00,07/23/2020 05:00:00 PM,75.00,,75.00,0.00,,,,,,,,
56541825,3EF4431,07,22,MD,MERZ,The Alameda NB @ Argonne,030,Red Light Violation,75.00,07/23/2020 04:59:00 PM,75.00,,75.00,0.00,,,,,,,,
56541817,6ED2450,04,20,MD,HOND,Reisterstown Rd SB @ Patterson,030,Red Light Violation,75.00,07/23/2020 04:58:00 PM,75.00,,75.00,0.00,,,,,,,,
56541742,9EC9719,03,21,MD,INFI,The Alameda NB @ Argonne,030,Red Light Violation,75.00,07/23/2020 04:58:00 PM,75.00,,75.00,0.00,,,,,,,,
56543136,9CH7909,06,20,MD,BUIC,Sinclair Ln WB @ Moravia Rd,030,Red Light Violation,75.00,07/23/2020 04:57:00 PM,75.00,,75.00,0.00,,,,,,,,
56541676,4DD6602,01,22,MD,NISS,Pulaski Hwy EB @ Moravia Park,030,Red Light Violation,75.00,07/23/2020 04:56:00 PM,75.00,,75.00,0.00,,,,,,,,
56541668,4DJ9934,06,20,MD,NISS,Erdman Ave EB @ N Macon St,030,Red Light Violation,75.00,07/23/2020 04:55:00 PM,75.00,,75.00,0.00,,,,,,,,
56540975,5DP3369,12,20,MD,TOYT,Aliceanna St WB @ S Wolfe St,030,Red Light Violation,75.00,07/23/2020 04:54:00 PM,75.00,,75.00,0.00,,,,,,,,
56540959,7BP7664,08,20,MD,HOND,E North Ave WB @ N Howard St,030,Red Light Violation,75.00,07/23/2020 04:51:00 PM,75.00,,75.00,0.00,,,,,,,,
56540934,46417CJ,05,21,MD,NISS,Pulaski Hwy EB @ N North Point,030,Red Light Violation,75.00,07/23/2020 04:50:00 PM,75.00,,75.00,0.00,,,,,,,,
56540918,6DN6837,12,20,MD,CHEV,Erdman Ave WB @ N Macon St,030,Red Light Violation,75.00,07/23/2020 04:47:00 PM,75.00,,75.00,0.00,,,,,,,,
56540892,3EB0539,12,21,MD,KIA,E Madison St WB @ N Broadway,030,Red Light Violation,75.00,07/23/2020 04:47:00 PM,75.00,,75.00,0.00,,,,,,,,
56542401,9CS0650,01,22,MD,TOYT,S MLK Jr Blvd SB @ Washington,030,Red Light Violation,75.00,07/23/2020 04:45:00 PM,75.00,,75.00,0.00,,,,,,,,
56540876,7DT1936,04,21,MD,CHRY,Pennsylvania Ave SB @ Dolphin,030,Red Light Violation,75.00,07/23/2020 04:42:00 PM,75.00,,75.00,0.00,,,,,,,,
56543490,6DD1614,12,20,MD,MITS,E 33rd St EB @ Loch Raven Blvd,030,Red Light Violation,75.00,07/23/2020 04:40:00 PM,75.00,,75.00,0.00,,,,,,,,
56543458,3CPS52,03,21,MD,HOND,N Paca St NB @ W Fayette St,030,Red Light Violation,75.00,07/23/2020 04:39:00 PM,75.00,,75.00,0.00,,,,,,,,
56540827,8EE8775,07,20,MD,INFI,N Paca St NB @ W Fayette St,030,Red Light Violation,75.00,07/23/2020 04:38:00 PM,75.00,,75.00,0.00,,,,,,,,
56542062,8EA8361,01,21,MD,AUDI,Gwynns Falls Pkwy EB @ Reister,030,Red Light Violation,75.00,07/23/2020 04:36:00 PM,75.00,,75.00,0.00,,,,,,,,
56541700,7ED9006,03,20,MD,ACUR,N Fulton Ave NB @ W North Ave,030,Red Light Violation,75.00,07/23/2020 04:35:00 PM,75.00,,75.00,0.00,,,,,,,,
56541650,7DA7280,09,21,MD,CHEV,N Calvert St NB @ E Baltimore,030,Red Light Violation,75.00,07/23/2020 04:33:00 PM,75.00,,75.00,0.00,,,,,,,,
56541643,4CV7575,02,21,MD,NISS,Pulaski Hwy EB @ N North Point,030,Red Light Violation,75.00,07/23/2020 04:32:00 PM,75.00,,75.00,0.00,,,,,,,,
56541635,7CS5711,12,20,MD,CHEV,Gwynns Falls Pkwy WB @ Reister,030,Red Light Violation,75.00,07/23/2020 04:32:00 PM,75.00,,75.00,0.00,,,,,,,,
56541627,899M724,10,20,MD,TOYT,Liberty Heights Ave WB @ W Nor,030,Red Light Violation,75.00,07/23/2020 04:30:00 PM,75.00,,75.00,0.00,,,,,,,,
56541320,8DN0726,11,20,MD,FORD,E North Ave WB @ N Howard St,030,Red Light Violation,75.00,07/23/2020 04:27:00 PM,75.00,,75.00,0.00,,,,,,,,
56543540,7EE9267,06,22,MD,CHEV,S MLK Jr Blvd SB @ W Pratt St,030,Red Light Violation,75.00,07/23/2020 04:23:00 PM,75.00,,75.00,0.00,,,,,,,,
56541593,1DY1635,11,21,MD,FORD,N Calvert St NB @ E Baltimore,030,Red Light Violation,75.00,07/23/2020 04:20:00 PM,75.00,,75.00,0.00,,,,,,,,
56543508,9AE6456,01,21,MD,HOND,Pennsylvania Ave SB @ Dolphin,030,Red Light Violation,75.00,07/23/2020 04:18:00 PM,75.00,,75.00,0.00,,,,,,,,
56541577,A187298,08,21,MD,JEEP,Dundalk Ave SB @ O'Donnell St,030,Red Light Violation,75.00,07/23/2020 04:18:00 PM,75.00,,75.00,0.00,,,,,,,,
56543474,7EC2624,06,22,MD,CHEV,York Rd SB @ E Cold Spring Ln,030,Red Light Violation,75.00,07/23/2020 04:16:00 PM,75.00,,75.00,0.00,,,,,,,,
56541312,1EE7729,03,22,MD,MAZD,E North Ave WB @ N Howard St,030,Red Light Violation,75.00,07/23/2020 04:16:00 PM,75.00,,75.00,0.00,,,,,,,,
56548796,8CS0781,03,21,MD,DODG,N President St SB @ E Fayette,030,Red Light Violation,75.00,07/23/2020 04:15:00 PM,75.00,,75.00,0.00,,,,,,,,
56541551,3EC4627,01,22,MD,ACUR,Caton Ave SB @ Wilkens Ave,030,Red Light Violation,75.00,07/23/2020 04:15:00 PM,75.00,,75.00,0.00,,,,,,,,
56543417,45971CH,09,20,MD,BMW,E North Ave WB @ N Howard St,030,Red Light Violation,75.00,07/23/2020 04:14:00 PM,75.00,,75.00,0.00,,,,,,,,
56540801,A331340,06,20,MD,INFI,E Cold Spring Ln WB @ Hillen R,030,Red Light Violation,75.00,07/23/2020 04:09:00 PM,75.00,,75.00,0.00,,,,,,,,
56542096,3EC8882,01,22,MD,HOND,Pennsylvania Ave NB @ Dolphin,030,Red Light Violation,75.00,07/23/2020 04:06:00 PM,75.00,,75.00,0.00,,,,,,,,
56543573,7DD3958,12,20,MD,TOYT,E North Ave WB @ N Howard St,030,Red Light Violation,75.00,07/23/2020 04:05:00 PM,75.00,,75.00,0.00,,,,,,,,
56541791,9DK0302,08,20,MD,TOYT,Aliceanna St EB @ S Wolfe St,030,Red Light Violation,75.00,07/23/2020 04:04:00 PM,75.00,,75.00,0.00,,,,,,,,
56541783,5BC3256,06,21,MD,CHEV,Gwynns Falls Pkwy EB @ Reister,030,Red Light Violation,75.00,07/23/2020 04:02:00 PM,75.00,,75.00,0.00,,,,,,,,
56541767,1EE6369,04,22,MD,HYUN,W Northern Pkwy EB @ N Charles,030,Red Light Violation,75.00,07/23/2020 03:59:00 PM,75.00,,75.00,0.00,,,,,,,,
56542070,8DN8205,12,20,MD,NISS,S Monroe St NB @ Washington Bl,030,Red Light Violation,75.00,07/23/2020 03:57:00 PM,75.00,,75.00,0.00,,,,,,,,
56541601,3BL2685,04,22,MD,VOLK,Harford Rd SB @ The Alameda,030,Red Light Violation,75.00,07/23/2020 03:57:00 PM,75.00,,75.00,0.00,,,,,,,,
56541759,LDL181,12,21,MD,CHEV,Falls Rd SB @ W 41st St,030,Red Light Violation,75.00,07/23/2020 03:57:00 PM,75.00,,75.00,0.00,,,,,,,,
56543425,2EB3760,01,21,MD,HOND,N Fulton Ave NB @ W North Ave,030,Red Light Violation,75.00,07/23/2020 03:55:00 PM,75.00,,75.00,0.00,,,,,,,,
56541544,2EG0086,08,20,MD,TOYT,Erdman Ave EB @ Belair Rd,030,Red Light Violation,75.00,07/23/2020 03:54:00 PM,75.00,,75.00,0.00,,,,,,,,
56541528,5CM0733,08,21,MD,TOYT,Gwynns Falls Pkwy WB @ Reister,030,Red Light Violation,75.00,07/23/2020 03:52:00 PM,75.00,,75.00,0.00,,,,,,,,
56541510,337Z56,06,22,MD,HOND,E North Ave WB @ N Howard St,030,Red Light Violation,75.00,07/23/2020 03:49:00 PM,75.00,,75.00,0.00,,,,,,,,
56541494,1CE6322,02,22,MD,TOYT,S Monroe St SB @ Washington Bl,030,Red Light Violation,75.00,07/23/2020 03:46:00 PM,75.00,,75.00,0.00,,,,,,,,
56541460,9864Z7,07,21,MD,BUIC,The Alameda NB @ Argonne,030,Red Light Violation,75.00,07/23/2020 03:43:00 PM,75.00,,75.00,0.00,,,,,,,,
56541205,AL2070,02,22,MD,TOYT,E North Ave WB @ N Howard St,030,Red Light Violation,75.00,07/23/2020 03:42:00 PM,75.00,,75.00,0.00,,,,,,,,
56540686,8CB0694,05,20,MD,MASE,N Calvert St NB @ E Baltimore,030,Red Light Violation,75.00,07/23/2020 03:42:00 PM,75.00,,75.00,0.00,,,,,,,,
56541437,5CB8407,09,21,MD,CHRY,Pulaski Hwy EB @ Moravia Park,030,Red Light Violation,75.00,07/23/2020 03:40:00 PM,75.00,,75.00,0.00,,,,,,,,
56540769,6ED3873,05,22,MD,NISS,N Calvert St NB @ E Baltimore,030,Red Light Violation,75.00,07/23/2020 03:37:00 PM,75.00,,75.00,0.00,,,,,,,,
56541833,8EA1498,12,21,MD,CHEV,Hillen Rd NB @ E Cold Spring L,030,Red Light Violation,75.00,07/23/2020 03:36:00 PM,75.00,,75.00,0.00,,,,,,,,
56541296,266Z55,03,22,MD,NISS,Wilkens Ave WB @ Caton Ave,030,Red Light Violation,75.00,07/23/2020 03:33:00 PM,75.00,,75.00,0.00,,,,,,,,
56543516,7DW2047,06,21,MD,HOND,E 33rd St WB @ Greenmount Ave,030,Red Light Violation,75.00,07/23/2020 03:30:00 PM,75.00,,75.00,0.00,,,,,,,,
56549398,8AR3884,04,22,MD,LEXU,S MLK Jr Blvd SB @ Washington,030,Red Light Violation,75.00,07/23/2020 03:27:00 PM,75.00,,75.00,0.00,,,,,,,,
56543482,7DG1702,07,22,MD,NISS,S Monroe St NB @ Washington Bl,030,Red Light Violation,75.00,07/23/2020 03:25:00 PM,75.00,,75.00,0.00,,,,,,,,
56543441,7DS1184,04,20,MD,HOND,Pulaski Hwy EB @ Moravia Park,030,Red Light Violation,75.00,07/23/2020 03:23:00 PM,75.00,,75.00,0.00,,,,,,,,
56541965,2EB6543,11,21,MD,LINC,E Madison St WB @ N Linwood Av,030,Red Light Violation,75.00,07/23/2020 03:17:00 PM,75.00,,75.00,0.00,,,,,,,,
56543128,39875CH,03,21,MD,NISS,W Lombard St WB @ S Charles St,030,Red Light Violation,75.00,07/23/2020 03:14:00 PM,75.00,,75.00,0.00,,,,,,,,
56541502,5DB5853,11,20,MD,HOND,E Madison St WB @ N Linwood Av,030,Red Light Violation,75.00,07/23/2020 03:05:00 PM,75.00,,75.00,0.00,,,,,,,,
56541486,1CF7033,12,21,MD,TOYT,S MLK Jr Blvd SB @ Washington,030,Red Light Violation,75.00,07/23/2020 03:02:00 PM,75.00,,75.00,0.00,,,,,,,,
56541445,5DZ2885,09,21,MD,TOYT,E Madison St WB @ N Linwood Av,030,Red Light Violation,75.00,07/23/2020 02:54:00 PM,75.00,,75.00,0.00,,,,,,,,
56541775,KNT1868,00,0,PA,HYUND,W Lombard St WB @ S Charles St,030,Red Light Violation,75.00,07/23/2020 02:52:00 PM,75.00,,75.00,0.00,,,,,,,,
56540140,230Z73,07,22,MD,CHEV,N President St SB @ E Fayette,030,Red Light Violation,75.00,07/23/2020 02:46:00 PM,75.00,,75.00,0.00,,,,,,,,
56540835,9DH5393,05,22,MD,NISS,S MLK Jr Blvd SB @ Washington,030,Red Light Violation,75.00,07/23/2020 02:40:00 PM,75.00,,75.00,0.00,,,,,,,,
56539704,9EF0163,07,20,MD,CHEV,Pennsylvania Ave SB @ Dolphin,030,Red Light Violation,75.00,07/23/2020 02:39:00 PM,75.00,,75.00,0.00,,,,,,,,
56542567,9DN7619,02,21,MD,NISS,E North Ave WB @ N Wolfe St,030,Red Light Violation,75.00,07/23/2020 02:38:00 PM,75.00,,75.00,0.00,,,,,,,,
56542021,4DR1446,03,21,MD,RAM,E Pratt St EB @ Light St,030,Red Light Violation,75.00,07/23/2020 02:31:00 PM,75.00,,75.00,0.00,,,,,,,,
56541403,5EG7658,08,20,MD,FORD,Frederick Ave WB @ S Beechfiel,030,Red Light Violation,75.00,07/23/2020 02:25:00 PM,75.00,,75.00,0.00,,,,,,,,
56540785,7AT9365,06,21,MD,NISS,Caton Ave SB @ Wilkens Ave,030,Red Light Violation,75.00,07/23/2020 02:23:00 PM,75.00,,75.00,0.00,,,,,,,,
56541981,7DS8686,03,21,MD,HYUN,E North Ave EB @ Harford Ave/R,030,Red Light Violation,75.00,07/23/2020 02:12:00 PM,75.00,,75.00,0.00,,,,,,,,
56541288,8DZ1205,10,21,MD,CHEV,N Calvert St NB @ E Baltimore,030,Red Light Violation,75.00,07/23/2020 02:07:00 PM,75.00,,75.00,0.00,,,,,,,,
56541247,3DH7864,03,22,MD,NISS,Pulaski Hwy EB @ Moravia Park,030,Red Light Violation,75.00,07/23/2020 01:59:00 PM,75.00,,75.00,0.00,,,,,,,,
56541262,4CT7993,01,21,MD,MERZ,Wilkens Ave WB @ Caton Ave,030,Red Light Violation,75.00,07/23/2020 01:59:00 PM,75.00,,75.00,0.00,,,,,,,,
56541213,7ED8510,04,21,MD,HOND,Caton Ave SB @ Wilkens Ave,030,Red Light Violation,75.00,07/23/2020 01:57:00 PM,75.00,,75.00,0.00,,,,,,,,
56541239,7CA5389,08,21,MD,HOND,S MLK Jr Blvd SB @ Washington,030,Red Light Violation,75.00,07/23/2020 01:57:00 PM,75.00,,75.00,0.00,,,,,,,,
56541197,2EB0580,11,21,MD,CADI,Pennsylvania Ave NB @ Dolphin,030,Red Light Violation,75.00,07/23/2020 01:54:00 PM,75.00,,75.00,0.00,,,,,,,,
56542054,A322740,05,22,MD,INFI,E Pratt St EB @ Light St,030,Red Light Violation,75.00,07/23/2020 01:52:00 PM,75.00,,75.00,0.00,,,,,,,,
56541858,7DP0256,12,20,MD,DODG,E Madison St WB @ N Linwood Av,030,Red Light Violation,75.00,07/23/2020 01:46:00 PM,75.00,,75.00,0.00,,,,,,,,
56541254,9DM4689,11,20,MD,ACUR,Wilkens Ave WB @ Caton Ave,030,Red Light Violation,75.00,07/23/2020 01:45:00 PM,75.00,,75.00,0.00,,,,,,,,
56540728,8DX7956,08,20,MD,ACUR,Aliceanna St EB @ S Wolfe St,030,Red Light Violation,75.00,07/23/2020 01:43:00 PM,75.00,,75.00,0.00,,,,,,,,
56540710,UGY4120,00,0,VA,HOND,Gwynns Falls Pkwy WB @ Reister,030,Red Light Violation,75.00,07/23/2020 01:41:00 PM,75.00,,75.00,0.00,,,,,,,,
56540660,6DY8002,11,21,MD,BMW,Pennsylvania Ave NB @ Dolphin,030,Red Light Violation,75.00,07/23/2020 01:38:00 PM,75.00,,75.00,0.00,,,,,,,,
56540652,7EE8399,06,20,MD,MERC,Sinclair Ln WB @ Moravia Rd,030,Red Light Violation,75.00,07/23/2020 01:36:00 PM,75.00,,75.00,0.00,,,,,,,,
56540926,3ED2894,05,20,MD,TOYT,S MLK Jr Blvd SB @ Washington,030,Red Light Violation,75.00,07/23/2020 01:33:00 PM,75.00,,75.00,0.00,,,,,,,,
56540637,9EE7390,05,21,MD,JEEP,Pulaski Hwy EB @ Moravia Park,030,Red Light Violation,75.00,07/23/2020 01:33:00 PM,75.00,,75.00,0.00,,,,,,,,
56540611,4DY2357,02,22,MD,VOLK,Reisterstown Rd NB @ W Cold Sp,030,Red Light Violation,75.00,07/23/2020 01:33:00 PM,75.00,,75.00,0.00,,,,,,,,
56540595,2ED0894,03,20,MD,HOND,Reisterstown Rd SB @ W Cold Sp,030,Red Light Violation,75.00,07/23/2020 01:32:00 PM,75.00,,75.00,0.00,,,,,,,,
56540587,6DH6015,05,20,MD,CHEV,Pulaski Hwy EB @ Moravia Park,030,Red Light Violation,75.00,07/23/2020 01:29:00 PM,75.00,,75.00,0.00,,,,,,,,
56540520,LWB690,08,21,MD,TOYT,Liberty Heights Ave WB @ W Nor,030,Red Light Violation,75.00,07/23/2020 01:26:00 PM,75.00,,75.00,0.00,,,,,,,,
56540546,16437CJ,08,20,MD,HOND,Pennsylvania Ave SB @ Dolphin,030,Red Light Violation,75.00,07/23/2020 01:26:00 PM,75.00,,75.00,0.00,,,,,,,,
56543094,6DY7094,10,21,MD,HOND,S MLK Jr Blvd SB @ Washington,030,Red Light Violation,75.00,07/23/2020 01:26:00 PM,75.00,,75.00,0.00,,,,,,,,
56539811,4DR1446,03,21,MD,RAM,E Pratt St EB @ Light St,030,Red Light Violation,75.00,07/23/2020 01:21:00 PM,75.00,,75.00,0.00,,,,,,,,
56539829,8BW5377,03,21,MD,TOYT,E North Ave WB @ N Howard St,030,Red Light Violation,75.00,07/23/2020 01:21:00 PM,75.00,,75.00,0.00,,,,,,,,
56543086,9DH9545,06,21,MD,BUIC,Pennsylvania Ave SB @ Dolphin,030,Red Light Violation,75.00,07/23/2020 01:18:00 PM,75.00,,75.00,0.00,,,,,,,,
56543078,35464HT,09,20,MD,CHRY,Liberty Heights Ave WB @ W Nor,030,Red Light Violation,75.00,07/23/2020 01:17:00 PM,75.00,,75.00,0.00,,,,,,,,
56541353,UMF9258,00,0,VA,AUDI,S MLK Jr Blvd SB @ W Pratt St,030,Red Light Violation,75.00,07/23/2020 01:16:00 PM,75.00,,75.00,0.00,,,,,,,,
56540843,6DS0238,05,21,MD,VOLV,Russell St NB @ Bush St,030,Red Light Violation,75.00,07/23/2020 01:01:00 PM,75.00,,75.00,0.00,,,,,,,,
56540629,4ED9183,01,22,MD,NISS,Pulaski Hwy EB @ Moravia Park,030,Red Light Violation,75.00,07/23/2020 12:56:00 PM,75.00,,75.00,0.00,,,,,,,,
56539688,6EE9868,06,22,MD,SUBA,Eastern Ave EB @ S Patterson P,030,Red Light Violation,75.00,07/23/2020 12:55:00 PM,75.00,,75.00,0.00,,,,,,,,
56540553,LVCF28,06,20,FL,NISS,Light St SB @ W Pratt St,030,Red Light Violation,75.00,07/23/2020 12:55:00 PM,75.00,,75.00,0.00,,,,,,,,
56540538,1EG0518,08,20,MD,JEEP,Pennsylvania Ave SB @ Dolphin,030,Red Light Violation,75.00,07/23/2020 12:50:00 PM,75.00,,75.00,0.00,,,,,,,,
56539944,6AY9802,03,21,MD,FORD,York Rd SB @ E Cold Spring Ln,030,Red Light Violation,75.00,07/23/2020 12:48:00 PM,75.00,,75.00,0.00,,,,,,,,
56539910,6DT1363,05,21,MD,ACUR,Pulaski Hwy EB @ Moravia Park,030,Red Light Violation,75.00,07/23/2020 12:47:00 PM,75.00,,75.00,0.00,,,,,,,,
56541148,BPC4516,00,0,TX,NISS,E Madison St WB @ St Paul St,030,Red Light Violation,75.00,07/23/2020 12:46:00 PM,75.00,,75.00,0.00,,,,,,,,
56542047,3EF0617,07,20,MD,TOYT,S Monroe St NB @ Washington Bl,030,Red Light Violation,75.00,07/23/2020 12:41:00 PM,75.00,,75.00,0.00,,,,,,,,
56541080,3BD3262,09,20,MD,FORD,N President St SB @ E Fayette,030,Red Light Violation,75.00,07/23/2020 12:39:00 PM,75.00,,75.00,0.00,,,,,,,,
56541072,8DR9334,03,21,MD,KIA,N Calvert St NB @ E Baltimore,030,Red Light Violation,75.00,07/23/2020 12:38:00 PM,75.00,,75.00,0.00,,,,,,,,
56541049,EMVR47,12,20,FL,CHEV,Hillen Rd SB @ E Cold Spring L,030,Red Light Violation,75.00,07/23/2020 12:36:00 PM,75.00,,75.00,0.00,,,,,,,,
56541023,A259629,09,21,MD,JEEP,Pulaski Hwy EB @ Moravia Park,030,Red Light Violation,75.00,07/23/2020 12:35:00 PM,75.00,,75.00,0.00,,,,,,,,
56540991,4DM9605,10,20,MD,RAM,Pulaski Hwy EB @ Moravia Park,030,Red Light Violation,75.00,07/23/2020 12:30:00 PM,75.00,,75.00,0.00,,,,,,,,
56541007,6EC4552,02,22,MD,MAZD,S MLK Jr Blvd SB @ Washington,030,Red Light Violation,75.00,07/23/2020 12:30:00 PM,75.00,,75.00,0.00,,,,,,,,
56541015,5DW5813,06,22,MD,FORD,Erdman Ave NB @ Federal St,030,Red Light Violation,75.00,07/23/2020 12:30:00 PM,75.00,,75.00,0.00,,,,,,,,
56540512,42451CJ,10,21,MD,HOND,Loch Raven Blvd SB @ E Belvede,030,Red Light Violation,75.00,07/23/2020 12:29:00 PM,75.00,,75.00,0.00,,,,,,,,
56540496,5DY3362,10,21,MD,TOYT,Harford Ave NB @ E North Ave,030,Red Light Violation,75.00,07/23/2020 12:27:00 PM,75.00,,75.00,0.00,,,,,,,,
56541106,6CDB86,09,20,MD,HOND,E North Ave WB @ N Wolfe St,030,Red Light Violation,75.00,07/23/2020 12:26:00 PM,75.00,,75.00,0.00,,,,,,,,
56539639,7EG4361,08,20,MD,FORD,E North Ave EB @ Harford Ave/R,030,Red Light Violation,75.00,07/23/2020 12:14:00 PM,75.00,,75.00,0.00,,,,,,,,
56540983,4BR2537,09,20,MD,MAZD,W Cold Spring Ln WB @ Reisters,030,Red Light Violation,75.00,07/23/2020 12:11:00 PM,75.00,,75.00,0.00,,,,,,,,
56539613,5EC4509,12,21,MD,MAZD,Pulaski Hwy EB @ Moravia Park,030,Red Light Violation,75.00,07/23/2020 12:10:00 PM,75.00,,75.00,0.00,,,,,,,,
56539894,67280CH,05,21,MD,ACUR,E Monument St EB @ N Broadway,030,Red Light Violation,75.00,07/23/2020 12:09:00 PM,75.00,,75.00,0.00,,,,,,,,
56540884,5DF7829,02,20,MD,CHEV,E Monument St EB @ N Broadway,030,Red Light Violation,75.00,07/23/2020 12:03:00 PM,75.00,,75.00,0.00,,,,,,,,
56539555,ZHD2946,00,0,PA,CHEV,Belair Rd SB @ Erdman Ave,030,Red Light Violation,75.00,07/23/2020 11:59:00 AM,75.00,,75.00,0.00,,,,,,,,
56539837,3BN2586,09,21,MD,FORD,Caton Ave SB @ Wilkens Ave,030,Red Light Violation,75.00,07/23/2020 11:52:00 AM,75.00,,75.00,0.00,,,,,,,,
56539522,8EF0439,05,22,MD,TOYT,Belair Rd SB @ Erdman Ave,030,Red Light Violation,75.00,07/23/2020 11:51:00 AM,75.00,,75.00,0.00,,,,,,,,
56539852,2EC7220,02,20,MD,JEEP,N Calvert St NB @ E Baltimore,030,Red Light Violation,75.00,07/23/2020 11:42:00 AM,75.00,,75.00,0.00,,,,,,,,
56539738,3DL3155,11,20,MD,MERZ,S MLK Jr Blvd SB @ Washington,030,Red Light Violation,75.00,07/23/2020 11:40:00 AM,75.00,,75.00,0.00,,,,,,,,
56540082,5CZ7372,07,21,MD,GMC,Reisterstown Rd SB @ W Cold Sp,030,Red Light Violation,75.00,07/23/2020 11:38:00 AM,75.00,,75.00,0.00,,,,,,,,
56541429,9DJ5412,07,20,MD,HOND,E Madison St WB @ N Linwood Av,030,Red Light Violation,75.00,07/23/2020 11:36:00 AM,75.00,,75.00,0.00,,,,,,,,
56540058,URA6530,00,0,VA,BUIC,N Paca St NB @ W Fayette St,030,Red Light Violation,75.00,07/23/2020 11:34:00 AM,75.00,,75.00,0.00,,,,,,,,
56539506,8DX2993,07,21,MD,FORD,Pulaski Hwy EB @ N North Point,030,Red Light Violation,75.00,07/23/2020 11:23:00 AM,75.00,,75.00,0.00,,,,,,,,
56539480,9DW7486,08,20,MD,HOND,Reisterstown Rd SB @ W Cold Sp,030,Red Light Violation,75.00,07/23/2020 11:22:00 AM,75.00,,75.00,0.00,,,,,,,,
56539787,8DS1367,03,21,MD,NISS,S MLK Jr Blvd SB @ Washington,030,Red Light Violation,75.00,07/23/2020 11:22:00 AM,75.00,,75.00,0.00,,,,,,,,
56540439,UMJ8221,00,0,VA,NISS,Loch Raven Blvd SB @ E Belvede,030,Red Light Violation,75.00,07/23/2020 11:13:00 AM,75.00,,75.00,0.00,,,,,,,,
56540405,5CF8873,02,22,MD,VOLV,W Lombard St WB @ S Charles St,030,Red Light Violation,75.00,07/23/2020 11:08:00 AM,75.00,,75.00,0.00,,,,,,,,
56540397,3DG4848,05,22,MD,TOYT,Loch Raven Blvd SB @ E Belvede,030,Red Light Violation,75.00,07/23/2020 11:08:00 AM,75.00,,75.00,0.00,,,,,,,,
56540389,4CZ2028,07,21,MD,CHEV,Pulaski Hwy EB @ Moravia Park,030,Red Light Violation,75.00,07/23/2020 11:07:00 AM,75.00,,75.00,0.00,,,,,,,,
56540371,1CV1211,03,21,MD,ACUR,E North Ave EB @ Harford Ave/R,030,Red Light Violation,75.00,07/23/2020 11:07:00 AM,75.00,,75.00,0.00,,,,,,,,
56540355,4DS1613,04,21,MD,TOYT,Caton Ave NB @ Wilkens Ave,030,Red Light Violation,75.00,07/23/2020 11:02:00 AM,75.00,,75.00,0.00,,,,,,,,
56539167,9DA1998,07,21,MD,NISS,The Alameda NB @ Argonne,030,Red Light Violation,75.00,07/23/2020 11:01:00 AM,75.00,,75.00,0.00,,,,,,,,
56539597,MDB121,00,0,TX,VOLK,York Rd NB @ E Cold Spring Ln,030,Red Light Violation,75.00,07/23/2020 11:00:00 AM,75.00,,75.00,0.00,,,,,,,,
56539498,7DN0132,11,20,MD,TOYT,Caton Ave NB @ Wilkens Ave,030,Red Light Violation,75.00,07/23/2020 10:58:00 AM,75.00,,75.00,0.00,,,,,,,,
56539118,9DR2749,03,21,MD,MERZ,S Monroe St SB @ Washington Bl,030,Red Light Violation,75.00,07/23/2020 10:56:00 AM,75.00,,75.00,0.00,,,,,,,,
56540645,7DG8961,06,21,MD,HYUN,Pennsylvania Ave SB @ Dolphin,030,Red Light Violation,75.00,07/23/2020 10:51:00 AM,75.00,,75.00,0.00,,,,,,,,
56539076,6DJ1059,07,22,MD,FORD,Liberty Heights Ave WB @ W Nor,030,Red Light Violation,75.00,07/23/2020 10:51:00 AM,75.00,,75.00,0.00,,,,,,,,
56540330,KZX5577,00,0,PA,TOYOT,W Cold Spring Lane EB @ Falls,030,Red Light Violation,75.00,07/23/2020 10:41:00 AM,75.00,,75.00,0.00,,,,,,,,
56539464,SG29718,12,99,MD,DODG,S MLK Jr Blvd SB @ Washington,030,Red Light Violation,75.00,07/23/2020 10:39:00 AM,75.00,,75.00,0.00,,,,,,,,
56539456,1539Z5,03,21,MD,OLDS,S MLK Jr Blvd SB @ Washington,030,Red Light Violation,75.00,07/23/2020 10:37:00 AM,75.00,,75.00,0.00,,,,,,,,
56539761,294Z25,02,22,MD,CHEV,York Rd SB @ E Cold Spring Ln,030,Red Light Violation,75.00,07/23/2020 10:34:00 AM,75.00,,75.00,0.00,,,,,,,,
56541338,6DP6165,02,22,MD,TOYT,Wilkens Ave WB @ Caton Ave,030,Red Light Violation,75.00,07/23/2020 10:34:00 AM,75.00,,75.00,0.00,,,,,,,,
56539654,DZ2824,02,18,DC,FORD,York Rd NB @ E Cold Spring Ln,030,Red Light Violation,75.00,07/23/2020 10:33:00 AM,75.00,,75.00,0.00,,,,,,,,
56539647,8CC0259,10,21,MD,TOYT,Wilkens Ave WB @ Caton Ave,030,Red Light Violation,75.00,07/23/2020 10:31:00 AM,75.00,,75.00,0.00,,,,,,,,
56540173,UPG2666,00,0,VA,HOND,York Rd NB @ E Cold Spring Ln,030,Red Light Violation,75.00,07/23/2020 10:31:00 AM,75.00,,75.00,0.00,,,,,,,,
56540025,UKB7817,00,0,VA,FORD,York Rd SB @ E Cold Spring Ln,030,Red Light Violation,75.00,07/23/2020 10:21:00 AM,75.00,,75.00,0.00,,,,,,,,
56539324,7DS0046,04,21,MD,NISS,E Northern Pkwy WB @ N Charles,030,Red Light Violation,75.00,07/23/2020 10:17:00 AM,75.00,,75.00,0.00,,,,,,,,
56539001,72425CJ,07,20,MD,INFI,S MLK Jr Blvd SB @ Washington,030,Red Light Violation,75.00,07/23/2020 10:12:00 AM,75.00,,75.00,0.00,,,,,,,,
56538227,SPICEYY,03,22,MD,CHEV,N Paca St NB @ W Fayette St,030,Red Light Violation,75.00,07/23/2020 10:02:00 AM,75.00,,75.00,0.00,,,,,,,,
56538532,2DP5483,02,21,MD,MERC,Dundalk Ave NB @ O'Donnell St,030,Red Light Violation,75.00,07/23/2020 10:02:00 AM,75.00,,75.00,0.00,,,,,,,,
56538961,2EB3734,06,21,MD,AUDI,Pennsylvania Ave SB @ Dolphin,030,Red Light Violation,75.00,07/23/2020 09:59:00 AM,75.00,,75.00,0.00,,,,,,,,
56538201,51016CE,09,20,MD,KIA,N President St SB @ E Fayette,030,Red Light Violation,75.00,07/23/2020 09:51:00 AM,75.00,,75.00,0.00,,,,,,,,
56538904,6EG1124,08,20,MD,CHEV,Dundalk Ave SB @ O'Donnell St,030,Red Light Violation,75.00,07/23/2020 09:47:00 AM,75.00,,75.00,0.00,,,,,,,,
56538433,9AY4372,02,21,MD,BMW,Aliceanna St WB @ S Wolfe St,030,Red Light Violation,75.00,07/23/2020 09:40:00 AM,75.00,,75.00,0.00,,,,,,,,
56538805,4EF3197,06,22,MD,LIN,E 33rd St EB @ Loch Raven Blvd,030,Red Light Violation,75.00,07/23/2020 09:39:00 AM,75.00,,75.00,0.00,,,,,,,,
56540116,7EF4280,06,22,MD,ACUR,Sinclair Ln EB @ Moravia Rd,030,Red Light Violation,75.00,07/23/2020 09:36:00 AM,75.00,,75.00,0.00,,,,,,,,
56539209,GF0823,12,21,DC,HYUN,W Lombard St WB @ S Charles St,030,Red Light Violation,75.00,07/23/2020 09:36:00 AM,75.00,,75.00,0.00,,,,,,,,
56540108,2FHG83,08,21,MD,HOND,Loch Raven Blvd NB @ E Belvede,030,Red Light Violation,75.00,07/23/2020 09:34:00 AM,75.00,,75.00,0.00,,,,,,,,
56539159,4AL7656,11,21,MD,AUDI,W Northern Pkwy EB @ N Charles,030,Red Light Violation,75.00,07/23/2020 09:33:00 AM,75.00,,75.00,0.00,,,,,,,,
56540090,9EC2754,05,20,MD,FORD,Gwynns Falls Pkwy WB @ Reister,030,Red Light Violation,75.00,07/23/2020 09:31:00 AM,75.00,,75.00,0.00,,,,,,,,
56540322,7DJ9463,07,20,MD,DODG,E North Ave WB @ N Howard St,030,Red Light Violation,75.00,07/23/2020 09:26:00 AM,75.00,,75.00,0.00,,,,,,,,
56540314,6EE0305,05,22,MD,TOYT,S MLK Jr Blvd SB @ Washington,030,Red Light Violation,75.00,07/23/2020 09:25:00 AM,75.00,,75.00,0.00,,,,,,,,
56540306,6EC4604,03,22,MD,MAZD,Gwynns Falls Pkwy EB @ Reister,030,Red Light Violation,75.00,07/23/2020 09:23:00 AM,75.00,,75.00,0.00,,,,,,,,
56540264,9DK8093,09,20,MD,INFI,S MLK Jr Blvd SB @ Washington,030,Red Light Violation,75.00,07/23/2020 09:20:00 AM,75.00,,75.00,0.00,,,,,,,,
56538698,107Z88,06,21,MD,CHEV,Dundalk Ave SB @ O'Donnell St,030,Red Light Violation,75.00,07/23/2020 09:19:00 AM,75.00,,75.00,0.00,,,,,,,,
56540231,6AL7866,10,20,MD,FORD,Dundalk Ave SB @ O'Donnell St,030,Red Light Violation,75.00,07/23/2020 09:19:00 AM,75.00,,75.00,0.00,,,,,,,,
56538185,9EE5980,04,22,MD,CHRY,W Cold Spring Ln WB @ Reisters,030,Red Light Violation,75.00,07/23/2020 09:14:00 AM,75.00,,75.00,0.00,,,,,,,,
56540215,UKL2211,00,0,VA,HOND,N Paca St NB @ W Fayette St,030,Red Light Violation,75.00,07/23/2020 09:10:00 AM,75.00,,75.00,0.00,,,,,,,,
56540207,9DL2609,01,21,MD,NISS,Pulaski Hwy EB @ N North Point,030,Red Light Violation,75.00,07/23/2020 09:07:00 AM,75.00,,75.00,0.00,,,,,,,,
56540199,90360CH,07,21,MD,GMC,N Fulton Ave NB @ W North Ave,030,Red Light Violation,75.00,07/23/2020 09:05:00 AM,75.00,,75.00,0.00,,,,,,,,
56540066,ULZ9896,00,0,VA,MAZD,Caton Ave NB @ Wilkens Ave,030,Red Light Violation,75.00,07/23/2020 09:00:00 AM,75.00,,75.00,0.00,,,,,,,,
56539134,4DL1613,08,21,MD,TOYT,N Paca St NB @ W Fayette St,030,Red Light Violation,75.00,07/23/2020 08:57:00 AM,75.00,,75.00,0.00,,,,,,,,
56539779,19120CE,02,22,MD,KIA,E Pratt St EB @ Light St,030,Red Light Violation,75.00,07/23/2020 08:54:00 AM,75.00,,75.00,0.00,,,,,,,,
56539043,2EE6662,04,22,MD,HOND,E Monument St EB @ N Broadway,030,Red Light Violation,75.00,07/23/2020 08:51:00 AM,75.00,,75.00,0.00,,,,,,,,
56538953,9CM1302,08,20,MD,HINO,Light St SB @ W Pratt St,030,Red Light Violation,75.00,07/23/2020 08:51:00 AM,75.00,,75.00,0.00,,,,,,,,
56538458,72490HD,05,21,MD,NISS,Dundalk Ave SB @ O'Donnell St,030,Red Light Violation,75.00,07/23/2020 08:43:00 AM,75.00,,75.00,0.00,,,,,,,,
56538854,MSSEXXI,01,21,DC,TOYT,W Lombard St WB @ S Charles St,030,Red Light Violation,75.00,07/23/2020 08:37:00 AM,75.00,,75.00,0.00,,,,,,,,
56538813,8EA4172,03,20,MD,HOND,N Fulton Ave NB @ W North Ave,030,Red Light Violation,75.00,07/23/2020 08:34:00 AM,75.00,,75.00,0.00,,,,,,,,
56538755,1DS1145,02,22,MD,FORD,S MLK Jr Blvd SB @ Washington,030,Red Light Violation,75.00,07/23/2020 08:27:00 AM,75.00,,75.00,0.00,,,,,,,,
56539126,2EA9664,08,21,MD,HOND,S MLK Jr Blvd SB @ Washington,030,Red Light Violation,75.00,07/23/2020 08:15:00 AM,75.00,,75.00,0.00,,,,,,,,
56538862,4EE0667,06,20,MD,MERZ,Pulaski Hwy EB @ Moravia Park,030,Red Light Violation,75.00,07/23/2020 08:10:00 AM,75.00,,75.00,0.00,,,,,,,,
56539019,7DY0675,04,20,MD,FORD,N Calvert St NB @ E Baltimore,030,Red Light Violation,75.00,07/23/2020 08:04:00 AM,75.00,,75.00,0.00,,,,,,,,
56538110,7DT4940,06,21,MD,INFI,E Northern Pkwy WB @ N Charles,030,Red Light Violation,75.00,07/23/2020 07:58:00 AM,75.00,,75.00,0.00,,,,,,,,
56538474,7DF9048,05,22,MD,HYUN,Gwynns Falls Pkwy WB @ Reister,030,Red Light Violation,75.00,07/23/2020 07:49:00 AM,75.00,,75.00,0.00,,,,,,,,
56538342,3EC1946,03,20,MD,NISS,Reisterstown Rd SB @ Patterson,030,Red Light Violation,75.00,07/23/2020 07:47:00 AM,75.00,,75.00,0.00,,,,,,,,
56538144,CNJ1546,00,0,AZ,NISSA,N Paca St NB @ W Fayette St,030,Red Light Violation,75.00,07/23/2020 07:45:00 AM,75.00,,75.00,0.00,,,,,,,,
56541361,1DS1751,04,21,MD,TOYT,E Fayette St WB @ N President,030,Red Light Violation,75.00,07/23/2020 07:42:00 AM,75.00,,75.00,0.00,,,,,,,,
56538573,6EG1127,08,20,MD,PONT,Pulaski Hwy EB @ Moravia Park,030,Red Light Violation,75.00,07/23/2020 07:42:00 AM,75.00,,75.00,0.00,,,,,,,,
56539274,7DX2578,07,21,MD,CHEV,N Calvert St NB @ E Baltimore,030,Red Light Violation,75.00,07/23/2020 07:40:00 AM,75.00,,75.00,0.00,,,,,,,,
56539100,A306124,10,20,MD,JEEP,Park Heights Ave NB @ W Belved,030,Red Light Violation,75.00,07/23/2020 07:34:00 AM,75.00,,75.00,0.00,,,,,,,,
56538409,UHJ1621,00,0,VA,HOND,E Cold Spring Ln WB @ York Rd,030,Red Light Violation,75.00,07/23/2020 07:26:00 AM,75.00,,75.00,0.00,,,,,,,,
56537880,3BT0269,02,21,MD,MAZD,N President St SB @ E Fayette,030,Red Light Violation,75.00,07/23/2020 07:13:00 AM,75.00,,75.00,0.00,,,,,,,,
56538367,2EF2684,07,20,MD,CHEV,Reisterstown Rd SB @ W Cold Sp,030,Red Light Violation,75.00,07/23/2020 07:06:00 AM,75.00,,75.00,0.00,,,,,,,,
56539175,8BN3572,07,22,MD,TOYT,S MLK Jr Blvd SB @ Washington,030,Red Light Violation,75.00,07/23/2020 07:02:00 AM,75.00,,75.00,0.00,,,,,,,,
56538086,3CX6532,06,21,MD,LINC,Erdman Ave NB @ Federal St,030,Red Light Violation,75.00,07/23/2020 06:58:00 AM,75.00,,75.00,0.00,,,,,,,,
56539415,6DT1253,05,20,MD,HYUN,E Madison St WB @ N Broadway,030,Red Light Violation,75.00,07/23/2020 06:52:00 AM,75.00,,75.00,0.00,,,,,,,,
56538235,46475HT,05,21,MD,NISS,N Fulton Ave NB @ W North Ave,030,Red Light Violation,75.00,07/23/2020 06:51:00 AM,75.00,,75.00,0.00,,,,,,,,
56538011,4CT1114,01,21,MD,SUBA,S MLK Jr Blvd SB @ Washington,030,Red Light Violation,75.00,07/23/2020 06:47:00 AM,75.00,,75.00,0.00,,,,,,,,
56537732,1EC6419,12,21,MD,CHEV,W Lombard St WB @ S Charles St,030,Red Light Violation,75.00,07/23/2020 06:46:00 AM,75.00,,75.00,0.00,,,,,,,,
56537955,5DN2050,11,20,MD,AUDI,E 33rd St WB @ Greenmount Ave,030,Red Light Violation,75.00,07/23/2020 06:44:00 AM,75.00,,75.00,0.00,,,,,,,,
56537690,T93KAA,00,0,NJ,MAZDA,N President St SB @ E Fayette,030,Red Light Violation,75.00,07/23/2020 06:42:00 AM,75.00,,75.00,0.00,,,,,,,,
56537971,29496M8,09,20,MD,CHEV,E Monument St EB @ N Broadway,030,Red Light Violation,75.00,07/23/2020 06:41:00 AM,75.00,,75.00,0.00,,,,,,,,
56537716,ZKA2651,00,0,PA,CHEV,N President St SB @ E Fayette,030,Red Light Violation,75.00,07/23/2020 06:35:00 AM,75.00,,75.00,0.00,,,,,,,,
56537740,FL2302,05,21,MD,HOND,Caton Ave SB @ Wilkens Ave,030,Red Light Violation,75.00,07/23/2020 06:35:00 AM,75.00,,75.00,0.00,,,,,,,,
56538045,5EE0404,03,22,MD,CHEV,Gwynns Falls Pkwy WB @ Reister,030,Red Light Violation,75.00,07/23/2020 06:27:00 AM,75.00,,75.00,0.00,,,,,,,,
56537781,LCB689,01,21,MD,HOND,W Lombard St WB @ S Charles St,030,Red Light Violation,75.00,07/23/2020 06:25:00 AM,75.00,,75.00,0.00,,,,,,,,
56537633,2CA8136,07,21,MD,FORD,N Paca St NB @ W Fayette St,030,Red Light Violation,75.00,07/23/2020 05:52:00 AM,75.00,,75.00,0.00,,,,,,,,
56539258,4EC9656,02,20,MD,DODG,S MLK Jr Blvd NB @ W Pratt St,030,Red Light Violation,75.00,07/23/2020 05:51:00 AM,75.00,,75.00,0.00,,,,,,,,
56538102,2EG0163,08,20,MD,FORD,Reisterstown Rd SB @ Patterson,030,Red Light Violation,75.00,07/23/2020 05:40:00 AM,75.00,,75.00,0.00,,,,,,,,
56538326,FN4184,11,21,DC,FORD,Russell St NB @ Bush St,030,Red Light Violation,75.00,07/23/2020 05:36:00 AM,75.00,,75.00,0.00,,,,,,,,
56539225,UGZ1884,00,0,VA,FORD,Dundalk Ave NB @ O'Donnell St,030,Red Light Violation,75.00,07/23/2020 05:15:00 AM,75.00,,75.00,0.00,,,,,,,,
56537575,9DR2168,03,21,MD,BMW,Loch Raven Blvd SB @ E Belvede,030,Red Light Violation,75.00,07/23/2020 05:13:00 AM,75.00,,75.00,0.00,,,,,,,,
56539530,A356147,08,20,MD,HOND,E North Ave WB @ Harford Rd,030,Red Light Violation,75.00,07/23/2020 03:21:00 AM,75.00,,75.00,0.00,,,,,,,,
56539332,U35LKP,00,0,NJ,VOLKS,E North Ave EB @ Harford Ave/R,030,Red Light Violation,75.00,07/23/2020 02:44:00 AM,75.00,,75.00,0.00,,,,,,,,
56538680,7CD3723,11,21,MD,NISS,E Cold Spring Ln EB @ York Rd,030,Red Light Violation,75.00,07/23/2020 02:43:00 AM,75.00,,75.00,0.00,,,,,,,,
56539357,4EF8922,07,20,MD,FORD,Reisterstown Rd NB @ W Cold Sp,030,Red Light Violation,75.00,07/23/2020 02:28:00 AM,75.00,,75.00,0.00,,,,,,,,
56538656,1EE4041,02,22,MD,INFI,E Madison St WB @ St Paul St,030,Red Light Violation,75.00,07/23/2020 02:18:00 AM,75.00,,75.00,0.00,,,,,,,,
56537989,9DB5660,12,21,MD,VOLK,W Lombard St WB @ S Charles St,030,Red Light Violation,75.00,07/23/2020 02:14:00 AM,75.00,,75.00,0.00,,,,,,,,
56538722,9EF4492,06,21,MD,HYUN,Dundalk Ave SB @ O'Donnell St,030,Red Light Violation,75.00,07/23/2020 02:03:00 AM,75.00,,75.00,0.00,,,,,,,,
56538771,UHJ6148,00,0,VA,HOND,E North Ave WB @ N Howard St,030,Red Light Violation,75.00,07/23/2020 01:57:00 AM,75.00,,75.00,0.00,,,,,,,,
56538763,8EE0043,05,22,MD,HOND,Reisterstown Rd SB @ Patterson,030,Red Light Violation,75.00,07/23/2020 01:55:00 AM,75.00,,75.00,0.00,,,,,,,,
56539548,BC2749,12,99,MD,CHEV,Park Heights Ave SB @ W Belved,030,Red Light Violation,75.00,07/23/2020 01:14:00 AM,75.00,,75.00,0.00,,,,,,,,
56537682,UNR2061,00,0,VA,HOND,E Pratt St EB @ Light St,030,Red Light Violation,75.00,07/23/2020 01:06:00 AM,75.00,,75.00,0.00,,,,,,,,
56537807,4EB9607,01,22,MD,MERZ,Dundalk Ave NB @ O'Donnell St,030,Red Light Violation,75.00,07/23/2020 12:56:00 AM,75.00,,75.00,0.00,,,,,,,,
56550644,4EE0506,05,21,MD,BMW,N President St NB @ E Fayette,030,Red Light Violation,75.00,07/23/2020 12:46:00 AM,75.00,,75.00,0.00,,,,,,,,
56537898,9DZ0550,10,21,MD,CHEV,Russell St SB @ Bayard St,030,Red Light Violation,75.00,07/23/2020 12:08:00 AM,75.00,,75.00,0.00,,,,,,,,
56538037,7DE8168,04,21,MD,CHEV,Pulaski Hwy EB @ Moravia Park,030,Red Light Violation,75.00,07/22/2020 11:22:00 PM,75.00,,75.00,0.00,,,,,,,,
56538631,4DY3659,01,21,MD,ACUR,N Calvert St NB @ E Baltimore,030,Red Light Violation,75.00,07/22/2020 10:57:00 PM,75.00,,75.00,0.00,,,,,,,,
56538623,06672C,06,21,MD,RAM,Pulaski Hwy EB @ Moravia Park,030,Red Light Violation,75.00,07/22/2020 10:55:00 PM,75.00,,75.00,0.00,,,,,,,,
56537963,4DX1456,06,21,MD,SUBA,S Monroe St NB @ Washington Bl,030,Red Light Violation,75.00,07/22/2020 10:37:00 PM,75.00,,75.00,0.00,,,,,,,,
56537724,386646T,09,20,MD,HYUN,E Madison St WB @ N Linwood Av,030,Red Light Violation,75.00,07/22/2020 10:32:00 PM,75.00,,75.00,0.00,,,,,,,,
56538292,18084TT,08,20,MD,FORD,Windsor Mill Rd EB @ N Forest,030,Red Light Violation,75.00,07/22/2020 10:28:00 PM,75.00,,75.00,0.00,,,,,,,,
56537864,A339459,08,20,MD,ACUR,E Monument St EB @ N Broadway,030,Red Light Violation,75.00,07/22/2020 10:23:00 PM,75.00,,75.00,0.00,,,,,,,,
56538581,A356117,08,20,MD,HOND,Light St SB @ W Pratt St,030,Red Light Violation,75.00,07/22/2020 10:10:00 PM,75.00,,75.00,0.00,,,,,,,,
56538524,6EF7402,06,20,MD,CHRY,Windsor Mill Rd WB @ N Forest,030,Red Light Violation,75.00,07/22/2020 09:54:00 PM,75.00,,75.00,0.00,,,,,,,,
56538508,1CX2406,05,21,MD,CHEV,Dundalk Ave NB @ O'Donnell St,030,Red Light Violation,75.00,07/22/2020 09:53:00 PM,75.00,,75.00,0.00,,,,,,,,
56538482,2CX8728,05,21,MD,MERZ,Light St SB @ W Pratt St,030,Red Light Violation,75.00,07/22/2020 09:47:00 PM,75.00,,75.00,0.00,,,,,,,,
56538136,7DZ9915,08,20,MD,NISS,E North Ave WB @ N Howard St,030,Red Light Violation,75.00,07/22/2020 09:32:00 PM,75.00,,75.00,0.00,,,,,,,,
56537435,3EC5592,01,22,MD,HOND,N Calvert St NB @ E Baltimore,030,Red Light Violation,75.00,07/22/2020 09:32:00 PM,75.00,,75.00,0.00,,,,,,,,
56535868,6DG4182,05,21,MD,NISS,E 33rd St WB @ Greenmount Ave,030,Red Light Violation,75.00,07/22/2020 09:25:00 PM,75.00,,75.00,0.00,,,,,,,,
56537922,2EG1547,07,22,MD,FORD,N Fulton Ave NB @ W North Ave,030,Red Light Violation,75.00,07/22/2020 09:19:00 PM,75.00,,75.00,0.00,,,,,,,,
56535843,17749M5,05,21,MD,HYUN,Dundalk Ave NB @ O'Donnell St,030,Red Light Violation,75.00,07/22/2020 09:15:00 PM,75.00,,75.00,0.00,,,,,,,,
56537377,1CT2997,01,20,MD,TOYT,N Calvert St NB @ E Baltimore,030,Red Light Violation,75.00,07/22/2020 09:12:00 PM,75.00,,75.00,0.00,,,,,,,,
56537351,8EE9859,06,22,MD,NISS,E Belvedere Ave EB @ Hillen Rd,030,Red Light Violation,75.00,07/22/2020 09:08:00 PM,75.00,,75.00,0.00,,,,,,,,
56537948,9DJ0610,06,19,MD,HOND,E Belvedere Ave EB @ Hillen Rd,030,Red Light Violation,75.00,07/22/2020 09:00:00 PM,75.00,,75.00,0.00,,,,,,,,
56537286,9DC8017,12,20,MD,HOND,Liberty Heights Ave WB @ W Nor,030,Red Light Violation,75.00,07/22/2020 08:50:00 PM,75.00,,75.00,0.00,,,,,,,,
56537252,6EB1166,10,21,MD,PONT,Dundalk Ave SB @ O'Donnell St,030,Red Light Violation,75.00,07/22/2020 08:47:00 PM,75.00,,75.00,0.00,,,,,,,,
56537237,7DJ5430,06,21,MD,CHEV,Frederick Ave WB @ S Beechfiel,030,Red Light Violation,75.00,07/22/2020 08:45:00 PM,75.00,,75.00,0.00,,,,,,,,
56537203,7EE0867,03,22,MD,TOYT,E 33rd St WB @ Greenmount Ave,030,Red Light Violation,75.00,07/22/2020 08:37:00 PM,75.00,,75.00,0.00,,,,,,,,
56535280,ULZ1027,00,0,VA,SUBA,W Lombard St WB @ S Charles St,030,Red Light Violation,75.00,07/22/2020 08:28:00 PM,75.00,,75.00,0.00,,,,,,,,
56537112,JUAREZ8,06,21,MD,TOYT,E Pratt St EB @ Light St,030,Red Light Violation,75.00,07/22/2020 08:24:00 PM,75.00,,75.00,0.00,,,,,,,,
56537070,5EF7157,06,20,MD,NISS,E North Ave WB @ Harford Rd,030,Red Light Violation,75.00,07/22/2020 08:19:00 PM,75.00,,75.00,0.00,,,,,,,,
56537823,228Z18,05,22,MD,HOND,Dundalk Ave NB @ O'Donnell St,030,Red Light Violation,75.00,07/22/2020 08:15:00 PM,75.00,,75.00,0.00,,,,,,,,
56535215,3BC3589,06,22,MD,PORS,Russell St NB @ Bush St,030,Red Light Violation,75.00,07/22/2020 08:15:00 PM,75.00,,75.00,0.00,,,,,,,,
56539423,8DR4542,03,22,MD,HOND,Erdman Ave WB @ N Macon St,030,Red Light Violation,75.00,07/22/2020 08:14:00 PM,75.00,,75.00,0.00,,,,,,,,
56537658,UMA9249,00,0,VA,MAZD,Pulaski Hwy EB @ Moravia Park,030,Red Light Violation,75.00,07/22/2020 07:57:00 PM,75.00,,75.00,0.00,,,,,,,,
56537484,5EA8945,11,21,MD,CHEV,E North Ave WB @ N Wolfe St,030,Red Light Violation,75.00,07/22/2020 07:47:00 PM,75.00,,75.00,0.00,,,,,,,,
56537914,2EG1515,07,20,MD,HOND,E Madison St WB @ N Linwood Av,030,Red Light Violation,75.00,07/22/2020 07:46:00 PM,75.00,,75.00,0.00,,,,,,,,
56535850,8DH5599,07,20,MD,CHEV,N Calvert St NB @ E Baltimore,030,Red Light Violation,75.00,07/22/2020 07:45:00 PM,75.00,,75.00,0.00,,,,,,,,
56537294,2DY5853,07,21,MD,DODG,E Northern Pkwy WB @ N Charles,030,Red Light Violation,75.00,07/22/2020 07:36:00 PM,75.00,,75.00,0.00,,,,,,,,
56537229,5EA0551,11,20,MD,ACUR,W Lombard St WB @ S Charles St,030,Red Light Violation,75.00,07/22/2020 07:36:00 PM,75.00,,75.00,0.00,,,,,,,,
56537195,KWES08,09,20,FL,CHEV,Light St SB @ W Pratt St,030,Red Light Violation,75.00,07/22/2020 07:32:00 PM,75.00,,75.00,0.00,,,,,,,,
56535835,A352075,09,21,MD,JEEP,N Calvert St NB @ E Baltimore,030,Red Light Violation,75.00,07/22/2020 07:22:00 PM,75.00,,75.00,0.00,,,,,,,,
56535827,3CB7655,07,22,MD,FORD,Liberty Heights Ave WB @ W Nor,030,Red Light Violation,75.00,07/22/2020 07:18:00 PM,75.00,,75.00,0.00,,,,,,,,
56535819,9DX1841,09,21,MD,HOND,Erdman Ave EB @ Belair Rd,030,Red Light Violation,75.00,07/22/2020 07:18:00 PM,75.00,,75.00,0.00,,,,,,,,
56535801,4DY3331,02,22,MD,KIA,W Pratt St EB @ S MLK Jr Blvd,030,Red Light Violation,75.00,07/22/2020 07:17:00 PM,75.00,,75.00,0.00,,,,,,,,
56537054,4DP3953,12,20,MD,HOND,Liberty Heights Ave WB @ W Nor,030,Red Light Violation,75.00,07/22/2020 07:09:00 PM,75.00,,75.00,0.00,,,,,,,,
56537450,7DT7942,06,21,MD,CHRY,S Monroe St SB @ Washington Bl,030,Red Light Violation,75.00,07/22/2020 07:06:00 PM,75.00,,75.00,0.00,,,,,,,,
56537328,9BZ6173,06,21,MD,TOYT,E North Ave WB @ Harford Rd,030,Red Light Violation,75.00,07/22/2020 06:55:00 PM,75.00,,75.00,0.00,,,,,,,,
56537344,3DT8366,04,21,MD,FORD,N President St SB @ E Fayette,030,Red Light Violation,75.00,07/22/2020 06:55:00 PM,75.00,,75.00,0.00,,,,,,,,
56538177,KYX5781,00,0,PA,NISSA,S Monroe St NB @ Washington Bl,030,Red Light Violation,75.00,07/22/2020 06:51:00 PM,75.00,,75.00,0.00,,,,,,,,
56537260,3DW8383,06,22,MD,MITS,The Alameda NB @ Argonne,030,Red Light Violation,75.00,07/22/2020 06:43:00 PM,75.00,,75.00,0.00,,,,,,,,
56537245,HZP6480,00,0,PA,VOLKS,N President St SB @ E Fayette,030,Red Light Violation,75.00,07/22/2020 06:39:00 PM,75.00,,75.00,0.00,,,,,,,,
56537161,4DT4088,05,22,MD,MITS,Erdman Ave EB @ Belair Rd,030,Red Light Violation,75.00,07/22/2020 06:23:00 PM,75.00,,75.00,0.00,,,,,,,,
56537153,A317426,01,20,MD,ACUR,Frederick Ave EB @ S Beechfiel,030,Red Light Violation,75.00,07/22/2020 06:18:00 PM,75.00,,75.00,0.00,,,,,,,,
56537138,33646M5,01,21,MD,FORD,N Fulton Ave NB @ W North Ave,030,Red Light Violation,75.00,07/22/2020 06:17:00 PM,75.00,,75.00,0.00,,,,,,,,
56535777,1EA2087,10,21,MD,NISS,E Cold Spring Ln EB @ York Rd,030,Red Light Violation,75.00,07/22/2020 06:16:00 PM,75.00,,75.00,0.00,,,,,,,,
56537104,6DW5192,06,21,MD,HOND,Russell St NB @ Bush St,030,Red Light Violation,75.00,07/22/2020 06:09:00 PM,75.00,,75.00,0.00,,,,,,,,
56537088,4DJ2189,06,21,MD,TOYT,W 41st St WB @ Falls Rd,030,Red Light Violation,75.00,07/22/2020 06:08:00 PM,75.00,,75.00,0.00,,,,,,,,
56535090,5EA9130,01,21,MD,MERC,Pulaski Hwy EB @ N North Point,030,Red Light Violation,75.00,07/22/2020 06:04:00 PM,75.00,,75.00,0.00,,,,,,,,
56537625,6AY6310,01,21,MD,HYUN,The Alameda NB @ Argonne,030,Red Light Violation,75.00,07/22/2020 05:41:00 PM,75.00,,75.00,0.00,,,,,,,,
56537583,7EG4339,07,22,MD,BMW,N Fulton Ave NB @ W North Ave,030,Red Light Violation,75.00,07/22/2020 05:38:00 PM,75.00,,75.00,0.00,,,,,,,,
56537559,5BP0487,09,20,MD,TOYT,N Calvert St NB @ E Baltimore,030,Red Light Violation,75.00,07/22/2020 05:33:00 PM,75.00,,75.00,0.00,,,,,,,,
56537526,1DN3752,10,20,MD,VOLK,Russell St NB @ Bush St,030,Red Light Violation,75.00,07/22/2020 05:33:00 PM,75.00,,75.00,0.00,,,,,,,,
56537906,6AB0005,07,22,MD,TOYT,Erdman Ave SB @ Federal St,030,Red Light Violation,75.00,07/22/2020 05:19:00 PM,75.00,,75.00,0.00,,,,,,,,
56537427,8EC5551,03,22,MD,AUDI,N Calvert St NB @ E Baltimore,030,Red Light Violation,75.00,07/22/2020 05:17:00 PM,75.00,,75.00,0.00,,,,,,,,
56537930,56GG86,06,22,MA,TOYT,E North Ave WB @ N Howard St,030,Red Light Violation,75.00,07/22/2020 05:14:00 PM,75.00,,75.00,0.00,,,,,,,,
56537187,6EE7973,06,22,MD,ISU,N President St SB @ E Fayette,030,Red Light Violation,75.00,07/22/2020 04:59:00 PM,75.00,,75.00,0.00,,,,,,,,
56535116,20220CJ,05,22,MD,NISS,S Monroe St SB @ Washington Bl,030,Red Light Violation,75.00,07/22/2020 04:55:00 PM,75.00,,75.00,0.00,,,,,,,,
56537039,8DP0027,03,21,MD,TOYT,N Fulton Ave NB @ W North Ave,030,Red Light Violation,75.00,07/22/2020 04:46:00 PM,75.00,,75.00,0.00,,,,,,,,
56537013,8DS8333,03,21,MD,TOYT,S Monroe St SB @ Washington Bl,030,Red Light Violation,75.00,07/22/2020 04:45:00 PM,75.00,,75.00,0.00,,,,,,,,
56535694,4EE3450,03,22,MD,TOYT,N Eutaw St NB @ W Saratoga St,030,Red Light Violation,75.00,07/22/2020 04:43:00 PM,75.00,,75.00,0.00,,,,,,,,
56536957,8DK4859,09,20,MD,FORD,N President St NB @ E Fayette,030,Red Light Violation,75.00,07/22/2020 04:42:00 PM,75.00,,75.00,0.00,,,,,,,,
56534911,4DH0607,05,21,MD,CHEV,Pulaski Hwy EB @ Moravia Park,030,Red Light Violation,75.00,07/22/2020 04:39:00 PM,75.00,,75.00,0.00,,,,,,,,
56536890,4DZ5918,12,21,MD,NISS,N Eutaw St NB @ W Saratoga St,030,Red Light Violation,75.00,07/22/2020 04:36:00 PM,75.00,,75.00,0.00,,,,,,,,
56536866,2DW5144,06,21,MD,FORD,S MLK Jr Blvd NB @ W Pratt St,030,Red Light Violation,75.00,07/22/2020 04:33:00 PM,75.00,,75.00,0.00,,,,,,,,
56536874,55801CJ,06,21,MD,HOND,Loch Raven Blvd SB @ E Belvede,030,Red Light Violation,75.00,07/22/2020 04:33:00 PM,75.00,,75.00,0.00,,,,,,,,
56535314,56556CF,03,22,MD,HOND,Russell St NB @ Bush St,030,Red Light Violation,75.00,07/22/2020 04:32:00 PM,75.00,,75.00,0.00,,,,,,,,
56534887,VXC6816,00,0,VA,BMW,Wilkens Ave EB @ Caton Ave,030,Red Light Violation,75.00,07/22/2020 04:32:00 PM,75.00,,75.00,0.00,,,,,,,,
56534861,3CJ9540,05,22,MD,HYUN,N Fulton Ave NB @ W North Ave,030,Red Light Violation,75.00,07/22/2020 04:30:00 PM,75.00,,75.00,0.00,,,,,,,,
56534853,A311913,06,22,MD,CHEV,Reisterstown Rd NB @ W Cold Sp,030,Red Light Violation,75.00,07/22/2020 04:29:00 PM,75.00,,75.00,0.00,,,,,,,,
56534846,3DP9024,01,21,MD,CHEV,Caton Ave NB @ Wilkens Ave,030,Red Light Violation,75.00,07/22/2020 04:28:00 PM,75.00,,75.00,0.00,,,,,,,,
56534820,9EF4124,06,22,MD,SATU,Harford Rd SB @ The Alameda,030,Red Light Violation,75.00,07/22/2020 04:26:00 PM,75.00,,75.00,0.00,,,,,,,,
56535298,UMB4518,00,0,VA,NISS,N Forest Park Ave SB @ Windsor,030,Red Light Violation,75.00,07/22/2020 04:24:00 PM,75.00,,75.00,0.00,,,,,,,,
56534812,9EB8811,12,21,MD,HYUN,Reisterstown Rd SB @ W Norther,030,Red Light Violation,75.00,07/22/2020 04:24:00 PM,75.00,,75.00,0.00,,,,,,,,
56535272,5EA0656,02,21,MD,HOND,N Calvert St NB @ E Baltimore,030,Red Light Violation,75.00,07/22/2020 04:20:00 PM,75.00,,75.00,0.00,,,,,,,,
56534788,2EF9926,06,22,MD,HYUN,Liberty Heights Ave WB @ W Nor,030,Red Light Violation,75.00,07/22/2020 04:20:00 PM,75.00,,75.00,0.00,,,,,,,,
56534762,57545CJ,06,22,MD,INFI,Gwynns Falls Pkwy WB @ Reister,030,Red Light Violation,75.00,07/22/2020 04:20:00 PM,75.00,,75.00,0.00,,,,,,,,
56535231,3DM1228,11,21,MD,GMC,Park Heights Ave SB @ W Belved,030,Red Light Violation,75.00,07/22/2020 04:17:00 PM,75.00,,75.00,0.00,,,,,,,,
56534747,JBY925,12,20,MD,CHEV,E Monument St EB @ N Broadway,030,Red Light Violation,75.00,07/22/2020 04:16:00 PM,75.00,,75.00,0.00,,,,,,,,
34344904,385511T,08,20,MD,MITS,3700 BLK FALLSTAFF RD EB,032,Fixed Speed Camera,40.00,07/22/2020 04:15:00 PM,40.00,,40.00,0.00,,,,,,,,
34344888,LHT6454,05,21,PA,CHEVR,5600 BLK MORAVIA RD SB,032,Fixed Speed Camera,40.00,07/22/2020 04:15:00 PM,40.00,,40.00,0.00,,,,,,,,
34344870,3DM1621,09,20,MD,ACUR,1300 BLK EAST NORTHERN PKWY WB,032,Fixed Speed Camera,40.00,07/22/2020 04:15:00 PM,40.00,,40.00,0.00,,,,,,,,
56534721,1CW6588,04,21,MD,BUIC,Pulaski Hwy EB @ N North Point,030,Red Light Violation,75.00,07/22/2020 04:15:00 PM,75.00,,75.00,0.00,,,,,,,,
34344896,7CJ5591,05,18,MD,HOND,1300 BLK EAST NORTHERN PKWY WB,032,Fixed Speed Camera,40.00,07/22/2020 04:15:00 PM,40.00,,40.00,0.00,,,,,,,,
34344847,2DZ3858,08,21,MD,TOYT,3600 BLK PARK HEIGHTS AVE SB,032,Fixed Speed Camera,40.00,07/22/2020 04:14:00 PM,40.00,,40.00,0.00,,,,,,,,
34344854,8CV7926,07,19,MD,NISS,2700 BLK GWYNNS FALLS PKY WB,032,Fixed Speed Camera,40.00,07/22/2020 04:14:00 PM,40.00,,40.00,0.00,,,,,,,,
34344862,7DF1493,02,20,MD,DODG,6100 BLK HARFORD RD NB,032,Fixed Speed Camera,40.00,07/22/2020 04:14:00 PM,40.00,,40.00,0.00,,,,,,,,
56534689,36339CJ,10,21,MD,MERZ,Eastern Ave WB @ S Patterson P,030,Red Light Violation,75.00,07/22/2020 04:13:00 PM,75.00,,75.00,0.00,,,,,,,,
34344839,257Z32,03,22,MD,BMW,4300 BLK ERDMAN AVE NB,032,Fixed Speed Camera,40.00,07/22/2020 04:13:00 PM,40.00,,40.00,0.00,,,,,,,,
34344813,4ED0695,05,22,MD,JEEP,1000 BLK E PRATT ST EB,032,Fixed Speed Camera,40.00,07/22/2020 04:12:00 PM,40.00,,40.00,0.00,,,,,,,,
34344797,9AT1648,08,21,MD,TOYT,100 BLK KANE ST SB,032,Fixed Speed Camera,40.00,07/22/2020 04:12:00 PM,40.00,,40.00,0.00,,,,,,,,
34344789,2DA6640,08,19,MD,CADI,1200 BLK SOUTH CATON AVE NB,032,Fixed Speed Camera,40.00,07/22/2020 04:12:00 PM,40.00,,40.00,0.00,,,,,,,,
34344821,FMN7662,12,20,NC,CHEVR,3000 BLK HILTON ST SB,032,Fixed Speed Camera,40.00,07/22/2020 04:12:00 PM,40.00,,40.00,0.00,,,,,,,,
34344805,7EE8494,06,20,MD,ACUR,3600 BLK PARK HEIGHTS AVE SB,032,Fixed Speed Camera,40.00,07/22/2020 04:12:00 PM,40.00,,40.00,0.00,,,,,,,,
56535017,826M487,07,22,MD,TOYT,Pulaski Hwy EB @ N North Point,030,Red Light Violation,75.00,07/22/2020 04:11:00 PM,75.00,,75.00,0.00,,,,,,,,
34344771,198XTW,06,18,WI,BMW,5900 BLK SMITH AVE SB,032,Fixed Speed Camera,40.00,07/22/2020 04:10:00 PM,40.00,,40.00,0.00,,,,,,,,
34344714,3DT4684,04,21,MD,HOND,2400 BLK BELAIR RD NB,032,Fixed Speed Camera,40.00,07/22/2020 04:09:00 PM,40.00,,40.00,0.00,,,,,,,,
34344755,UHF1425,06,21,VA,VW,3600 BLK PARK HEIGHTS AVE SB,032,Fixed Speed Camera,40.00,07/22/2020 04:09:00 PM,40.00,,40.00,0.00,,,,,,,,
34344730,2DX4732,09,21,MD,LEXS,5600 BLK MORAVIA RD SB,032,Fixed Speed Camera,40.00,07/22/2020 04:09:00 PM,40.00,,40.00,0.00,,,,,,,,
34344722,CKS3918,09,20,GA,Lexus,2700 BLK GWYNNS FALLS PKY WB,032,Fixed Speed Camera,40.00,07/22/2020 04:09:00 PM,40.00,,40.00,0.00,,,,,,,,
34344763,2DM2849,10,20,MD,CHEV,600 BLK W NORTHERN PKWY EB,032,Fixed Speed Camera,40.00,07/22/2020 04:09:00 PM,40.00,,40.00,0.00,,,,,,,,
34344748,1DW9167,06,21,MD,CHEV,3500 BLK PARKHEIGHTS AV NB,032,Fixed Speed Camera,40.00,07/22/2020 04:09:00 PM,40.00,,40.00,0.00,,,,,,,,
34344698,2DH9029,05,20,MD,DODG,1100 BLK WOODBOURNE AVE EB,032,Fixed Speed Camera,40.00,07/22/2020 04:08:00 PM,40.00,,40.00,0.00,,,,,,,,
34344706,6BG0470,12,17,MD,FORD,1200 BLK SOUTH CATON AVE NB,032,Fixed Speed Camera,40.00,07/22/2020 04:08:00 PM,40.00,,40.00,0.00,,,,,,,,
56535686,1DY9085,09,21,MD,LINC,S MLK Jr Blvd NB @ W Pratt St,030,Red Light Violation,75.00,07/22/2020 04:08:00 PM,75.00,,75.00,0.00,,,,,,,,
34344672,BC3316,00,0,MD,FORD,1500 BLK E COLD SPRING LN EB,032,Fixed Speed Camera,40.00,07/22/2020 04:07:00 PM,40.00,,40.00,0.00,,,,,,,,
34344680,7CT6741,02,19,MD,NISS,1300 BLK WEST COLD SPRING LN W,032,Fixed Speed Camera,40.00,07/22/2020 04:07:00 PM,40.00,,40.00,0.00,,,,,,,,
34344664,4EE6041,06,20,MD,NISS,3000 BLK FEDERAL ST W/B,032,Fixed Speed Camera,40.00,07/22/2020 04:06:00 PM,40.00,,40.00,0.00,,,,,,,,
34344656,2DX9328,05,21,MD,CHEV,4401 PENNINGTON AVE SB,032,Fixed Speed Camera,40.00,07/22/2020 04:06:00 PM,40.00,,40.00,0.00,,,,,,,,
34344649,7DS0000,03,21,MD,NISS,3000 BLK FEDERAL ST W/B,032,Fixed Speed Camera,40.00,07/22/2020 04:06:00 PM,40.00,,40.00,0.00,,,,,,,,
34344631,USD9737,06,20,VA,HOND,3000 BLK FEDERAL ST W/B,032,Fixed Speed Camera,40.00,07/22/2020 04:05:00 PM,40.00,,40.00,0.00,,,,,,,,
34344623,3CT9593,03,21,MD,FORD,220 EAST PATAPSCO AVE EB,032,Fixed Speed Camera,40.00,07/22/2020 04:05:00 PM,40.00,,40.00,0.00,,,,,,,,
34344615,4EA7771,10,21,MD,SCIO,3900 BLK THE ALAMEDA WB,032,Fixed Speed Camera,40.00,07/22/2020 04:04:00 PM,40.00,,40.00,0.00,,,,,,,,
34344599,3EF8263,06,21,MD,HOND,2500 BLK HILTON ST NB,032,Fixed Speed Camera,40.00,07/22/2020 04:04:00 PM,40.00,,40.00,0.00,,,,,,,,
34344607,47863M5,10,20,MD,FORD,100 BLK KANE ST SB,032,Fixed Speed Camera,40.00,07/22/2020 04:04:00 PM,40.00,,40.00,0.00,,,,,,,,
34344565,8BY9341,05,21,MD,BUIC,3400 AUCHENTOROLY TERRACE WB,032,Fixed Speed Camera,40.00,07/22/2020 04:03:00 PM,40.00,,40.00,0.00,,,,,,,,
34344573,6BY4618,04,21,MD,NISS,1000 BLK E PRATT ST EB,032,Fixed Speed Camera,40.00,07/22/2020 04:03:00 PM,40.00,,40.00,0.00,,,,,,,,
34344581,7BH7227,02,19,MD,FORD,2600 BLK DUKELAND STREET NB,032,Fixed Speed Camera,40.00,07/22/2020 04:03:00 PM,40.00,,40.00,0.00,,,,,,,,
34344557,9AB7757,11,17,MD,DODG,4400 BLK LIBERTY HEIGHTS AVE E,032,Fixed Speed Camera,40.00,07/22/2020 04:02:00 PM,40.00,,40.00,0.00,,,,,,,,
34344524,3DY9511,11,21,MD,TOYT,3000 BLK HILTON ST SB,032,Fixed Speed Camera,40.00,07/22/2020 04:01:00 PM,40.00,,40.00,0.00,,,,,,,,
34344516,1BB4714,05,19,MD,NISS,2700 BLK GWYNNS FALLS PKY WB,032,Fixed Speed Camera,40.00,07/22/2020 04:01:00 PM,40.00,,40.00,0.00,,,,,,,,
34344532,5CR9035,11,20,MD,HOND,1300 BLK EAST NORTHERN PKWY WB,032,Fixed Speed Camera,40.00,07/22/2020 04:01:00 PM,40.00,,40.00,0.00,,,,,,,,
34344482,4DY3529,09,21,MD,MERZ,1600 BLK E BELVEDERE AVE EB,032,Fixed Speed Camera,40.00,07/22/2020 04:01:00 PM,40.00,,40.00,0.00,,,,,,,,
34344540,2DR3005,03,20,MD,CHRY,3600 BLK PARK HEIGHTS AVE SB,032,Fixed Speed Camera,40.00,07/22/2020 04:01:00 PM,40.00,,40.00,0.00,,,,,,,,
56535181,6EE9885,06,22,MD,FORD,Aliceanna St EB @ S Wolfe St,030,Red Light Violation,75.00,07/22/2020 04:00:00 PM,75.00,,75.00,0.00,,,,,,,,
34344441,2DG2890,03,22,MD,DODG,4400 BLK LIBERTY HEIGHTS AVE E,032,Fixed Speed Camera,40.00,07/22/2020 04:00:00 PM,40.00,,40.00,0.00,,,,,,,,
34344466,7AN9833,02,20,MD,TOYT,4400 BLK EDMONDSON AVE EB,032,Fixed Speed Camera,40.00,07/22/2020 04:00:00 PM,40.00,,40.00,0.00,,,,,,,,
34344474,5EF2936,07,20,MD,FORD,2400 BLK BELAIR RD SB,032,Fixed Speed Camera,40.00,07/22/2020 04:00:00 PM,40.00,,40.00,0.00,,,,,,,,
34344409,87201CH,04,21,MD,ACUR,3100 BLK LIBERTY HEIGHTS AVE E,032,Fixed Speed Camera,40.00,07/22/2020 04:00:00 PM,40.00,,40.00,0.00,,,,,,,,
34344458,6ED9744,05,22,MD,SUBA,1300 BLK EAST NORTHERN PKWY WB,032,Fixed Speed Camera,40.00,07/22/2020 04:00:00 PM,40.00,,40.00,0.00,,,,,,,,
34344425,6DS2865,04,19,MD,KIA,2700 BLK GWYNNS FALLS PKY WB,032,Fixed Speed Camera,40.00,07/22/2020 04:00:00 PM,40.00,,40.00,0.00,,,,,,,,
34344417,1DR7265,02,21,MD,SUBA,2800 BLK DUKELAND STREET SB,032,Fixed Speed Camera,40.00,07/22/2020 04:00:00 PM,40.00,,40.00,0.00,,,,,,,,
34344433,4DS9604,03,21,MD,LEXS,3500 BLK PARKHEIGHTS AV NB,032,Fixed Speed Camera,40.00,07/22/2020 04:00:00 PM,40.00,,40.00,0.00,,,,,,,,
34344391,15374HT,06,18,MD,NISS,600 BLK W NORTHERN PKWY EB,032,Fixed Speed Camera,40.00,07/22/2020 04:00:00 PM,40.00,,40.00,0.00,,,,,,,,
34344375,KYW9188,02,20,PA,BMW,1100 BLK E 33RD ST WB,032,Fixed Speed Camera,40.00,07/22/2020 03:59:00 PM,40.00,,40.00,0.00,,,,,,,,
34344367,5CC8734,09,21,MD,MERZ,5000 BLK ROLAND AVE NB,032,Fixed Speed Camera,40.00,07/22/2020 03:59:00 PM,40.00,,40.00,0.00,,,,,,,,
34344383,7EB6899,12,21,MD,NISS,5100 BLK BALTIMORE NATIONAL PI,032,Fixed Speed Camera,40.00,07/22/2020 03:59:00 PM,40.00,,40.00,0.00,,,,,,,,
34344359,6EA6469,10,21,MD,NISS,2700 BLK GWYNNS FALLS PKY WB,032,Fixed Speed Camera,40.00,07/22/2020 03:58:00 PM,40.00,,40.00,0.00,,,,,,,,
34344334,2BX4927,02,21,MD,CHEV,1200 BLK SOUTH CATON AVE NB,032,Fixed Speed Camera,40.00,07/22/2020 03:58:00 PM,40.00,,40.00,0.00,,,,,,,,
34344342,4DL5007,10,21,MD,HOND,1500 BLK E COLD SPRING LN WB,032,Fixed Speed Camera,40.00,07/22/2020 03:58:00 PM,40.00,,40.00,0.00,,,,,,,,
34344326,2CS5481,12,18,MD,FORD,1200 BLK E FORT AVE EB,032,Fixed Speed Camera,40.00,07/22/2020 03:58:00 PM,40.00,,40.00,0.00,,,,,,,,
34344318,9974Z4,08,21,MD,NISS,2600 BLK ECHODALE AVE EB,032,Fixed Speed Camera,40.00,07/22/2020 03:58:00 PM,40.00,,40.00,0.00,,,,,,,,
56535124,94V350,08,20,MD,FORD,E North Ave EB @ Harford Ave/R,030,Red Light Violation,75.00,07/22/2020 03:57:00 PM,75.00,,75.00,0.00,,,,,,,,
34344300,2EC7363,12,21,MD,NISS,1100 BLK DRUID HILL AVE SB,032,Fixed Speed Camera,40.00,07/22/2020 03:57:00 PM,40.00,,40.00,0.00,,,,,,,,
34344284,7CB3424,08,19,MD,NISS,4300 BLK ERDMAN AVE NB,032,Fixed Speed Camera,40.00,07/22/2020 03:56:00 PM,40.00,,40.00,0.00,,,,,,,,
56535108,5EF5885,06,22,MD,CADI,Erdman Ave EB @ Belair Rd,030,Red Light Violation,75.00,07/22/2020 03:56:00 PM,75.00,,75.00,0.00,,,,,,,,
34344276,1DC1433,11,19,MD,CADI,2700 BLK GWYNNS FALLS PKY WB,032,Fixed Speed Camera,40.00,07/22/2020 03:56:00 PM,40.00,,40.00,0.00,,,,,,,,
34344268,3EF8157,05,21,MD,MERZ,5200 BLK FRANKFORD AVE SB,032,Fixed Speed Camera,40.00,07/22/2020 03:56:00 PM,40.00,,40.00,0.00,,,,,,,,
34344250,3DK9976,09,20,MD,HYUN,4900 BLK FREDERICK AVE EB,032,Fixed Speed Camera,40.00,07/22/2020 03:55:00 PM,40.00,,40.00,0.00,,,,,,,,
34344235,8DG1742,07,20,MD,NISS,2700 BLK GWYNNS FALLS PKY WB,032,Fixed Speed Camera,40.00,07/22/2020 03:54:00 PM,40.00,,40.00,0.00,,,,,,,,
34344227,4BL0100,04,18,MD,LEXS,3000 BLK FEDERAL ST W/B,032,Fixed Speed Camera,40.00,07/22/2020 03:54:00 PM,40.00,,40.00,0.00,,,,,,,,
34344243,5CX5240,04,21,MD,CHEV,5600 BLK MORAVIA RD NB,032,Fixed Speed Camera,40.00,07/22/2020 03:54:00 PM,40.00,,40.00,0.00,,,,,,,,
34344219,RD8P2H,08,20,MO,JEEP,1300 BLK WEST COLD SPRING LN W,032,Fixed Speed Camera,40.00,07/22/2020 03:54:00 PM,40.00,,40.00,0.00,,,,,,,,
34344193,5CW9063,05,22,MD,FORD,600 BLK W NORTHERN PKWY EB,032,Fixed Speed Camera,40.00,07/22/2020 03:53:00 PM,40.00,,40.00,0.00,,,,,,,,
34344292,7DR2666,03,21,MD,TOYT,1500 BLK E COLD SPRING LN EB,032,Fixed Speed Camera,40.00,07/22/2020 03:53:00 PM,40.00,,40.00,0.00,,,,,,,,
34344201,3EF7014,07,22,MD,FORD,600 BLK W NORTHERN PKWY EB,032,Fixed Speed Camera,40.00,07/22/2020 03:53:00 PM,40.00,,40.00,0.00,,,,,,,,
56535082,4DS3555,03,21,MD,HOND,Pennsylvania Ave NB @ Dolphin,030,Red Light Violation,75.00,07/22/2020 03:52:00 PM,75.00,,75.00,0.00,,,,,,,,
34344185,4EC1051,12,21,MD,HYUN,1500 BLK E COLD SPRING LN WB,032,Fixed Speed Camera,40.00,07/22/2020 03:52:00 PM,40.00,,40.00,0.00,,,,,,,,
34344128,1DB7539,10,18,MD,TOYT,4900 BLK FREDERICK AVE EB,032,Fixed Speed Camera,40.00,07/22/2020 03:51:00 PM,40.00,,40.00,0.00,,,,,,,,
34344144,ZDJ4198,01,22,PA,CHEVR,1200 BLK EAST NORTHERN PKWY EB,032,Fixed Speed Camera,40.00,07/22/2020 03:51:00 PM,40.00,,40.00,0.00,,,,,,,,
34344177,7DK1671,07,20,MD,HOND,1200 BLK SOUTH CATON AVE NB,032,Fixed Speed Camera,40.00,07/22/2020 03:51:00 PM,40.00,,40.00,0.00,,,,,,,,
34344169,9DJ0494,07,20,MD,KIA,1300 BLK EAST NORTHERN PKWY WB,032,Fixed Speed Camera,40.00,07/22/2020 03:51:00 PM,40.00,,40.00,0.00,,,,,,,,
34344136,4EG9621,07,20,MD,HOND,5100 BLK PERRING PKWY SB,032,Fixed Speed Camera,40.00,07/22/2020 03:51:00 PM,40.00,,40.00,0.00,,,,,,,,
34344110,8DN8947,06,22,MD,HOND,600 BLK W NORTHERN PKWY WB,032,Fixed Speed Camera,40.00,07/22/2020 03:50:00 PM,40.00,,40.00,0.00,,,,,,,,
34344102,1ED7134,03,22,MD,KIA,2700 BLK GWYNNS FALLS PKY WB,032,Fixed Speed Camera,40.00,07/22/2020 03:50:00 PM,40.00,,40.00,0.00,,,,,,,,
34344094,2DP3801,04,21,MD,PORS,5100 BLK PERRING PKWY SB,032,Fixed Speed Camera,40.00,07/22/2020 03:50:00 PM,40.00,,40.00,0.00,,,,,,,,
34344086,UKB2872,03,21,VA,FORD,3500 BLK PARKHEIGHTS AV NB,032,Fixed Speed Camera,40.00,07/22/2020 03:49:00 PM,40.00,,40.00,0.00,,,,,,,,
34344078,1DR6923,05,21,MD,HOND,4900 BLK FREDERICK AVE EB,032,Fixed Speed Camera,40.00,07/22/2020 03:49:00 PM,40.00,,40.00,0.00,,,,,,,,
34344060,3BE4751,08,21,MD,TOYT,2400 BLK BELAIR RD NB,032,Fixed Speed Camera,40.00,07/22/2020 03:49:00 PM,40.00,,40.00,0.00,,,,,,,,
34344151,1DP0081,12,20,MD,JEEP,1200 BLK SOUTH CATON AVE NB,032,Fixed Speed Camera,40.00,07/22/2020 03:49:00 PM,40.00,,40.00,0.00,,,,,,,,
34344045,3DY3423,08,21,MD,HOND,600 BLK W NORTHERN PKWY WB,032,Fixed Speed Camera,40.00,07/22/2020 03:48:00 PM,40.00,,40.00,0.00,,,,,,,,
34344052,4AG4465,04,18,MD,FORD,4401 PENNINGTON AVE SB,032,Fixed Speed Camera,40.00,07/22/2020 03:48:00 PM,40.00,,40.00,0.00,,,,,,,,
34344029,WMU4808,05,18,VA,FORD,300 BLK KANE ST NB,032,Fixed Speed Camera,40.00,07/22/2020 03:48:00 PM,40.00,,40.00,0.00,,,,,,,,
34344037,4EB4946,12,21,MD,TOYT,3000 BLK LOCH RAVEN BLVD SB,032,Fixed Speed Camera,40.00,07/22/2020 03:48:00 PM,40.00,,40.00,0.00,,,,,,,,
34344011,2DD1898,12,19,MD,LINC,600 BLK W NORTHERN PKWY EB,032,Fixed Speed Camera,40.00,07/22/2020 03:47:00 PM,40.00,,40.00,0.00,,,,,,,,
34343989,75400HT,01,22,MD,CHEV,3000 BLK FEDERAL ST W/B,032,Fixed Speed Camera,40.00,07/22/2020 03:47:00 PM,40.00,,40.00,0.00,,,,,,,,
56535132,47300CE,08,20,MD,HOND,Erdman Ave EB @ Belair Rd,030,Red Light Violation,75.00,07/22/2020 03:47:00 PM,75.00,,75.00,0.00,,,,,,,,
34344003,5EF8914,07,20,MD,MAZD,4000 BLK THE ALAMEDA SB,032,Fixed Speed Camera,40.00,07/22/2020 03:47:00 PM,40.00,,40.00,0.00,,,,,,,,
34343997,7DL0205,09,20,MD,JEEP,5100 BLK PERRING PKWY SB,032,Fixed Speed Camera,40.00,07/22/2020 03:47:00 PM,40.00,,40.00,0.00,,,,,,,,
34343971,1EC1593,11,21,MD,FORD,2400 BLK BELAIR RD SB,032,Fixed Speed Camera,40.00,07/22/2020 03:46:00 PM,40.00,,40.00,0.00,,,,,,,,
34343948,374327T,08,20,MD,HOND,220 EAST PATAPSCO AVE EB,032,Fixed Speed Camera,40.00,07/22/2020 03:45:00 PM,40.00,,40.00,0.00,,,,,,,,
34343930,4CL2244,08,20,MD,TOYT,4300 BLK ERDMAN AVE NB,032,Fixed Speed Camera,40.00,07/22/2020 03:45:00 PM,40.00,,40.00,0.00,,,,,,,,
34343963,33416CG,06,21,MD,MINI,600 BLK W NORTHERN PKWY EB,032,Fixed Speed Camera,40.00,07/22/2020 03:45:00 PM,40.00,,40.00,0.00,,,,,,,,
34343955,2ED6947,03,22,MD,CHEV,600 BLK W NORTHERN PKWY EB,032,Fixed Speed Camera,40.00,07/22/2020 03:45:00 PM,40.00,,40.00,0.00,,,,,,,,
34343914,Y31HSP,04,21,NJ,HONDA,5100 BLK BALTIMORE NATIONAL PI,032,Fixed Speed Camera,40.00,07/22/2020 03:44:00 PM,40.00,,40.00,0.00,,,,,,,,
34343922,9BL5519,05,18,MD,LEXS,5100 BLK BALTIMORE NATIONAL PI,032,Fixed Speed Camera,40.00,07/22/2020 03:44:00 PM,40.00,,40.00,0.00,,,,,,,,
34343906,6EB5528,02,22,MD,HYUN,2700 BLK GWYNNS FALLS PKY WB,032,Fixed Speed Camera,40.00,07/22/2020 03:44:00 PM,40.00,,40.00,0.00,,,,,,,,
34343898,1DL1947,09,18,MD,ACUR,3000 BLK HILTON ST SB,032,Fixed Speed Camera,40.00,07/22/2020 03:44:00 PM,40.00,,40.00,0.00,,,,,,,,
34343864,2EF4679,04,22,MD,VOLK,1500 BLK E COLD SPRING LN WB,032,Fixed Speed Camera,40.00,07/22/2020 03:43:00 PM,40.00,,40.00,0.00,,,,,,,,
34343880,03058CJ,06,22,MD,NISS,6100 BLK O'DONNELL ST WB,032,Fixed Speed Camera,40.00,07/22/2020 03:43:00 PM,40.00,,40.00,0.00,,,,,,,,
34343872,R19FNA,07,20,NJ,AUDI,1500 BLK E COLD SPRING LN WB,032,Fixed Speed Camera,40.00,07/22/2020 03:43:00 PM,40.00,,40.00,0.00,,,,,,,,
56535066,2CC9530,10,21,MD,SUBA,N President St SB @ E Fayette,030,Red Light Violation,75.00,07/22/2020 03:43:00 PM,75.00,,75.00,0.00,,,,,,,,
34343823,7DR4001,03,21,MD,TOYT,2800 BLK DUKELAND STREET SB,032,Fixed Speed Camera,40.00,07/22/2020 03:42:00 PM,40.00,,40.00,0.00,,,,,,,,
34343856,05486C,11,21,MD,FORD,3900 BLK THE ALAMEDA WB,032,Fixed Speed Camera,40.00,07/22/2020 03:42:00 PM,40.00,,40.00,0.00,,,,,,,,
34343831,3BD1994,09,18,MD,DODG,2700 BLK GWYNNS FALLS PKY WB,032,Fixed Speed Camera,40.00,07/22/2020 03:42:00 PM,40.00,,40.00,0.00,,,,,,,,
34343849,2EB7283,01,22,MD,FORD,2800 BLK DUKELAND STREET SB,032,Fixed Speed Camera,40.00,07/22/2020 03:42:00 PM,40.00,,40.00,0.00,,,,,,,,
56536817,5DR3910,01,21,MD,HYUN,E Monument St EB @ N Broadway,030,Red Light Violation,75.00,07/22/2020 03:42:00 PM,75.00,,75.00,0.00,,,,,,,,
34343815,2EF3246,06,20,MD,HOND,3600 BLK PARK HEIGHTS AVE SB,032,Fixed Speed Camera,40.00,07/22/2020 03:42:00 PM,40.00,,40.00,0.00,,,,,,,,
34343781,95628CH,08,21,MD,PORS,3800 BLK LIBERTY HEIGHTS AVE W,032,Fixed Speed Camera,40.00,07/22/2020 03:41:00 PM,40.00,,40.00,0.00,,,,,,,,
34343773,3DX6896,09,21,MD,KIA,1500 BLK E COLD SPRING LN WB,032,Fixed Speed Camera,40.00,07/22/2020 03:41:00 PM,40.00,,40.00,0.00,,,,,,,,
34343799,05629CJ,02,20,MD,ACUR,100 BLK KANE ST SB,032,Fixed Speed Camera,40.00,07/22/2020 03:41:00 PM,40.00,,40.00,0.00,,,,,,,,
34343807,DV7288,00,0,MD,CHRY,2800 BLK DUKELAND STREET SB,032,Fixed Speed Camera,40.00,07/22/2020 03:41:00 PM,40.00,,40.00,0.00,,,,,,,,
34343740,1ED8384,05,20,MD,MAZD,4000 BLK THE ALAMEDA SB,032,Fixed Speed Camera,40.00,07/22/2020 03:40:00 PM,40.00,,40.00,0.00,,,,,,,,
34343765,1CE3353,11,21,MD,CHRY,2700 BLK GWYNNS FALLS PKY WB,032,Fixed Speed Camera,40.00,07/22/2020 03:40:00 PM,40.00,,40.00,0.00,,,,,,,,
34343732,4EE2725,04,20,MD,DODG,2400 BLK ERDMAN AVE NB,032,Fixed Speed Camera,40.00,07/22/2020 03:40:00 PM,40.00,,40.00,0.00,,,,,,,,
34343724,ZLF2501,03,20,PA,FORD,1300 BLK EAST NORTHERN PKWY WB,032,Fixed Speed Camera,40.00,07/22/2020 03:40:00 PM,40.00,,40.00,0.00,,,,,,,,
34343757,7EE1576,05,21,MD,BUIC,1600 BLK E BELVEDERE AVE EB,032,Fixed Speed Camera,40.00,07/22/2020 03:40:00 PM,40.00,,40.00,0.00,,,,,,,,
34343716,8CX8988,09,19,MD,RAM,1500 BLK E COLD SPRING LN EB,032,Fixed Speed Camera,40.00,07/22/2020 03:39:00 PM,40.00,,40.00,0.00,,,,,,,,
34343682,G39944,07,20,VA,HOND,3600 BLK PARK HEIGHTS AVE SB,032,Fixed Speed Camera,40.00,07/22/2020 03:38:00 PM,40.00,,40.00,0.00,,,,,,,,
34343674,2AJ5780,06,19,MD,HYUN,600 BLK W NORTHERN PKWY WB,032,Fixed Speed Camera,40.00,07/22/2020 03:38:00 PM,40.00,,40.00,0.00,,,,,,,,
34343666,7DH4930,03,20,MD,BUIC,4401 PENNINGTON AVE SB,032,Fixed Speed Camera,40.00,07/22/2020 03:38:00 PM,40.00,,40.00,0.00,,,,,,,,
34343708,7DZ2768,06,22,MD,DODG,2700 BLK GWYNNS FALLS PKY WB,032,Fixed Speed Camera,40.00,07/22/2020 03:38:00 PM,40.00,,40.00,0.00,,,,,,,,
34343690,9DN1726,12,20,MD,HYUN,1200 BLK SOUTH CATON AVE NB,032,Fixed Speed Camera,40.00,07/22/2020 03:38:00 PM,40.00,,40.00,0.00,,,,,,,,
34343641,1DX6251,07,21,MD,HOND,2700 BLK W. NORTH AV. W/B,032,Fixed Speed Camera,40.00,07/22/2020 03:37:00 PM,40.00,,40.00,0.00,,,,,,,,
34343633,16115CJ,02,22,MD,ACUR,1300 BLK W FRANKLIN ST WB,032,Fixed Speed Camera,40.00,07/22/2020 03:37:00 PM,40.00,,40.00,0.00,,,,,,,,
34343658,4EC9897,07,20,MD,ACUR,2700 BLK GWYNNS FALLS PKY WB,032,Fixed Speed Camera,40.00,07/22/2020 03:37:00 PM,40.00,,40.00,0.00,,,,,,,,
34343625,28159CJ,10,21,MD,AUDI,1200 BLK SOUTH CATON AVE NB,032,Fixed Speed Camera,40.00,07/22/2020 03:37:00 PM,40.00,,40.00,0.00,,,,,,,,
34343609,5ED2085,02,21,MD,BUIC,3000 BLK HILTON ST SB,032,Fixed Speed Camera,40.00,07/22/2020 03:36:00 PM,40.00,,40.00,0.00,,,,,,,,
56536759,SSM432,00,0,SC,LEXUS,Pulaski Hwy EB @ Moravia Park,030,Red Light Violation,75.00,07/22/2020 03:36:00 PM,75.00,,75.00,0.00,,,,,,,,
34343617,9DA8159,09,19,MD,HOND,3900 BLK THE ALAMEDA WB,032,Fixed Speed Camera,40.00,07/22/2020 03:36:00 PM,40.00,,40.00,0.00,,,,,,,,
34343591,5DS3549,03,21,MD,TOYT,3000 BLK HILTON ST SB,032,Fixed Speed Camera,40.00,07/22/2020 03:36:00 PM,40.00,,40.00,0.00,,,,,,,,
34343583,5CP0012,10,20,MD,FORD,100 BLK KANE ST SB,032,Fixed Speed Camera,40.00,07/22/2020 03:35:00 PM,40.00,,40.00,0.00,,,,,,,,
34343575,2CT7823,01,19,MD,CHEV,100 BLK KANE ST SB,032,Fixed Speed Camera,40.00,07/22/2020 03:35:00 PM,40.00,,40.00,0.00,,,,,,,,
34343567,2BB5176,06,20,MD,KIA,1500 BLK E COLD SPRING LN WB,032,Fixed Speed Camera,40.00,07/22/2020 03:35:00 PM,40.00,,40.00,0.00,,,,,,,,
34343559,6EB7805,05,22,MD,JEEP,5600 BLK MORAVIA RD NB,032,Fixed Speed Camera,40.00,07/22/2020 03:34:00 PM,40.00,,40.00,0.00,,,,,,,,
34343542,9AG0892,05,21,MD,KIA,6100 BLK O'DONNELL ST WB,032,Fixed Speed Camera,40.00,07/22/2020 03:34:00 PM,40.00,,40.00,0.00,,,,,,,,
34343500,7EF5520,07,20,MD,FORD,3700 BLK FALLSTAFF RD EB,032,Fixed Speed Camera,40.00,07/22/2020 03:33:00 PM,40.00,,40.00,0.00,,,,,,,,
34343526,4EB2192,10,21,MD,HOND,3700 BLK FALLSTAFF RD EB,032,Fixed Speed Camera,40.00,07/22/2020 03:33:00 PM,40.00,,40.00,0.00,,,,,,,,
56534275,KSWIFT,10,20,MD,NISS,N Fulton Ave NB @ W North Ave,030,Red Light Violation,75.00,07/22/2020 03:33:00 PM,75.00,,75.00,0.00,,,,,,,,
34343518,UKC6189,03,21,VA,ACUR,000 BLK W UNIVERSITY PARKWAY E,032,Fixed Speed Camera,40.00,07/22/2020 03:33:00 PM,40.00,,40.00,0.00,,,,,,,,
34343534,1EG7254,07,20,MD,MERZ,1500 BLK E COLD SPRING LN EB,032,Fixed Speed Camera,40.00,07/22/2020 03:33:00 PM,40.00,,40.00,0.00,,,,,,,,
34343492,9BX1455,03,19,MD,HYUN,6100 BLK HARFORD RD NB,032,Fixed Speed Camera,40.00,07/22/2020 03:32:00 PM,40.00,,40.00,0.00,,,,,,,,
34343443,5EF8938,08,20,MD,GMC,1200 BLK SOUTH CATON AVE NB,032,Fixed Speed Camera,40.00,07/22/2020 03:31:00 PM,40.00,,40.00,0.00,,,,,,,,
34343476,6EB2463,12,19,MD,HOND,4300 BLK ERDMAN AVE SB,032,Fixed Speed Camera,40.00,07/22/2020 03:31:00 PM,40.00,,40.00,0.00,,,,,,,,
34343450,UJN9837,07,21,VA,NISS,1100 BLK WOODBOURNE AVE EB,032,Fixed Speed Camera,40.00,07/22/2020 03:31:00 PM,40.00,,40.00,0.00,,,,,,,,
34343484,2CD8905,10,19,MD,KIA,3000 BLK FEDERAL ST W/B,032,Fixed Speed Camera,40.00,07/22/2020 03:31:00 PM,40.00,,40.00,0.00,,,,,,,,
34343468,7EF8115,06,22,MD,SUBA,5100 BLK ROLAND AVE SB,032,Fixed Speed Camera,40.00,07/22/2020 03:31:00 PM,40.00,,40.00,0.00,,,,,,,,
34343401,6EC3858,04,20,MD,FORD,3000 BLK HILTON ST SB,032,Fixed Speed Camera,40.00,07/22/2020 03:30:00 PM,40.00,,40.00,0.00,,,,,,,,
34343393,7ED1762,03,22,MD,HYUN,6100 BLK O'DONNELL ST WB,032,Fixed Speed Camera,40.00,07/22/2020 03:30:00 PM,40.00,,40.00,0.00,,,,,,,,
34343435,2CE3020,12,19,MD,TOYT,000 BLK W UNIVERSITY PARKWAY E,032,Fixed Speed Camera,40.00,07/22/2020 03:30:00 PM,40.00,,40.00,0.00,,,,,,,,
56536643,UHJ1813,00,0,VA,KIA,Reisterstown Rd SB @ W Norther,030,Red Light Violation,75.00,07/22/2020 03:30:00 PM,75.00,,75.00,0.00,,,,,,,,
34343427,8CN0991,06,19,MD,GMC,220 EAST PATAPSCO AVE EB,032,Fixed Speed Camera,40.00,07/22/2020 03:30:00 PM,40.00,,40.00,0.00,,,,,,,,
34343419,4DS6137,03,21,MD,FORD,1100 BLK WOODBOURNE AVE EB,032,Fixed Speed Camera,40.00,07/22/2020 03:30:00 PM,40.00,,40.00,0.00,,,,,,,,
34343385,5DN6835,01,21,MD,NISS,2400 BLK BELAIR RD NB,032,Fixed Speed Camera,40.00,07/22/2020 03:29:00 PM,40.00,,40.00,0.00,,,,,,,,
34343377,4EG7576,08,20,MD,INFI,2600 BLK EDMONDSON AVE WB,032,Fixed Speed Camera,40.00,07/22/2020 03:29:00 PM,40.00,,40.00,0.00,,,,,,,,
34343369,85268CF,09,19,MD,HOND,3700 BLK FALLSTAFF RD WB,032,Fixed Speed Camera,40.00,07/22/2020 03:29:00 PM,40.00,,40.00,0.00,,,,,,,,
34343302,92575CH,04,20,MD,INFI,2700 BLK GWYNNS FALLS PKY WB,032,Fixed Speed Camera,40.00,07/22/2020 03:28:00 PM,40.00,,40.00,0.00,,,,,,,,
34343351,6ED5269,03,22,MD,HOND,5800 BLK BELLONA AVE NB,032,Fixed Speed Camera,40.00,07/22/2020 03:28:00 PM,40.00,,40.00,0.00,,,,,,,,
56535199,6DX4814,08,21,MD,TOYT,N Calvert St NB @ E Baltimore,030,Red Light Violation,75.00,07/22/2020 03:28:00 PM,75.00,,75.00,0.00,,,,,,,,
34343310,8DS9818,05,21,MD,CHEV,100 BLK S HILTON ST NB,032,Fixed Speed Camera,40.00,07/22/2020 03:28:00 PM,40.00,,40.00,0.00,,,,,,,,
34343344,252738T,04,20,MD,NISS,3900 BLK THE ALAMEDA WB,032,Fixed Speed Camera,40.00,07/22/2020 03:28:00 PM,40.00,,40.00,0.00,,,,,,,,
34343294,261M068,04,20,MD,CHEV,6100 BLK O'DONNELL ST WB,032,Fixed Speed Camera,40.00,07/22/2020 03:28:00 PM,40.00,,40.00,0.00,,,,,,,,
34343336,2DB5849,10,19,MD,NISS,1200 BLK SOUTH CATON AVE NB,032,Fixed Speed Camera,40.00,07/22/2020 03:28:00 PM,40.00,,40.00,0.00,,,,,,,,
34343328,6EB1783,11,21,MD,CHEV,1200 BLK SOUTH CATON AVE NB,032,Fixed Speed Camera,40.00,07/22/2020 03:28:00 PM,40.00,,40.00,0.00,,,,,,,,
34343286,1CR0983,11,18,MD,BMW,600 BLK W NORTHERN PKWY EB,032,Fixed Speed Camera,40.00,07/22/2020 03:27:00 PM,40.00,,40.00,0.00,,,,,,,,
34343237,5EG5483,08,20,MD,TOYT,5300 BLK WABASH AV EB,032,Fixed Speed Camera,40.00,07/22/2020 03:27:00 PM,40.00,,40.00,0.00,,,,,,,,
34343278,7EG4341,08,20,MD,HOND,2300 BLK GWYNNS FALLS PKY EB,032,Fixed Speed Camera,40.00,07/22/2020 03:27:00 PM,40.00,,40.00,0.00,,,,,,,,
34343245,6DT1349,07,20,MD,CHEV,2700 BLK WATERVIEW AVE WB,032,Fixed Speed Camera,40.00,07/22/2020 03:27:00 PM,40.00,,40.00,0.00,,,,,,,,
34343260,1BH8273,02,21,MD,CHEV,1300 BLK WEST COLD SPRING LN W,032,Fixed Speed Camera,40.00,07/22/2020 03:27:00 PM,40.00,,40.00,0.00,,,,,,,,
34343252,7DS0054,04,21,MD,CHEV,2600 BLK FEDERAL ST EB,032,Fixed Speed Camera,40.00,07/22/2020 03:27:00 PM,40.00,,40.00,0.00,,,,,,,,
34343229,3EF0661,06,20,MD,HYUN,2400 BLK N MONROE ST SB,032,Fixed Speed Camera,40.00,07/22/2020 03:26:00 PM,40.00,,40.00,0.00,,,,,,,,
34343211,7CX2724,06,19,MD,NISS,2700 BLK GWYNNS FALLS PKY WB,032,Fixed Speed Camera,40.00,07/22/2020 03:26:00 PM,40.00,,40.00,0.00,,,,,,,,
34343153,04L067,11,20,MD,CHEV,1300 BLK WEST COLD SPRING LN W,032,Fixed Speed Camera,40.00,07/22/2020 03:25:00 PM,40.00,,40.00,0.00,,,,,,,,
34343203,6BV1276,01,21,MD,CHEV,4401 PENNINGTON AVE SB,032,Fixed Speed Camera,40.00,07/22/2020 03:25:00 PM,40.00,,40.00,0.00,,,,,,,,
34343146,2EC1002,01,22,MD,MERZ,3000 BLK LOCH RAVEN BLVD SB,032,Fixed Speed Camera,40.00,07/22/2020 03:25:00 PM,40.00,,40.00,0.00,,,,,,,,
34343187,4BX4507,04,21,MD,CHEV,6100 BLK O'DONNELL ST WB,032,Fixed Speed Camera,40.00,07/22/2020 03:25:00 PM,40.00,,40.00,0.00,,,,,,,,
34343179,4EE0660,06,21,MD,HOND,3800 BLK LIBERTY HEIGHTS AVE W,032,Fixed Speed Camera,40.00,07/22/2020 03:25:00 PM,40.00,,40.00,0.00,,,,,,,,
34343195,1DT4257,08,20,MD,DODG,1300 BLK EAST NORTHERN PKWY WB,032,Fixed Speed Camera,40.00,07/22/2020 03:25:00 PM,40.00,,40.00,0.00,,,,,,,,
56537005,KJA6808,00,0,PA,CHEV,Eastern Ave WB @ S Patterson P,030,Red Light Violation,75.00,07/22/2020 03:25:00 PM,75.00,,75.00,0.00,,,,,,,,
34343161,6BE9449,11,16,MD,DODG,3000 BLK FEDERAL ST W/B,032,Fixed Speed Camera,40.00,07/22/2020 03:25:00 PM,40.00,,40.00,0.00,,,,,,,,
34343138,RUH383,08,21,SC,TOYT,1300 BLK W FRANKLIN ST WB,032,Fixed Speed Camera,40.00,07/22/2020 03:24:00 PM,40.00,,40.00,0.00,,,,,,,,
34343120,6EE1731,05,20,MD,NISS,5000 BLK ROLAND AVE NB,032,Fixed Speed Camera,40.00,07/22/2020 03:24:00 PM,40.00,,40.00,0.00,,,,,,,,
34343112,9EC5404,02,22,MD,CHEV,4300 BLK ERDMAN AVE SB,032,Fixed Speed Camera,40.00,07/22/2020 03:23:00 PM,40.00,,40.00,0.00,,,,,,,,
34343088,5DZ6430,09,20,MD,HOND,4400 BLK EDMONDSON AVE EB,032,Fixed Speed Camera,40.00,07/22/2020 03:23:00 PM,40.00,,40.00,0.00,,,,,,,,
56534663,096Z95,07,21,MD,HOND,Eastern Ave EB @ S Patterson P,030,Red Light Violation,75.00,07/22/2020 03:23:00 PM,75.00,,75.00,0.00,,,,,,,,
34343104,G87077,08,20,VA,DODG,200 BLK S HILTON ST SB,032,Fixed Speed Camera,40.00,07/22/2020 03:23:00 PM,40.00,,40.00,0.00,,,,,,,,
34343096,3DT1209,02,21,MD,TOYT,200 BLK S HILTON ST SB,032,Fixed Speed Camera,40.00,07/22/2020 03:23:00 PM,40.00,,40.00,0.00,,,,,,,,
56536999,2CT6317,12,20,MD,FORD,Caton Ave SB @ Wilkens Ave,030,Red Light Violation,75.00,07/22/2020 03:23:00 PM,75.00,,75.00,0.00,,,,,,,,
34343047,8CN8457,10,18,MD,SUBA,600 BLK W NORTHERN PKWY WB,032,Fixed Speed Camera,40.00,07/22/2020 03:22:00 PM,40.00,,40.00,0.00,,,,,,,,
34343062,4ED2581,03,22,MD,HYUN,3000 BLK FEDERAL ST W/B,032,Fixed Speed Camera,40.00,07/22/2020 03:22:00 PM,40.00,,40.00,0.00,,,,,,,,
34343070,73521HT,12,21,MD,DODG,2400 BLK BELAIR RD SB,032,Fixed Speed Camera,40.00,07/22/2020 03:22:00 PM,40.00,,40.00,0.00,,,,,,,,
